"entity_name","entity_role","street_address","suite_apartment_number","city","state","postcode","country","owner_officer_1_first_name","owner_officer_1_last_name","individual_role_1","individual_title_1","officer_equivalent_1","owner_officer_2_first_name","owner_officer_2_last_name","individual_role_2","individual_title_2","officer_equivalent_2","owner_officer_3_first_name","owner_officer_3_last_name","individual_role_3","individual_title_3","officer_equivalent_3","owner_officer_4_first_name","owner_officer_4_last_name","individual_role_4","individual_title_4","officer_equivalent_4","owner_officer_5_first_name","owner_officer_5_last_name","individual_role_5","individual_title_5","officer_equivalent_5","borough","zipcode","assembly_district","election_district_","bin","bbl","community_board","council_district","census_tract","nta","latitude","longitude"
"JOSEPH L. BALKAN, INC.","Sub-Contractor","130-01 JAMAICA  Avenue",,"Richmond Hill","NEW YORK","11418","USA","David","Balkan","Officer","CEO","Chief Executive Officer",,,,,,,,,,,,,,,,,,,,,"Queens","11418","27","002","4193992","4092820026","09","29","14202","QN54","40.701855","-73.822060"
"BANTA HOMES CORP.","Contractor","90-11 160th Street",,"Jamaica","NEW YORK","11433","USA","Eric","Bluestone","Both","Mr.","Chief Operating Officer","Eric","Bluestone","Both","Mr",,"Eric","Bluestone","Both","Mr","Chief Operating Officer","Eric","Bluestone","Both","Mr.",,,,,,,"Queens","11432","32","003","4000000","4097577501","12","24","44601","QN61","40.704969","-73.799903"
"JOY CONSTRUCTION CORPORATION","Contractor","40 Fulton Street","21st floor","New York City","NEW YORK","10038","USA","Amnon","Shalhov","Both","President",,"Amnon","Shalhov","Owner","owner",,"Amnon","Shalhov","Owner","Owner",,"Amnon","Shalhov","Owner","President",,,,,,,"Manhattan","10038","65","005","1075618","1000750021","01","01","1502","MN25","40.707904","-74.004411"
"JOY CONSTRUCTION CORPORATION","Sub-Contractor","40 Fulton Street","21st floor","New York City","NEW YORK","10038","USA","Amnon","Shalhov","Both","President",,"Amnon","Shalhov","Owner","owner",,"Amnon","Shalhov","Owner","Owner",,"Amnon","Shalhov","Owner","President",,,,,,,"Manhattan","10038","65","005","1075618","1000750021","01","01","1502","MN25","40.707904","-74.004411"
"MONADNOCK CONSTRUCTION, INC.","Sub-Contractor","155 3rd Street",,"Brooklyn","NEW YORK","11231","USA","Greg","Bauso","Both","president",,"Greg","Bauso","Both","pres",,"Greg","Bauso","Owner","President",,"greg","Bauso","Officer","President",,"Greg","Bauso","Both","President","Chief Executive Officer","Brooklyn","11231","52","096","3255167","3004620014","06","39","77","BK33","40.676465","-73.990861"
"MONADNOCK CONSTRUCTION, INC.","Contractor","155 3rd Street",,"Brooklyn","NEW YORK","11231","USA","Greg","Bauso","Both","president",,"Greg","Bauso","Both","pres",,"Greg","Bauso","Owner","President",,"greg","Bauso","Officer","President",,"Greg","Bauso","Both","President","Chief Executive Officer","Brooklyn","11231","52","096","3255167","3004620014","06","39","77","BK33","40.676465","-73.990861"
"Mountco Construction","Contractor","700 White Plains Road",,"Scarsdale","NEW YORK","10583","USA","Joel","Mounty","Owner","President",,,,,,,,,,,,,,,,,,,,,,"Out of NYC",,,,,,,,,,,
"A.A.D. CONSTRUCTION CORP.","Contractor","141 Dwight Street",,"Brooklyn","NEW YORK","11231","USA","ATHANASIOS","AMAXAS","Officer","Vice President",,"ATHANASIOS","AMAXAS","Both","President/CEO","Chief Executive Officer","Tom","Amaxas","Owner","President",,"Richard","Preiser","Officer","Project Manager",,"ATHANASIOS","AMAXAS","Owner","VICE PRESIDENT",,"Brooklyn","11231","51","054","3398518","3005780001","06","38","53","BK33","40.674832","-74.010451"
"L&M GROUP BUILDERS LLC","Contractor","1865 Palmer Ave","201","Larchmont","NEW YORK","8103","USA","Juri","Gerena","Officer","WCD Compliance",,"Juri","Gerena","Owner","Compliance Manager",,"Krystal","Peartree-McLean","Officer","Director of WCD",,"Lisa","Gomez","Officer","Partner",,"Juri","Gerena","Officer","Assistant Compliance Manager",,"Out of NYC",,,,,,,,,,,
"ERIN  CONSTRUCTION & DEVELOPMENT CO INC","Contractor","121 Lakeville Road",,"New Hyde Park","NEW YORK","11040","USA","John","Murnane","Owner","President",,"Officer1","Officer2","Owner","President",,"JOHN","MURNANE","Owner","PRESIDENT",,"John","Murnane","Both","Owner, President","Chief Executive Officer","John","Murnane","Owner","Owner",,"Out of NYC",,,,,,,,,,,
"APEX BUILDING COMPANY","Contractor","51 East 125th Street, 3rd Floor",,"New York City","NEW YORK","10035","USA","Robert","Horsford","Both","President/CEO","Chief Executive Officer","Robert","Horsford","Owner","President",,,,,,,,,,,,,,,,,"Manhattan","10035","68","082","1082075","1017500021","11","09","198","MN34","40.805605","-73.940309"
"TG NICKEL","Contractor","22 Colt  Court",,"Ronkonkoma","NEW YORK","11779","USA","Anthony","Consigli","Both","CEO","Chief Executive Officer",,,,,,,,,,,,,,,,,,,,,"Out of NYC",,,,,,,,,,,
"REAL BUILDERS, INC","Contractor","77 Cuttermill  Road","Suite 308","Great Neck","NEW YORK","11021","USA","Daniel","Rad","Officer","Treasurer","Chief Financial Officer","DANIEL","RAD","Owner","TREASURER",,"Jacob","Rad","Owner","Owner",,"Daniel","Rad","Owner","Treasurer",,"Dan","Rad","Owner","Treasurer",,"Out of NYC",,,,,,,,,,,
"L. RISO & SONS CO., INC.","Contractor","36-35 Bell  Boulevard",,"Bayside","NEW YORK","11361","USA","James","Riso","Officer","Vice President",,"James","Riso","Officer","VICE PRESIDENT",,"James","Riso","Both","President",,"JAMES","RISO","Both","VICE PRESIDENT","Chief Executive Officer","James","Riso","Owner","President",,"Queens","11361","26","070","4136571","4061760058","11","19","1123","QN46","40.767772","-73.773154"
"HARRIS WATER MAIN & SEWER","Sub-Contractor","2600 Atlantic Avenue",,"Brooklyn","NEW YORK","11207","USA","Michael","Kayne","Officer","V.P of New Construction",,"Steven","Kogel","Both","President","Chief Executive Officer",,,,,,,,,,,,,,,,"Brooklyn","11207","55","040","3083486","3036850021","05","37","1198","BK82","40.675639","-73.898346"
"SOLAR PLUMBING DESIGN INC.","Sub-Contractor","373 South 1st Street","1","Brooklyn","NEW YORK","11211","USA","Jessica","Baldwin","Officer","President","Chief Executive Officer",,,,,,,,,,,,,,,,,,,,,"Brooklyn","11211","53","008","3062878","3023990024","01","34","513","BK73","40.710620","-73.952719"
"OTIS ELEVATOR CO.","Sub-Contractor","65 Fairchild Avenue",,"Plainview","NEW YORK","11803","USA","Jonathan","Shankman","Both",,,"Tyler","Boehme","Officer","Executive",,"Judy","Marks","Officer","CEO","Chief Executive Officer","Tyler","Boehme","Officer","Manager","Chief Executive Officer","Jim","Cramer","Both","President","Chief Executive Officer","Out of NYC",,,,,,,,,,,
"CROWN WATERPROOFING","Sub-Contractor","1 West Sandford Blvd.",,"Mount Vernon","NEW YORK","10550","USA","Gerard","Decina","Owner","President",,"Gerard","Derina","Both","owner","Chief Executive Officer","Gerard","Deuna","Officer","President",,"Gerard","Decina","Both","president","Chief Executive Officer","Gerard","Decina","Officer",,,"Out of NYC",,,,,,,,,,,
"A&R ELECTRICAL MAINTENANCE","Sub-Contractor","85-45 Grand Ave",,"Elmhurst","NEW YORK","11373","USA","Robert","Cerrito","Owner","Vice President",,"Anthony","Cerrito","Both","President","Chief Operating Officer","Robert","Cerrito","Officer","President","Chief Executive Officer","Anthony","Cerrito","Officer","PRESIDENT",,"Anthony","Cerrito","Both","PRESIDENT","Chief Executive Officer","Queens","11373","35","002","4057279","4024750057","04","25","479","QN50","40.735609","-73.881017"
"EMPIRE STATE INSTALL","Sub-Contractor","555 State Road","Ste 101","Bensalem","NEW YORK","19020","USA","Michael","Zuidema","Officer","CFO","Chief Financial Officer","Roseann","Sherno","Both","Payroll",,"Michael","Zuidema","Officer","CFO",,,,,,,,,,,,"Out of NYC",,,,,,,,,,,
"EMPIRE STATE INSTALL","Contractor","555 State Road","Ste 101","Bensalem","NEW YORK","19020","USA","Michael","Zuidema","Officer","CFO","Chief Financial Officer","Roseann","Sherno","Both","Payroll",,"Michael","Zuidema","Officer","CFO",,,,,,,,,,,,"Out of NYC",,,,,,,,,,,
"A. SANITA CONCRETE & CONSTRUCTION, INC.","Sub-Contractor","1145 Park Ave","1st Floor","Franklin Square","NEW YORK","11010","USA","Americo P.","Sanita","Both","President","Chief Executive Officer","Adrienne","Smith","Both","Vice President","Chief Financial Officer",,,,,,,,,,,,,,,,"Out of NYC",,,,,,,,,,,
"MAC-TESTA CONTRACTING CORP","Sub-Contractor","2424 Route 52","Ste 2C","Hopewell Junction","NEW YORK","12533","USA","Richard","Mackey","Officer","President",,"DEIRDRE","MACKEY","Officer","VICE PRESIDENT",,"Richard","Mackey","Officer","COO","Chief Operating Officer","Richard","Mackey","Both","PRESIDENT","Chief Executive Officer","Jerry","Buckley","Owner","Vice-President",,"Out of NYC",,,,,,,,,,,
"SOIL SOLUTIONS INC","Sub-Contractor","110 Cherry Valley Ave",,"West Hempstead","NEW YORK","11552","USA","Vincent","Dejana","Officer","COO","Chief Operating Officer","Neha","Shah","Both","Pres",,"VINCENT","DEJANA","Officer","PRESIDENT",,"Vincent","Dejana","Owner","president",,"Vincent","Dejana","Officer","President",,"Out of NYC",,,,,,,,,,,
"GLO ELECTRIC LLC","Sub-Contractor","441 Wild Avenue",,"Staten Island","NEW YORK","10314","USA","Nicole","Randazzo","Both","UNKNOWN",,"Louis","Dionio","Both",,,"Nicole","Randazzo","Officer","Officer",,"Louis","Dionio","Both","pres",,"Peter","Gioelle","Officer","President",,"Staten Island","10314","63","018","5157741","5027050069","02","50","29102","SI05","40.585866","-74.196083"
"4 BROTHERS AND SONS FENCE INC","Contractor","10 Yellow Stone Ave",,"White Plains","NEW YORK","10607","USA","Nick","Berisha","Officer","officer",,"Hysni","Berisha","Owner","President",,"Ardijan","Berisha","Officer","Vice president",,"Nick","Barisha","Both","officer",,"ARDIJAN","BERISHA","Officer","Vice President",,"Out of NYC",,,,,,,,,,,
"4 BROTHERS AND SONS FENCE INC","Sub-Contractor","10 Yellow Stone Ave",,"White Plains","NEW YORK","10607","USA","Nick","Berisha","Officer","officer",,"Hysni","Berisha","Owner","President",,"Ardijan","Berisha","Officer","Vice president",,"Nick","Barisha","Both","officer",,"ARDIJAN","BERISHA","Officer","Vice President",,"Out of NYC",,,,,,,,,,,
"TEMPA GENERAL CONTRACTION CORP.","Sub-Contractor","46-25 54th Ave",,"Maspeth","NEW YORK","11378","USA","Franco","Colarusso","Owner","President",,"Franco","Colarusso","Owner",,,,,,,,,,,,,,,,,,"Queens","11378","37","066","4533731","4025440018","02","30","205","QN31","40.731578","-73.921375"
"QUEUE ELECTRICAL","Sub-Contractor","2244 119th street",,"College Point","NEW YORK","11356","USA","Anthony","Quinones","Owner","PRESIDENT",,"Anthony","Quinones","Owner","Owner",,"Anthony","Quinones","Owner","OWNER",,"Anthony","Quinones","Both","OWNER",,"ANTHONY","QUINONES","Both","OWNER",,"Queens","11356","27","062","4438012","4041940020","07","19","919","QN23","40.779429","-73.848807"
"TECHNOVOLT","Sub-Contractor","28-29 119th Street",,"Flushing","NEW YORK","11354","USA","Kia","Gjini","Both","OWNER",,"Kia","Gjini","Owner","President",,"Kia","Gjini","Owner","president",,"Peter","Ginis","Owner","President",,"Kia","Gjini","Both","Owner",,"Queens","11354","27","060","4100693","4043160004","07","19","907","QN23","40.772680","-73.848800"
"RNC INDUSTRIES, LLC","Contractor","720 Blue Point Road",,"Holtsvile","NEW YORK","11742","USA","Rich","Tonyes","Officer","President",,"Rich","Tonyes","Owner","Preisdent",,"Robert","Dugan","Officer","President","Chief Executive Officer","Joe","Spigonardo","Both","Pres",,"Barbara","Kenny","Both",,,"Out of NYC",,,,,,,,,,,
"RNC INDUSTRIES, LLC","Sub-Contractor","720 Blue Point Road",,"Holtsvile","NEW YORK","11742","USA","Rich","Tonyes","Officer","President",,"Rich","Tonyes","Owner","Preisdent",,"Robert","Dugan","Officer","President","Chief Executive Officer","Joe","Spigonardo","Both","Pres",,"Barbara","Kenny","Both",,,"Out of NYC",,,,,,,,,,,
"MARINE BULKHEADING INC","Sub-Contractor","3512 Bay Ct.",,"Seaford","NEW YORK","11783","USA","Thomas","Desousa","Officer","Vice President",,"Michael","DeSousa","Owner","President",,"Edwin","Torres","Both","President",,"Michael","DeSousa","Owner","Pres",,"Michael","DeSausa","Owner","Owner",,"Out of NYC",,,,,,,,,,,
"ROCKLEDGE SCAFFOLD CORP.","Sub-Contractor","808 Nepperhan Ave.",,"Yonkers","NEW YORK","10703","USA","ana","camacho","Both",,,"ana","camacho","Both","president",,"Jeremiah","Harrington","Officer","PRESIDENT",,"ana","camacho","Both","President",,"Ana","Camacho","Both","pres",,"Out of NYC",,,,,,,,,,,
"ROCKLEDGE SCAFFOLD CORP.","Contractor","808 Nepperhan Ave.",,"Yonkers","NEW YORK","10703","USA","ana","camacho","Both",,,"ana","camacho","Both","president",,"Jeremiah","Harrington","Officer","PRESIDENT",,"ana","camacho","Both","President",,"Ana","Camacho","Both","pres",,"Out of NYC",,,,,,,,,,,
"ACA CONTRACTING INC.","Sub-Contractor","333 Skidmore Road",,"Deer Park","NEW YORK","11729","USA","Cheryl","Zimmerman","Officer","Presiident",,"Diana","Amoroso","Owner","President",,"Diana","Amoroso","Officer","Pres",,"Diana","Amaroso","Owner","President",,"Christina","Dionisiou","Officer","Administrator",,"Out of NYC",,,,,,,,,,,
"ROSAL PLUMBING","Sub-Contractor","9002 91ST AVE",,"Woodhaven","NEW YORK","11421","USA","Mary","Commisso","Both","President",,"Mary","commisso","Officer","Unknown",,"Denise","Fishman","Officer",,,"Jimmy","Salera","Both","President",,"Denise","Fishman","Both","Pres",,"Queens","11421","38","057","4186261","4089840001","09","32","18","QN53","40.688981","-73.853058"
"GMJ CONTRACTING CORP","Sub-Contractor","6 Cedar Road",,"Nanuet","NEW YORK","10954","USA","Victoria","McLoughlin","Both",,,"Gerard","McDonnell","Both",,,"Gerard","McDonnell","Owner","Owner",,"Mickey","Loughran","Officer","Officer",,"Mickey","Loughran","Owner","Owner",,"Out of NYC",,,,,,,,,,,
"CCC RENOVATION","Sub-Contractor","31-07 STARR AVENUE","Suite 1","Long island City","NEW YORK","11101","USA","ingrid","Pulido","Officer","Unknown",,"Robinson","Agudelo","Both","Owner",,"Agudelo","Robinson","Owner","President",,"Robinson","Agudelo","Owner","President",,"Ingrid","Pulido","Officer","unknown",,"Queens","11101","37","025","4003596","4003010005","02","26","199","QN31","40.736834","-73.937448"
"METRO ERECTORS, INC.","Sub-Contractor","4864 Arthur Kill Road","3rd Floor","Staten Island","NEW YORK","10309","USA","John","Russo","Officer","Officer",,"John","Russo","Owner","Owner",,"John","Russo","Owner","PRESIDENT",,"Jacqueline","Russo","Officer","President",,"Jacqueline","Russo","Officer","Principal Officer",,"Staten Island","10309","62","010","5095697","5075840065","03","51","226","SI11","40.523573","-74.239207"
"EARTH CONSTRUCTION","Sub-Contractor","35-39 Kiscona Road",,"Mount Kisco","NEW YORK","10549","USA","Matthew","Cichetti","Owner","Owner",,"Victor","Loiola","Officer","Unknown",,"Ryan","Barrella","Owner","Principal",,"Susan","Slavkin","Officer","Unknown",,"Douglas","Tenenbaum","Officer","Operations Manager",,"Out of NYC",,,,,,,,,,,
"GREY-RUSO CONSTRUCTION CORP.","Sub-Contractor","168-04 12th Road",,"Whitestone","NEW YORK","11357","USA","Gregory","Caruso","Owner","Owner",,,,,,,,,,,,,,,,,,,,,,"Queens","11357","26","016","4104433","4046100053","07","19","991","QN49","40.790356","-73.795417"
"METALPRO CUSTOM CONSTRUCTION AND RAILING LLC","Sub-Contractor","130 Ryerson Avenue",,"Wayne","NEW JERSEY","7470","USA","Osmin","Garrido","Owner",,,,,,,,,,,,,,,,,,,,,,,"Out of NYC",,,,,,,,,,,
"JAMCOB ELECTRIC LLC","Sub-Contractor","1004 Tiffany Street",,"Bronx","NEW YORK","10459","USA","Angel","Beato","Owner",,,,,,,,,,,,,,,,,,,,,,,"Bronx","10459","85","047","2005661","2027140030","02","17","159","BX27","40.822768","-73.894877"
"FORWARD HEATING CORP","Sub-Contractor","55-54 60th Street",,"Maspeth","NEW YORK","11378","USA","Joseph","Milohnic","Owner",,,,,,,,,,,,,,,,,,,,,,,"Queens","11378","30","013","4059950","4026880044","05","30","531","QN30","40.726001","-73.906091"
"MONCON, INC","Sub-Contractor","56-21 Metropolitan Avenue",,"Ridgewood","NEW YORK","11385","USA","Stephen","McKernan","Both","President",,"Stephen","McKernan","Both","President","Chief Executive Officer","Stephen","McKernan","Officer","Principal",,,,,,,,,,,,"Queens","11385","37","042","4059471","4026460011","05","30","595","QN20","40.712950","-73.906784"
"DDS MECHANICAL PLUMBING & HEATING","Sub-Contractor","38-24 54th Street",,"Woodside","NEW YORK","11377","USA","DEIGO","LOMANTO","Officer","PRESIDENT",,"diego","lomanto","Officer","principal",,"Demetrios","Skuludis","Both","Vice President",,"Diego","LoManto","Officer","Principal",,"Diego","Lomanto","Both","President","Chief Executive Officer","Queens","11377","30","076","4027583","4012070057","02","26","255","QN63","40.749588","-73.908566"
"A&S STEEL CONTRACTORS LTD","Sub-Contractor","391 Saw Mill River Drive",,"Yonkers","NEW YORK","10701","USA","Anthony","Russo","Owner","Owner",,"Anthony","Russo","Officer","Vice President",,"Rafi","Syed","Officer","President",,"Anthony","Russo","Both",,,"Anthony","Russo","Owner","President",,"Out of NYC",,,,,,,,,,,
"UNITED CONCRETE, LLC","Sub-Contractor","213 20th Street","Suite 1A","Brooklyn","NEW YORK","11232","USA","Aldo","Malomo","Both",,,"Aldo","Malencio","Officer",,,"Aldo","Malencio","Both","owner","Chief Executive Officer","Amanda","Payne","Officer","Office Administrator",,"Aldo","Malencio","Both","President",,"Brooklyn","11232","51","042","3323812","3006370062","07","38","143","BK37","40.662497","-73.993808"
"CORE SCAFFOLD SYSTEMS INC.","Sub-Contractor","417 Myrtle Avenue","Suite 14","Brooklyn","NEW YORK","11205","USA","Mendim","Dobrova","Owner","President",,"Willy","Pilku","Owner","Owner",,"Willy","Pilku","Both","Pres",,"Al","Skara","Both","President",,"Willy","Pilku","Both","President",,"Brooklyn","11205","50","092","3054291","3018870095","02","35","187","BK68","40.693133","-73.969121"
"NEWBURGH IRON, LLC","Sub-Contractor","2-4 Kieffer Lane",,"Kingston","NEW YORK","12401","USA","Thomas","Auringer","Owner","President",,"DAVID","AURINGER","Both","Pres",,"jamie",,"Both","pres.",,"Thomas","Auringer","Owner","owner",,"Thomas","Auringer","Officer","President",,"Out of NYC",,,,,,,,,,,
"HDK CONSTRUCTION, LLC","Sub-Contractor","35 Lexington Ave","Suite 1701","New York","NEW YORK","10017","USA","Joe","Zerilli","Officer","President",,"Joe","Zerilli","Both","President",,"Joe","Zerilli","Both","Project Executive",,,,,,,,,,,,"Manhattan","10010","75","031","1018041","1008790023","06","02","68","MN21","40.739976","-73.984389"
"ASPRO PLUMBING INC.","Sub-Contractor","127-08 Merrick Blvd",,"Springfield Gardens","NEW YORK","11434","USA","Vincent","Aspromonte Jr","Officer","President",,"Vincent","Aspromonte Jr","Owner","President",,"Nicholas","Covino","Officer","Vice President",,"Nicholas","Covino","Both",,,"Vincent","Aspromode","Both","COO","Chief Operating Officer","Queens","11434","32","072","4270315","4125280105","12","27","33401","QN08","40.681323","-73.764972"
"SUTHERTON CONSTRUCTION CORP.","Sub-Contractor","177 East Main Street","216","New Rochelle","NEW YORK","10801","USA","Tafara","Tigere","Officer","President","Chief Executive Officer",,,,,,,,,,,,,,,,,,,,,"Out of NYC",,,,,,,,,,,
"L & D DRYWALL SERVICES CORP.","Sub-Contractor","4818 66th Street","3rd Floor","Woodside","NEW YORK","11377","USA","Lylian","Denis","Owner","President",,"Christian","Criollo","Officer","Officer",,,,,,,,,,,,,,,,,"Queens","11377","30","036","4538772","4023890032","02","30","243","QN50","40.738220","-73.898914"
"JJ MATTHEWS","Contractor","811 McLean Avenue","Suite 2A","Yonkers","NEW YORK","10704","USA","James","McNabb","Owner","President",,"James","Mc Nabb","Both","President","Chief Executive Officer","James","Mc Nabb","Officer","President",,,,,,,,,,,,"Out of NYC",,,,,,,,,,,
"KISKA SOLUTIONS INC.","Sub-Contractor","28-24 120th Street","Suite 200","Flushing","NEW YORK","11354","USA","Weihua (Richard)","Chen","Officer","President",,"Richard","Chen","Both","OWNER",,"Richard","Chen","Officer","President",,"Richard","Chen","Owner","OWNER",,"Weihua (Richard)","Chen","Both","Owner",,"Queens","11354","27","060","4100705","4043160029","07","19","907","QN23","40.772783","-73.847908"
"FTE BUILDERS LLC","Sub-Contractor","5214 Church Avenue",,"Brooklyn","NEW YORK","11203","USA","Franklyn","Foyle","Both","president","Chief Executive Officer","LISA","JACKSON","Owner","PRESIDENT",,"Lisa","Jackson","Both","President",,"LISA","JACKSON","Owner","President",,"Lisa","Jackson","Owner","President",,"Brooklyn","11203","58","036","3102931","3047000006","17","41","862","BK96","40.652204","-73.928233"
"ALBA SERVICES INC.","Contractor","240 West 52nd Street",,"New York City","NEW YORK","10019","USA","Andrew","Horan","Owner","President",,"Andrew","Horan","Both","President","Chief Executive Officer","Andrew","Horan","Officer","Manager",,"Mario","Procida","Officer","Manager","Chief Executive Officer","Andrew","Horan","Officer","President","Chief Executive Officer","Manhattan","10019","67","009","1080862","1010230053","05","03","131","MN17","40.762999","-73.983922"
"ALBA SERVICES INC.","Sub-Contractor","240 West 52nd Street",,"New York City","NEW YORK","10019","USA","Andrew","Horan","Owner","President",,"Andrew","Horan","Both","President","Chief Executive Officer","Andrew","Horan","Officer","Manager",,"Mario","Procida","Officer","Manager","Chief Executive Officer","Andrew","Horan","Officer","President","Chief Executive Officer","Manhattan","10019","67","009","1080862","1010230053","05","03","131","MN17","40.762999","-73.983922"
"BLETSAS PLUMBING & HEATING CORP","Sub-Contractor","37-20 58th Street",,"Woodside","NEW YORK","11377","USA","Stephanie","Portuguez","Officer","Unknown",,"John","Bletsas","Owner","President",,"John","Bletsas","Officer","President",,"John","Blestas","Owner","President",,"John","Bletsas","Both","President",,"Queens","11377","30","052","4027663","4012120020","02","26","257","QN63","40.749643","-73.904582"
"FIVE BOROUGH NYC, LLC","Sub-Contractor","553 Lincoln Avenue",,"Staten Island","NEW YORK","10306","USA","Gary","Valenti","Officer","Principal",,"Gary","Valenti","Owner","President",,,,,,,,,,,,,,,,,"Staten Island","10306","64","025","5054655","5038040009","02","50","11202","SI45","40.571927","-74.094729"
"MASPETH CONTRACTING CORP.","Sub-Contractor","54-30 44th Street",,"Maspeth","NEW YORK","11378","USA","John","Schrone","Officer","President",,,,,,,,,,,,,,,,,,,,,,"Queens","11378","37","026","4539962","4025230024","02","30","205","QN31","40.731105","-73.923540"
"P-GOOM INC","Sub-Contractor","124 Westervelt Avenue",,"Tenafly","NEW YORK","7670","USA","Daniel","Weissman","Officer","Vice President",,"Daniel","Weissman","Owner","owner",,"Daniel","Weissman","Owner","Owner",,,,,,,,,,,,"Out of NYC",,,,,,,,,,,
"YH DESIGN INC.","Sub-Contractor","78-06 Kneeland Avenue",,"Elmhurst","NEW YORK","11373","USA","Jin Xiang","Chi","Officer","President",,"Jin Xiang","Chi","Owner","Owner",,,,,,,,,,,,,,,,,"Queens","11373","39","035","4056815","4024670092","04","25","479","QN50","40.735163","-73.885464"
"METRO FIRE PROTECTION, INC.","Sub-Contractor","150 Jerusalem Ave",,"Massapequa","NEW YORK","11758","USA","Angela","Stiglianese","Owner","Vice President",,"Karen","Vukovich","Both","President",,"Karen","Vukovich","Both",,,"Karen","Vukovich","Both","pres",,"Robert","Perper","Owner","President",,"Out of NYC",,,,,,,,,,,
"FINE LINE & SONS CORP.","Sub-Contractor","446 MIlford Street",,"Brooklyn","NEW YORK","11208","USA","Marvellous","John","Owner","president",,"Marvellous","John","Owner","owner",,"Marvellous","John","Owner","Owner",,"Marvellus","John","Owner","President",,"Marvellous","John","Both","Na",,"Brooklyn","11208","60","032","3098443","3044560031","05","42","1118","BK82","40.668111","-73.875100"
"VALEX ENTERPRISES","Sub-Contractor","64 South Main Street",,"Marlboro","NEW YORK","7747","USA","Anthony","Sasto","Officer","Unknown",,"Cathy","Sherry","Officer","Unknown",,"Danielle","Agostino","Both","President","Chief Operating Officer",,,,,,,,,,,"Out of NYC",,,,,,,,,,,
"ARDENT CONSTRUCTION & DEVELOPMENT INC.","Sub-Contractor","7014 13th Avenue","STE 202","Brooklyn","NEW YORK","11228","USA","Joanne","Cassidy","Officer","President",,"Joanne","Cassidy","Both",,,"Joanne","Cassidy","Owner","CEO",,"Joanne","Cassidy","Both","President",,"-","-","Owner","-",,"Brooklyn","11228","49","050","3157031","3061660041","10","43","196","BK30","40.623011","-74.004633"
"CONCRETE STRUCTURES, INC.","Sub-Contractor","960 Johnson Ave",,"Ronkonkoma","NEW YORK","11779","USA","Nelson","Mendonco","Officer","President",,"Americo","Magalhaes","Owner","President",,"Debra","Howard","Officer","Manager","Chief Executive Officer","Americo","Magalhaes","Owner","Owner",,"Americo","Magalhaes","Officer","President",,"Out of NYC",,,,,,,,,,,
"SUPERIOR MAINTENANCE SYSTEMS","Sub-Contractor","439 N. Bicycle Path",,"Port Jefferson Station","NEW YORK","11776","USA","Catherine","Gatto","Owner","president",,"Catherine","Gatto","Owner","President",,"CATHERINE","GATTO","Owner","President",,,,,,,,,,,,"Out of NYC",,,,,,,,,,,
"COPPER SERVICES LLC","Sub-Contractor","1001 37th Avenue",,"Long Island City","NEW YORK","11101","USA","Thomas","Andreadakis","Owner","Secretary",,"Thomas","Andreadakis","Owner","owner",,"Thomas","Andreadakis","Officer","Officer",,"Frank","Sbeglia","Owner","Fire Suppression LIcensse",,"Victor","Ramanand","Owner","Master Plumber",,"Queens","11101","37","006","4004306","4003530001","01","26","85","QN68","40.760021","-73.941501"
"MEDCO PLUMBING INC.","Sub-Contractor","65-11 Fresh Meadow Ln",,"Flushing","NEW YORK","11365","USA","Manfred","Demenus","Officer","PRESIDENT",,"Salih","Atli","Officer","Vice President",,"Salih","Atli","Owner","President",,"Manfred","Demenus","Officer","President",,"Manfred","Demenus","Both","President",,"Queens","11365","25","059","4315237","4069160024","08","24","1341","QN41","40.736012","-73.794981"
"URBAN FOUNDATION ENGINEERING LLC","Sub-Contractor","32-33 111th Street",,"East Elmhurst","NEW YORK","11369","USA","Anthony","Mazzo","Owner","Owner",,"Anthony","Mazzo","Officer","MEMBER/MANAGER",,"Tony","Mazzo","Officer","President",,"Anthony","Mazzo","Officer","Owner",,,,,,,"Queens","11369","35","038","4042316","4017050053","03","21","373","QN27","40.759159","-73.859111"
"ARSENAL SCAFFOLD, INC","Contractor","95 Jersey Street",,"West Babylon","NEW YORK","11704","USA","Ed","Davidson","Both","pres",,"Ed","Davidson","Both","President",,"Philip","Susi","Owner","President",,"Philip","Susi","Both","President",,"Philip","Susi","Officer","President","Chief Executive Officer","Out of NYC",,,,,,,,,,,
"ARSENAL SCAFFOLD, INC","Sub-Contractor","95 Jersey Street",,"West Babylon","NEW YORK","11704","USA","Ed","Davidson","Both","pres",,"Ed","Davidson","Both","President",,"Philip","Susi","Owner","President",,"Philip","Susi","Both","President",,"Philip","Susi","Officer","President","Chief Executive Officer","Out of NYC",,,,,,,,,,,
"DEMAND ELECTRIC","Contractor","3133 31st Street","2nd Floor","Astoria","NEW YORK","11106","USA","Andrew","Kourkoumelis","Owner","PRESIDENT",,"Andreas","Kourkoumelis","Both","owner","Chief Executive Officer","Andrew","Kourkoumelis","Owner","President, CEO",,"Andreas","Kourkoumelis","Both","President","Chief Executive Officer","Lawrence","Montheard","Officer","Principal",,"Queens","11106","36","007","4008368","4006137501","01","22","61","QN70","40.763444","-73.924178"
"REPUBLIC SCAFFOLDING & HOIST CORP.","Sub-Contractor","420 Manida Street",,"Bronx","NEW YORK","10474","USA","Fari","Hama","Owner","President",,"Lakshmi","Persuad","Officer",,,"Lakshmi","Persaud","Officer","President",,"Fari","Hama","Officer","President",,"Lakshmi","Persaud","Officer",,,"Bronx","10474","84","077","2006892","2027720035","02","17","93","BX27","40.808913","-73.886922"
"TRANSCITY W&S LLC","Sub-Contractor","2515-A Newbold Avenue",,"Bronx","NEW YORK","10462","USA","Bajram","Muriqi","Officer","COO","Chief Operating Officer","Bajram","Muriqi","Owner","President",,"BBajram","Muriqi","Owner","President",,"BBajram","Muriqi","Both","President","Chief Executive Officer","Bajram","Muriqi","Officer","President",,"Bronx","10462","82","031",,,"09","13","96","BX59","40.834704","-73.841497"
"DOUBLE A CONCRETE","Sub-Contractor","2350 RUGDY STREET",,"EAST MEADOW","NEW YORK","11554","USA","Alexander","Vigario","Owner","President",,"Alexander","Vigario","Both","President","Chief Executive Officer","Alexander","Vigario","Officer","President",,"ALEX","VIGARIO","Officer","President",,"ALEX","VIGARIO","Owner","PRESIDENT",,"Out of NYC",,,,,,,,,,,
"NORTH SOUTH MASONRY","Sub-Contractor","69-08 Woodside Avenue",,"Woodside","NEW YORK","11377","USA","CHRIS","DOWLING","Both","PRESIDENT",,"CHRIS","DOWLING","Owner","president",,"Chris","Dowling","Officer","Associate",,"Chris","Dowling","Owner","Owner",,"Chris","Dowling","Officer",,,"Queens","11377","34","060","4031844","4013490004","02","26","483","QN50","40.742655","-73.895454"
"SSC CONNECTIONS INC","Sub-Contractor","22 HORTON AVENUE",,"DIX HILLS","NEW YORK","11746","USA","FRANK","MARINO","Owner","PRESIDENT",,,,,,,,,,,,,,,,,,,,,,"Out of NYC",,,,,,,,,,,
"SILVERCUP SCAFFOLDING","Sub-Contractor","146 Spencer Street","4002","Brooklyn","NEW YORK","11205","USA","Isaac","Adler","Owner","Owner",,"ISAAC","ADLER","Owner","Owner",,"ISAAC","ADLER","Owner","OWNER",,,,,,,,,,,,"Brooklyn","11205","50","085","3048556","3017500024","03","33","241","BK75","40.694095","-73.955089"
"NAPOLI PAINTING SERVICES INC.","Sub-Contractor","301 Desoto Place",,"Fairview","NEW YORK","7022","USA","Nick","Marchese","Both","pres",,"Nick","Marchese","Owner","President",,"Nicola","Marchese","Owner","President",,"Nicola","Marchese","Both","pres",,"Nick","Marchese","Officer","CEO","Chief Executive Officer","Out of NYC",,,,,,,,,,,
"NATIONS ROOF EAST, LLC","Sub-Contractor","255 Lake Ave",,"Yonkers","NEW YORK","10701","USA","Richard","Nugent","Both","CEO","Chief Executive Officer","Michael","Johannes","Both",,,"Ann","Bremen","Officer","President",,"Michael","Johannes","Both","President",,"Michael","Johannes","Owner","President",,"Out of NYC",,,,,,,,,,,
"VBC WINDOW REPLACEMENT INC","Sub-Contractor","64 Barrister Road",,"Levittown","NEW YORK","11756","USA","Laura","Kostaras","Owner","President",,"Laura","Kostaras","Both","President","Chief Executive Officer",,,,,,,,,,,,,,,,"Out of NYC",,,,,,,,,,,
"B&V CONTRACTING ENTERPRISES, INC","Sub-Contractor","1025 Saw Mill River Road","2nd Floor","Yonkers","NEW YORK","10710","USA","Vincent","Poggioreale","Both","President",,"Robert","Ballesteros","Both","President",,"Vincent","Poggioreale","Officer","CEO","Chief Executive Officer","Vincent","Poggioreale","Officer","Officer",,"Irena","De la Pena","Officer","Office Manager",,"Out of NYC",,,,,,,,,,,
"SUPER STRUCTURE SAFETY NETTING","Sub-Contractor","9 Shirley Street",,"Bohemia","NEW YORK","11716","USA","Dennis","Hanley","Owner","President",,"Dennis","Hanley","Both","pres",,"Samantha","Lee","Officer","Officer",,"Dennis","Hanley","Owner","president",,"Denis","Hanley","Officer","Officer",,"Out of NYC",,,,,,,,,,,
"SAFWAY ATLANTIC COMPANIES","Sub-Contractor","700 Commercial Avenue",,"Carlstdat","NEW YORK","7072","USA","Crystal","Ayasco","Officer","Manager",,"Ayasco","Crystal","Officer","Manager",,"Molly","Kose","Both","Pres",,"Ayasco","Crystal","Both","Manager",,"William","Hayes","Both","Unknown",,"Out of NYC",,,,,,,,,,,
"TEMPO CARPENTRY, LLC","Sub-Contractor","275 7th Avenue","7th Floor","New York","NEW YORK","10001","USA","Jason","Karbel","Both",,,"Jason","Karbel","Both","pres",,"Jason","Karbel","Owner","Owner",,"Jason","Karbel","Owner","President",,"Jason","Karbel","Both","President",,"Manhattan","10001","75","036","1015000","1008010001","04","03","91","MN13","40.745743","-73.994435"
"VIEWPOINT CRM, INC","Sub-Contractor","220 Howard St",,"Lowell","NEW YORK","1851","USA","Bill","Reilly","Officer","Managing Officer","Chief Executive Officer","Bradley","Gordon","Officer","CEO","Chief Executive Officer",,,,,,,,,,,,,,,,"Out of NYC",,,,,,,,,,,
"SPRAY ON TECHNOLOGIES INC","Sub-Contractor","565 Oak Street.",,"Copiague","NEW YORK","11726","USA","Manuel","Mena","Owner","President",,,,,,,,,,,,,,,,,,,,,,"Out of NYC",,,,,,,,,,,
"786 STEEL CORP.","Sub-Contractor","50 Morgan Avenue",,"Brooklyn","NEW YORK","11237","USA","Leonard","Canka","Owner","President",,"Albert","Canka","Officer","Corp Secretary",,,,,,,,,,,,,,,,,"Brooklyn","11237","53","048","3400392","3030030001","01","34","453","BK77","40.705765","-73.931717"
"EUROSTYLE WALL SYSTEMS INC.","Sub-Contractor","235 Seidman Place",,"Franklin Square","NEW YORK","11010","USA","Anthony","Armenia","Owner","owner",,"Anthony","Armenia","Both","President",,"Anthony","Armenia","Both","Owner","Chief Executive Officer",,,,,,,,,,,"Out of NYC",,,,,,,,,,,
"VISTA SKYWALL SYSTEMS, LTD","Sub-Contractor","31-20 Whitestone Expressway",,"Flushing","NEW YORK","11354","USA","LJ","Kim","Both","President",,"Steven","Powell","Officer","President",,"Steven","Powell","Officer","COO","Chief Operating Officer",,,,,,,,,,,"Queens","11357","27","060",,,"07","19","907","QN23","40.768362","-73.837969"
"CHUTES & COMPACTOS OF NY INC.","Sub-Contractor","774 Manor Road",,"Staten Island","NEW YORK","10314","USA","Alfred","Yarkony","Both","President",,"Connie","Como","Officer","Controller",,"Gilda","Beck","Both","Pres",,"Joel","Yarkony","Both","owner","Chief Executive Officer","Joel","Yarkony","Officer","Vice President",,"Staten Island","10314","63","069","5018078","5007140015","02","49","18702","SI05","40.607788","-74.121074"
"NOBLE ELEVATOR COMPANY, INC","Contractor","1655 Sycamore Avenue",,"Bohemia","NEW YORK","11716","USA","stephen","dutton","Owner","President",,"Stephen","Hromada","Both","President",,"Stephen","Hromada","Officer","Director of Construction",,"stephen","dutton","Owner","owner",,"stephen","dutton","Both","president",,"Out of NYC",,,,,,,,,,,
"MARVEL CONTRACTING SERVICES","Sub-Contractor","58-19 230th St",,"Oakland Gardens","NEW YORK","11364","USA","Matthew","Li","Both","President","Chief Operating Officer","Matthew","Li","Both","Owner",,"Matthew","Li","Owner","President",,"Matthew","Li","Officer","COO",,"Matthew","Li","Officer","Manager","Chief Executive Officer","Queens","11364","26","043","4161908","4075660001","11","23","138501","QN42","40.752735","-73.748893"
"MAC CONSTRUCTION","Sub-Contractor","32-22 85th Street",,"East Elmhurst","NEW YORK","11370","USA","Luis","Acosta","Owner","OWNER",,"Luis","Acosta","Owner","Owner",,"Luis","Acosta","Both","President","Chief Executive Officer","Luis","Acosta","Owner","PRESIDENT",,"Luis","Acosta","Both","president",,"Queens","11370","34","067","4034600","4014140016","03","25","337","QN28","40.757324","-73.882855"
"NIETO CONTRACTORS, INC.","Sub-Contractor","140 Highland Street",,"Port Chester","NEW YORK","10573","USA","Mike","Nieto","Officer","President","Chief Executive Officer","Mike","Nieto","Both","President","Chief Executive Officer","Christine","Price","Officer","Officer",,"Mike","Nieto","Officer","President",,"Christine","Price","Officer","Unknown",,"Out of NYC",,,,,,,,,,,
"W-GS CONTRACTING CORP.","Sub-Contractor","1325 THIERIOT AVENUE","Suite 2","BRONX","NEW YORK","10472","USA","Wuilson","Suin","Both","President",,"Wilson","Suin","Both","President","Chief Executive Officer","WILSON","SUIN","Both","PRESIDENT",,"Wuilson","Suin","Owner","President",,"WILSON","SUIN","Owner","PRESIDENT",,"Bronx","10472","87","024","2114063","2038780150","09","18","76","BX08","40.833128","-73.864701"
"JIND","Sub-Contractor","87-62 118 Street",,"Richmond Hill","NEW YORK","11418","USA","Sarabjit","Kaur","Both","President",,"Sarabjit","Kaur","Owner","PRESIDENT",,"Sarabjit","Kaur","Both","Owner",,"Sarabjit","Kaur","Owner","Owner",,"Sarabjit","Kaur","Owner","OWNER",,"Queens","11418","24","068","4195882","4093270036","09","29","122","QN54","40.699264","-73.831544"
"MEMCO","Sub-Contractor","Cedar Run Chruch Rd,",,"Culpeper","VIRGINIA","22701","USA","Mark","Henderson","Owner","Vice President",,"Matthew","Henderson","Owner","President",,,,,,,,,,,,,,,,,"Out of NYC",,,,,,,,,,,
"FREDDY FLOORS","Sub-Contractor","183 North Cottage Street",,"Valley Stream","NEW YORK","11580","USA","Federico","Najera","Owner","PRESIDENT",,"Federico","Najera","Owner","Owner",,"Federico","Najera","Owner","OWNER",,"Federico","Najera","Both","Owner",,"Federico","Najera","Owner","President",,"Out of NYC",,,,,,,,,,,
"INTERIOR ROCK","Sub-Contractor","838 McLean Ave",,"Yonkers","NEW YORK","10704","USA","John","Slattery","Owner","Owner",,,,,,,,,,,,,,,,,,,,,,"Out of NYC",,,,,,,,,,,
"MLJ PAINTING CORP","Contractor","68 Imperial Drive",,"Miller Place","NEW YORK","11764","USA","Joe","Picataggi","Owner","uknown",,"Lori","Picataggi","Officer","Unknown",,"Lori","Picataggi,","Owner","Presidetn",,"Joseph","Picataggi","Both","owner","Chief Executive Officer","Lori","Picataggi","Owner","President",,"Out of NYC",,,,,,,,,,,
"RSC GROUP LLC","Sub-Contractor","980B DeHart Place",,"Elizabeth","NEW YORK","7202","USA","Mark","Di Medici","Both","Prresident",,"Mark","Di Medici","Officer","President",,"Frank","Tavares","Officer","Principal",,"Frank","Tavares","Both","owner","Chief Executive Officer","Brett","Steinberg","Officer","Vice President",,"Out of NYC",,,,,,,,,,,
"ART ROOFING INC","Sub-Contractor","23 Mendelsohn Street",,"Staten Island","NEW YORK","10305","USA","Arjan","Coku","Owner","Owner",,,,,,,,,,,,,,,,,,,,,,"Staten Island","10305","64","052","5044496","5030120028","01","49","2001","SI37","40.606716","-74.074326"
"JD PLUMBING AND HEATING MAINTENANCE LLC","Sub-Contractor","354 Brook Ave",,"Bronx","NEW YORK","10454","USA","William","Christy","Officer","Owner",,"William","Christy","Owner","President",,"William","Christy","Both",,,"William","Christy","Officer","Manager","Chief Executive Officer","William","Christy","Owner","Chief Operating Officer",,"Bronx","10454","84","057","2000093","2022680011","01","08","41","BX39","40.810130","-73.917716"
"ALL PURPOSE ELECTRIC CORP.","Sub-Contractor","13507 Crossbay Blvd",,"Ozone Park","NEW YORK","11417","USA","Naneen","Latchana","Owner","President",,"Nazneen","Latchana","Owner","Owner",,"Nazneen","Latchana","Owner","President",,"NANZEEN","LATCHANA","Owner","OWNER",,"Christine","Latchana","Owner","President",,"Queens","11417","23","054","4248383","4115120002","10","32","88","QN56","40.673471","-73.843265"
"VAYA RESTORATION","Sub-Contractor","1225 Franklin Avenue","Suite 325","Garden City","NEW YORK","11530","USA","Balvir","Singh","Officer","President",,"Chirag","Patel","Officer","Vice President","Chief Operating Officer","Chirag","Patel","Officer","Owner",,"Chirag","Patel","Both","Vice President",,"Chirag","Patel","Owner","PRESIDENT",,"Out of NYC",,,,,,,,,,,
"EVEREST SCAFFOLDING, INC.","Sub-Contractor","1150 Longwood Ave",,"Bronx","NEW YORK","10474","USA","Christopher","Downes","Owner","owner",,"Christopher","Downes","Officer","Officer",,"Christopher","Downes","Officer","Office",,"Christopher","Downes","Owner","President",,"JIMMY","DOWNES","Officer","PRESIDENT",,"Bronx","10474","84","073","2005917","2027360270","02","17","93","BX27","40.814032","-73.892405"
"VALENTIS ELECTRIC INC","Sub-Contractor","32-21 58TH STREET",,"Woodside","NEW YORK","11377","USA","Spiro","Valentis","Both","President","Chief Executive Officer","Spiro","Valentis","Both","President",,"Spiro","Valentis","Owner","President",,,,,,,,,,,,"Queens","11377","34","044","4026128","4011600083","01","26","297","QN63","40.755208","-73.903267"
"FOUR SUNS FUEL OIL CO","Sub-Contractor","2460 Rowe Street",,"Bronx","NEW YORK","10461","USA","Angelo","Bacarella","Both","Officer",,"Angelo","Bacarella","Both","OWNER",,"Angelo","Barcarella","Both","President",,"Angelo","Bacarella","Both","President","Chief Executive Officer","Angelo","Barcarella","Both","OWNER",,"Bronx","10461","82","031","2027260","2038480055","10","13","96","BX59","40.837171","-73.843295"
"MX MECHANICAL","Sub-Contractor","1056 Washington Avenue",,"Bronx","NEW YORK","10456","USA","Martin","Saljanin","Owner","President",,"MARTIN","SALJANIN","Both","OWNER",,"MARTIN","SALJANIN","Both",,,"Xaviar","Gonzalez","Officer","Unknown",,"Martin","Saljanin","Both",,,"Bronx","10456","79","044","2116457","2023700008","03","16","185","BX35","40.827517","-73.908983"
"KONE INC.","Sub-Contractor","47-36 36th Street",,"Long Island City","NEW YORK","11101","USA","Larry","Walsh","Both","ceo","Chief Executive Officer","Larry","Wash","Officer","Executive Vice President","Chief Operating Officer","JOHN","FALLON","Both","president","Chief Executive Officer","Anti","Herlin","Owner","Chairman of the Board",,"Jay","Dietz","Officer","SVP",,"Queens","11101","37","039","4003273","4002300001","02","26","189","QN31","40.741588","-73.929461"
"MARAGOS PAINTING LLC","Sub-Contractor","39 Meade St",,"West Orange","NEW YORK","7052","USA","Spiros","Maragos","Owner","Owner/Member",,"Spiros","Maragos","Owner","president",,"Spiros","Maragos","Both","PRESIDENT","Chief Executive Officer","Spiros","Maragos","Officer","COO","Chief Operating Officer","Nikoletta","Maragos","Both","owner","Chief Executive Officer","Out of NYC",,,,,,,,,,,
"ALLSTATE SPRINKLER","Contractor","1369 White Plains Rd",,"Bronx","NEW YORK","10462","USA","Adam","Goodrich","Officer","CEO","Chief Executive Officer",,,,,,,,,,,,,,,,,,,,,"Bronx","10462","87","025",,,"09","18","21601","BX08","40.834877","-73.863053"
"PREET AND B","Sub-Contractor","21436 Hillside Avenue",,"Queens Village","NEW YORK","11427","USA","Tony","Singh","Owner","Owner",,"Malkiat","Singh","Owner","OWNER",,"Malkiat","Singh","Owner","President",,"Malkiat","Singh","Both","President",,"Tony","Singh","Owner","President",,"Queens","11427","33","025","4228716","4106730008","13","23","552","QN34","40.726510","-73.750644"
"SUPREME FLOORING","Sub-Contractor","1072 Madison Avenue",,"Lakewood","NEW YORK","8701","USA","Malka","Feldman","Officer","Office Manager",,"Aaron","Weber","Both","Pres",,"Aaron","Weber","Both","owner","Chief Executive Officer","Joshua","Herz","Officer","Unknown",,"Aron","Weberausman","Officer","Vice President","Chief Operating Officer","Out of NYC",,,,,,,,,,,
"TRIBUTE RESTORATION INC.","Sub-Contractor","231 Norman Avenue","206","Brooklyn","NEW YORK","11222","USA","Izabela","Burzynska","Both",,,"Izabela","Burzynska","Both","President",,"Artur","Slabuszewski","Both","President",,"Artur","Slabuszewski","Both",,,"Izabela","Burzynska","Both","Unknown",,"Brooklyn","11222","50","004","3391865","3026297501","01","33","589","BK76","40.727541","-73.944293"
"ARCTIC AIR CONDITIONING","Sub-Contractor","3816 Rombouts Avenue",,"Bronx","NEW YORK","10466","USA","Zach","Granelli","Both","pres",,"Joseph","Granelli","Both","President","Chief Executive Officer","Zachary","Granelli","Officer","Associate",,"Zachary","Granello","Both",,,"Zach","Granelli","Both","President",,"Bronx","10466","83","070","2066505","2049510024","12","12","484","BX03","40.888018","-73.830274"
"NJ PAZ PAINTING SERVICES, INC","Sub-Contractor","217 Woodward Road",,"Manalapan","NEW YORK","7726","USA","craig","bialous","Both",,,"Ana","DePaz","Both","Owner","Chief Executive Officer","Craig","Bialous","Both","President",,"Craig","Bialous","Both","Pres",,"-","-","Officer","-","Chief Executive Officer","Out of NYC",,,,,,,,,,,
"RGF ELECTRIC CORP","Sub-Contractor","2362 Westchester Avenue",,"Bronx","NEW YORK","10462","USA","Richard","Feil","Both",,,"Gregory","Feil","Officer","Associates",,"Richard","Feil","Owner","Principal",,"Richard","Feil","Both","President",,"Richard","Feil","Owner","President",,"Bronx","10462","82","027","2027181","2038340041","10","18","96","BX59","40.836432","-73.847098"
"R&S CONSTRUCTION CONTRACTING, INC.","Sub-Contractor","128 North Route 9W",,"Congers","NEW YORK","10920","USA","Dennis","O'keeffe","Both",,,"Kieth","Douglas","Both",,,"Paul","Weldon","Both","Pres",,"Paul","Weldon","Both","President",,,,,,,"Out of NYC",,,,,,,,,,,
"ALL-SAFE LLC","Sub-Contractor","2 Nobel Street",,"Brooklyn","NEW YORK","11222","USA","Jerry","McCarthy","Both","President",,,,,,,,,,,,,,,,,,,,,,"Brooklyn",,,,,,,,,,,
"DONNREILL INC","Sub-Contractor","PO Box 780509",,"Maspeth","NEW YORK","11378","USA","Owen","O'Reilly","Owner","pres",,"OWEN","O'REILLY","Owner","PRESIDENT",,"Owen","O'Reilly","Owner","President",,"Owen","O'Reilly","Owner","president",,"Owen","G'Oreilly","Officer","President",,"Queens",,,,,,,,,,,
"GOTHAM FLOOR COVERING, INC.","Sub-Contractor","111 Thayer Road",,"Manhasset","NEW YORK","11030","USA","Daniela","Calosso","Both","owner","Chief Executive Officer","Daniela","Calosso","Owner","Owner",,,,,,,,,,,,,,,,,"Out of NYC",,,,,,,,,,,
"SPEIDEL & SONS CONTRACTING, INC.","Sub-Contractor","8 Lounsberry Hollow Road",,"Sussex","NEW JERSEY","7641","USA","Steve","Speidel","Owner","President",,,,,,,,,,,,,,,,,,,,,,"Out of NYC",,,,,,,,,,,
"CAG GROUP LLC","Sub-Contractor","1510 Surprise Street",,"Elmont","NEW YORK","11003","USA","Gassi","Goulden","Owner","Member",,"GASSI","GOULDEN","Owner","PRESIDENT",,"Gassi","Goulden","Owner","Unknown",,"Gassi","Goulden","Both","Managing Member","Chief Executive Officer","Gassi","Goulden","Officer","President",,"Out of NYC",,,,,,,,,,,
"G.N.T. MECHANICAL LLC","Sub-Contractor","460 Wild Avenue",,"Staten Island","NEW YORK","10314","USA","Nicholas","Tsamasiros","Owner","Member",,"Chris","Tsamasiros","Owner","Member",,"Chris","Tsamasiros","Both","president","Chief Executive Officer","Chris","Tsamasiros","Officer","Principal",,"Nicholas","Tsamasiros","Both",,,"Staten Island","10314","63","018","5156947","5027050099","02","50","29102","SI05","40.585844","-74.196327"
"ADLER WINDOWS, INC.","Sub-Contractor","175-16 Liberty Avenue",,"Jamaica","NEW YORK","11433","USA","Cathy","Kudlek","Both","President",,"ross","Adler","Officer","president",,"Ross","Adler","Owner","President",,"Eric","Weinstein","Officer","Manager","Chief Operating Officer","Cathy","Kudlek","Both","Pres",,"Queens","11433","29","074","4217961","4102320014","12","27","440","QN01","40.704861","-73.784116"
"DUNLOP ACCESS SYSTEM LLC","Sub-Contractor","807 Elton Ave","Apt C","Bronx","NEW YORK","10451","USA","Danilo","Belen","Officer","Officer",,"Danilo","Belen","Officer","PM",,"Auilda","Acosta","Both","pres",,,,,,,,,,,,"Bronx","10451","79","084","2102753","2023800122","01","17","69","BX34","40.822069","-73.913088"
"CNC COATINGS","Sub-Contractor","1961 Utica Avenue",,"Brooklum","NEW YORK","11234","USA","Jacob","Kloc","Both","owner","Chief Executive Officer","Jacob","Kloc","Officer","CEO","Chief Executive Officer","Abba","Kloc","Both","owner","Chief Executive Officer","Jacob","Kloc","Both","CEO","Chief Executive Officer","Abba","Kloc","Officer","Officer",,"Brooklyn","11234","59","022","3217724","3078300011","18","46","676","BK58","40.624226","-73.927430"
"HIGH RISE FIRE PROTECTION CORP.","Sub-Contractor","144 21st Street",,"Brooklyn","NEW YORK","11232","USA","Joseph","Lewis Vi","Both","Senior Account Executive",,"Michael","Vitarelli","Owner","president",,"Joseph","Lewis","Officer","unknown",,"Aoife","Kenny","Officer","Associate",,"Kerri-Ann","Kerr","Both","Pres",,"Brooklyn","11232","51","055","3009291","3006420019","07","38","145","BK32","40.663321","-73.996724"
"NORDEST SERVICES LLC","Sub-Contractor","610-310 60th Place",,"Maspeth","NEW YORK","11378","USA","Jack","Caliendo","Owner","President",,,,,,,,,,,,,,,,,,,,,,"Queens",,,,,,,,,,,
"JM3 CONSTRUCTION, LLC","Contractor","117 Highway 35","Suite 1","Keyport","NEW YORK","7735","USA","Jeanette","Liotti","Officer","Unknown",,"Joseph","Revello","Owner","Manager",,"Joseph","Revello","Owner","President",,,,,,,,,,,,"Out of NYC",,,,,,,,,,,
"ABRACADABRA PAINTING CO., INC.","Sub-Contractor","180 East Prospect Avenue",,"Mamaroneck","NEW YORK","10543","USA","Niss","Lovera","Officer","Accountant",,,,,,,,,,,,,,,,,,,,,,"Out of NYC",,,,,,,,,,,
"GIANT SECURITY","Sub-Contractor","400 2nd Avenue",,"New York","NEW YORK","10010","USA","Yaron","Erez","Owner","president",,"Barak","Ron","Owner","CEO",,"Ron","Barak","Officer","CEO","Chief Executive Officer","Barak","Ron","Owner","pres",,"Yaron","Erez","Owner","pres",,"Manhattan","10010","74","074","1084709","1009290001","06","02","64","MN21","40.737983","-73.980821"
"US SPRAY NYC","Sub-Contractor","108-06 Shorefront Parkway","1 Fl","Rockaway Park","NEW YORK","11694","USA","Robert","Marino","Owner","President",,"Robert","marino","Both","pres",,"Robert","Marino","Both","pres",,"Robert","Marino","Both","President",,"Robert","Marino","Owner","Owner",,"Queens","11694","23","012","4467824","4161797501","14","32","938","QN10","40.580093","-73.829156"
"GALAXY GENERAL CONTRACTING","Contractor","3152 Albany Crescent",,"Bronx","NEW YORK","10463","USA","Jimmy","Zervoudis","Owner","executive",,"Steve","Zervoudis","Officer","Managing Member",,"JIMMY","ZERVOUDIS","Both","Partner",,"JIMMY","ZERVOUDIS","Owner","partner",,,,,,,"Bronx","10463","81","042","2086838","2032670028","08","14","277","BX28","40.879387","-73.902515"
"NY UPSCALE CONSTRUCTION INC.","Sub-Contractor","202 Elm St.",,"Yonkers","NEW YORK","10701","USA","Irfan","Mohammed","Both","Manager","Chief Executive Officer","Irfan","Mohammed","Owner","President",,"Irfan","Mohammed","Both","Manager",,,,,,,,,,,,"Out of NYC",,,,,,,,,,,
"LIVE BUILDING SYSTEMS LLC","Sub-Contractor","338 E 22nd Street",,"New York","NEW YORK","10001","USA","Teghpal","Sandhu","Officer","Managing Member","Chief Executive Officer","Christopher","Trieber","Officer","COO","Chief Operating Officer","Teghpal","Sandhu","Both","Officer","Chief Executive Officer",,,,,,,,,,,"Manhattan","10010","74","072","1020560","1009270034","06","02","64","MN21","40.736791","-73.980388"
"APPLE SECURITY SOLUTIONS","Sub-Contractor","271 North Avenue","Suite 311","New Rochelle","NEW YORK","10801","USA","Skita","modeste","Both","Unknown",,"Robert","Moriarty","Owner","President",,"Robert","Moriarity","Officer","President",,"Robert","Moriarty","Officer","President",,"Robert","Moriarity","Owner","Unknown",,"Out of NYC",,,,,,,,,,,
"GOLD GROUP","Sub-Contractor","1019 38th Street",,"Brooklyn","NEW YORK","11219","USA","ABE","GOLDBERG","Owner","OWNER",,,,,,,,,,,,,,,,,,,,,,"Brooklyn","11219","51","009","3122950","3052890084","12","39","110","BK34","40.644758","-73.991597"
"SPRING  SCAFFOLDING INC.","Sub-Contractor","49-30 31st Place",,"Long Island City","NEW YORK","11101","USA","William","Laffey","Owner","Owner",,"Chaz","King","Officer","Project Manager",,"Spring Venture","Holding LLC","Owner","Owner",,"William","Laffey","Officer","President","Chief Executive Officer","William","Laffey","Officer","President","Chief Financial Officer","Queens","11101","37","025","4000000","4002890021","02","26","199","QN31","40.739303","-73.935616"
"NAUTICA PLUMBING & HEATING CORPORATION","Sub-Contractor","13-26 143rd Place",,"Whitestone","NEW YORK","11357","USA","Chris","Pourtoulidis","Owner","Owner",,,,,,,,,,,,,,,,,,,,,,"Queens","11357","27","057","4101192","4044350135","07","19","945","QN49","40.787249","-73.825526"
"RGB GROUP","Sub-Contractor","425 Northern Blvd, Ste 27",,"Great Neck","NEW YORK","11021","USA","Renzo","Barsallo","Owner","president",,"Renzo","Barsallo","Owner","President",,,,,,,,,,,,,,,,,"Out of NYC",,,,,,,,,,,
"BLANCO DRILLING INC.","Sub-Contractor","103-22 101st Street",,"Ozone Park","NEW YORK","11417","USA","Gabriel","Blanco","Owner","President",,,,,,,,,,,,,,,,,,,,,,"Queens","11417","38","037","4201289","4095040012","10","32","112","QN54","40.682819","-73.840300"
"NEW VISION ELECTRIC CORP","Sub-Contractor","147-38 97 Avenue",,"Jamaica","NEW YORK","11435","USA","Luis","Lopez","Owner","Principal",,"Luis","Lopez","Owner","Owner",,"Luis O","Lopez","Owner","president",,,,,,,,,,,,"Queens","11435","32","017","4214610","4100320006","12","28","208","QN61","40.697632","-73.804753"
"S&E BRIDGE & SCAFFOLD LLC","Contractor","700 Commerical Avenue",,"Carlsdtat","NEW YORK","7403","USA","Colm","Coen","Officer","Vice President/GM",,"Colm","Coen","Officer","President","Chief Executive Officer","Edson","Ariza","Officer","Controller",,"Tania","Santos","Officer","Controller",,"Colm","Coen","Officer","President",,"Out of NYC",,,,,,,,,,,
"S&E BRIDGE & SCAFFOLD LLC","Sub-Contractor","700 Commerical Avenue",,"Carlsdtat","NEW YORK","7403","USA","Colm","Coen","Officer","Vice President/GM",,"Colm","Coen","Officer","President","Chief Executive Officer","Edson","Ariza","Officer","Controller",,"Tania","Santos","Officer","Controller",,"Colm","Coen","Officer","President",,"Out of NYC",,,,,,,,,,,
"HARVEST POWER","Sub-Contractor","2941 Sunrise Highway",,"Islip Terrace","NEW YORK","11752","USA","TOM","CASEY","Both","OWNER",,"TOM","CASEY","Owner","Owner",,"TOM","CASEY","Owner","OWNER",,"Carlo","Lanza","Both","Managing Member",,,,,,,"Out of NYC",,,,,,,,,,,
"A&E SURFACES CO INC","Sub-Contractor","33 Powerhouse Road",,"Roslyn Heights","NEW YORK","11577","USA","Jacob","Aminian","Both","Member",,"Jacon","Amian","Officer","Member",,"Jacob","Aminian","Owner","President",,"Kenny","Ngai","Officer","Account Payable",,"Jacob","Aminian","Officer","COO","Chief Operating Officer","Out of NYC",,,,,,,,,,,
"A&E SURFACES CO INC","Contractor","33 Powerhouse Road",,"Roslyn Heights","NEW YORK","11577","USA","Jacob","Aminian","Both","Member",,"Jacon","Amian","Officer","Member",,"Jacob","Aminian","Owner","President",,"Kenny","Ngai","Officer","Account Payable",,"Jacob","Aminian","Officer","COO","Chief Operating Officer","Out of NYC",,,,,,,,,,,
"CAESARSTONE USA, INC.","Sub-Contractor","9275 Corbin Avenue",,"Northridge","CALIFORNIA","91324","USA","Masha","O'Brien","Officer","VP",,,,,,,,,,,,,,,,,,,,,,"Out of NYC",,,,,,,,,,,
"METROPOLITAN SEWER INC","Sub-Contractor","1324 Herschell Street",,"Bronx","NEW YORK","10461","USA","Michael","Lajqi","Both","President",,"Michael","Lajqi","Owner","Owner",,"Amy","Kosmetatos","Officer","Administor",,"Michael","Lajqi","Owner","PRESIDENT",,"Michael","Lajqi","Owner","president",,"Bronx","10461","82","031","2027268","2038480096","10","13","96","BX59","40.836549","-73.843795"
"MIDNIGHT EXPRESS","Sub-Contractor","84-14 Pitkin Avenue",,"Ozone Park","NEW YORK","11417","USA","Peter","Marousakis","Owner","Owner",,"Alfred J.","Delorenzo","Owner","Vice President",,"Peter","Marousakis","Owner","OWNER",,,,,,,,,,,,"Queens","11417","23","060","4245027","4113470024","10","32","58","QN56","40.675224","-73.852234"
"NAFPAK","Sub-Contractor","43-19 19th Ave",,"Astoria","NEW YORK","11105","USA","Dennis","Zervos","Owner","Owner",,"Dennis","Zervos","Both","President","Chief Executive Officer","Dennis","Zervos","Owner","president",,"dennis","zervos","Owner","president",,"Dennis","Zervos","Owner","President",,"Queens","11105","36","055",,,"01","22","12301","QN72","40.776678","-73.897159"
"RELIANT ELECTRICAL CONTRACTING, INC.","Sub-Contractor","628 Classon Avenue",,"Brooklyn","NEW YORK","11238","USA","Jenny","Toussaint","Both","President",,"Sumel","Ahmed","Both","President",,"QUASHEM","BHUYAIN","Officer","PRESIDENT",,"Sumel","Ahmed","Owner","Owner",,"Mohammod","Bhuyain","Owner","President",,"Brooklyn","11238","57","059","3027740","3011330057","08","35","305","BK61","40.678520","-73.958770"
"FJM-FERRO","Contractor","263 52nd Street","Suite 2","Brooklyn","NEW YORK","11220","USA","Joseph","Casucci","Both","Owner",,"Joseph","Casucci","Both","COO","Chief Operating Officer","Mark","Rafaniello","Both","President","Chief Executive Officer",,,,,,,,,,,"Brooklyn","11220","51","078","3395795","3007970048","07","38","20","BK32","40.647200","-74.016786"
"R&S UNITED SERVICE, INC","Sub-Contractor","15 Ranick Drive West",,"Amityville","NEW YORK","11701","USA","Avi","Polischuk","Officer","President","Chief Executive Officer","Avi","Polischuk","Owner","President",,"Avi","Polischuck","Officer","President",,"Avi","Polischuck","Both","President","Chief Executive Officer","Alex","Bogomolny","Both","President",,"Out of NYC",,,,,,,,,,,
"R&S UNITED SERVICE, INC","Contractor","15 Ranick Drive West",,"Amityville","NEW YORK","11701","USA","Avi","Polischuk","Officer","President","Chief Executive Officer","Avi","Polischuk","Owner","President",,"Avi","Polischuck","Officer","President",,"Avi","Polischuck","Both","President","Chief Executive Officer","Alex","Bogomolny","Both","President",,"Out of NYC",,,,,,,,,,,
"AGIR ELECTRIC LTD D/B/A PINNACLE ELECTRIC","Contractor","130-45 91st Avenue",,"Richmond Hill","NEW YORK","11418","USA","Anthony","Gironta","Both","President",,"Antony","Gironta","Both","President",,"Anthony","Gironta","Officer","CEO","Chief Executive Officer","Anthony","Gironta","Owner","Owner",,"Antony","Gironta","Officer","President","Chief Executive Officer","Queens","11418","24","065","4196821","4093580033","09","29","14202","QN54","40.698357","-73.820053"
"AGIR ELECTRIC LTD D/B/A PINNACLE ELECTRIC","Sub-Contractor","130-45 91st Avenue",,"Richmond Hill","NEW YORK","11418","USA","Anthony","Gironta","Both","President",,"Antony","Gironta","Both","President",,"Anthony","Gironta","Officer","CEO","Chief Executive Officer","Anthony","Gironta","Owner","Owner",,"Antony","Gironta","Officer","President","Chief Executive Officer","Queens","11418","24","065","4196821","4093580033","09","29","14202","QN54","40.698357","-73.820053"
"KINGS COUNTY WATERPROOFING CORP.","Sub-Contractor","214-35 42 Avenue","2nd Floor","Bayside","NEW YORK","11361","USA","Alexandra","Gioia","Officer","HR Manager",,"Joseph","Gioia","Officer","Principal Officer",,"Joseph","Gioia","Officer","President",,"Joseph","Gioia","Owner","President",,"Alex","Goia","Officer","President",,"Queens","11361","26","051","4567074","4062900053","11","19","1467","QN46","40.762933","-73.769041"
"POSILLICO CIVIL INC","Sub-Contractor","131-36A 20th Ave",,"College Point","NEW YORK","11356","USA","Joseph","Posillico","Both","President","Chief Executive Officer",,,,,,,,,,,,,,,,,,,,,"Queens","11356","27","060",,,"07","19","907","QN23","40.781642","-73.837337"
"POSILLICO CIVIL INC","Contractor","131-36A 20th Ave",,"College Point","NEW YORK","11356","USA","Joseph","Posillico","Both","President","Chief Executive Officer",,,,,,,,,,,,,,,,,,,,,"Queens","11356","27","060",,,"07","19","907","QN23","40.781642","-73.837337"
"DEMAR PLUMBING CORP.","Sub-Contractor","147 Attorney Street",,"New York","NEW YORK","10002","USA","ALESSANDRO","DEMARINIS","Owner","PRESIDENT",,"Alessandra","Demarinis","Owner","President",,,,,,,,,,,,,,,,,"Manhattan","10002","74","008","1004280","1003500073","03","02","2201","MN28","40.720216","-73.983532"
"DEMAR PLUMBING CORP.","Contractor","147 Attorney Street",,"New York","NEW YORK","10002","USA","ALESSANDRO","DEMARINIS","Owner","PRESIDENT",,"Alessandra","Demarinis","Owner","President",,,,,,,,,,,,,,,,,"Manhattan","10002","74","008","1004280","1003500073","03","02","2201","MN28","40.720216","-73.983532"
"APEC COR.P.","Sub-Contractor","3464 Bailey Ave",,"Bronx","NEW YORK","10463","USA","Hazir","Loshaj","Owner","President",,"Steven","Weingarten","Owner","President",,,,,,,,,,,,,,,,,"Bronx","10463","81","010","2090687","2032620231","08","11","279","BX28","40.881616","-73.899872"
"NEW YORK INSULATION","Sub-Contractor","58-48 59th St",,"Maspeth","NEW YORK","11378","USA","Anthony","Cardinale","Owner","Owner",,"Anthony","Cardinale","Owner","President",,"Anthony","Cardinale","Officer","President",,"Kieran","Slevin","Both","President","Chief Executive Officer","Jeff","Micheli","Officer","Vice President","Chief Financial Officer","Queens","11378","37","043","4539687","4026810058","05","30","525","QN30","40.719591","-73.908261"
"FW FREEDOM CONSTRUCTION CORP","Sub-Contractor","46 Tredwell Avenue",,"Lynbrook","NEW YORK","11563","USA","Frederico","Da Silva","Officer","COO","Chief Operating Officer","Frederico","Da Silva","Officer","Officer",,"Weldon","Paulo Costa","Owner","Principal",,"Frederico","Da Silva","Owner","President",,"Weldon","Paulo Costa","Officer","President",,"Out of NYC",,,,,,,,,,,
"NEW YORK POURED FLOORS CORP","Sub-Contractor","1552 STEVENS AVENUE",,"MERRICK","NEW YORK","11566","USA","David","Melnick","Officer",,,"DAVID","MELNICK","Officer","President",,"DAVID","MELNICK","Both","PRESIDENT","Chief Executive Officer","Norman","Shear","Owner","Vice President",,"David","Melnick","Owner","President",,"Out of NYC",,,,,,,,,,,
"PAR ENVIRONMENTAL CORP.","Sub-Contractor","313 Spook Rock Rd",,"Suffern","NEW YORK","10901","USA","Patrick","Mahoney","Owner","President",,"Patrick","Mahoney","Officer","President","Chief Executive Officer",,,,,,,,,,,,,,,,"Out of NYC",,,,,,,,,,,
"ACTION CHUTES","Contractor","20 Jon Barrett Rd",,"Patterson","NEW YORK","12563","USA","Steve","Herbert","Both","President",,"Steve","Hebert","Owner","President",,,,,,,,,,,,,,,,,"Out of NYC",,,,,,,,,,,
"A.V.K. CONTRACTING CORP","Sub-Contractor","22-59 77th Street East",,"Elmhurst","NEW YORK","11370","USA","George","Deleuos","Owner","President",,,,,,,,,,,,,,,,,,,,,,"Queens","11370","36","047","4022097","4010090045","01","22","317","QN72","40.767539","-73.892274"
"DHS FRACO LLC","Sub-Contractor","4612 Queens Blvd","210A","New York","NEW YORK","11104","USA","Armand","Rainville","Officer","President",,"Emmanuelle","Rainville","Officer","President",,"Armand","Rainville","Owner","President",,"Edmund","Kirsch","Owner","pres",,"Edmund","Kirsch","Owner","president",,"Manhattan",,,,,,,,,,,
"INTEGRATED HVAC SYSTEMS & SERVICES INC","Sub-Contractor","52 Columbia Street",,"Islip","NEW YORK","11751","USA","Eugene","Beyer","Owner",,,"Eugene","Beyer","Owner","PRESIDENT",,"Eugene","Byer","Officer","President",,"Eugene","Beyer","Owner","President",,"Ike","Beyer","Officer","Member",,"Out of NYC",,,,,,,,,,,
"COSAN CONSTRUCTION CORP","Sub-Contractor","734 South Columbus Avenue",,"Mt Vernon","NEW YORK","10550","USA","Terence","Ferguson","Owner","President",,"Terence","Fergusan","Officer","President",,"Laura","Jackman","Both",,,"Terence","Ferguson","Both","owner","Chief Executive Officer","Terrence","Ferguson","Both","President","Chief Executive Officer","Out of NYC",,,,,,,,,,,
"BACHI & SON CORP","Sub-Contractor","63 Brendon Hill Road",,"Scarsdale","NEW YORK","10583","USA","Bashkim","Byberi","Owner","President",,"Bashkim","Byberi","Owner","Owner",,,,,,,,,,,,,,,,,"Out of NYC",,,,,,,,,,,
"MECHANICAL EAST","Sub-Contractor","40 Dobbin Street",,"Brooklyn","NEW YORK","11222","USA","Amir","Flanchrych","Owner","Owner",,"Felix","Vandalovsky","Owner","Owner",,"Amir","Flanchraych","Owner","Owner",,"Amir","Flanchrych","Owner","President",,,,,,,"Brooklyn","11222","50","095","3065959","3026430027","01","33","569","BK76","40.723546","-73.953659"
"GOTHAM TECHNICAL SERVICES INC","Sub-Contractor","215-20 43rd Avenue",,"Bayside","NEW YORK","11361","USA","Mark","Reyes","Owner","President",,"Chris","Papadoplous","Both","Vice President",,"Jessica","Xhaferri","Owner","Owner",,"Chris","Papadoplous","Owner","Owner",,,,,,,"Queens","11361","26","051","4138460","4063080008","11","19","1471","QN46","40.761905","-73.767171"
"GIANT TAPING & PLASTERING, INC.","Sub-Contractor","80 Broad Street, Suite 1902",,"New York","NEW YORK","10004","USA","Isidro","Velasquez","Officer","COO","Chief Operating Officer","Isidro","Velasquez","Owner","President",,"Isidro","Velasquez","Both",,,"Isidro","Velazquez","Officer","PRESIDENT",,"Rufino","Vleazquez","Both","VP","Chief Operating Officer","Manhattan","10004","65","088","1000038","1000110021","01","01","9","MN25","40.704322","-74.011581"
"MILLENNIUM ELEVATOR ENTERPRISES INC","Sub-Contractor","2618 Avenue Z",,"Brooklyn","NEW YORK","11235","USA","MITCH","EVELKIN","Both","PRESIDENT",,"Mitch","Evelkin","Owner","President",,,,,,,,,,,,,,,,,"Brooklyn","11235","41","082","3205274","3074710010","15","48","600","BK17","40.589168","-73.943350"
"B&H CONTRACTING CORP.","Sub-Contractor","7129 Roosevelt Avenue",,"Jackson Heights","NEW YORK","11372","USA","Juned","Ahmed","Owner","Owner",,"Belal","Hossain","Owner","President",,"Belal","Hossain","Both","President",,,,,,,,,,,,"Queens","11372","39","049","4029758","4012820149","03","25","265","QN50","40.746570","-73.894167"
"FIVE STAR CONSTRUCTION INC","Sub-Contractor","254 36th Street","Bldg. 25th Fl, Space C544","Brooklyn","NEW YORK","11232","USA","Anna","Genna","Owner","President",,"Anna","Jenna","Officer","Principal",,"Veronica","Rodriguez","Officer","Office Manager",,,,,,,,,,,,"Brooklyn","11232","51","052","3398687","3006950020","07","38","2","BK32","40.655951","-74.007158"
"ALLSTATE INTERIORS FLOORING OF NY INC","Sub-Contractor","1195 Route 208",,"Monroe","NEW YORK","10950","USA","Gus","McGill","Officer","Controller",,"fred","soward","Owner","owner",,,,,,,,,,,,,,,,,"Out of NYC",,,,,,,,,,,
"BLUE ICE RESTORATION INC","Sub-Contractor","1808 21 avenue","1F","Astoria","NEW YORK","11105","USA","Roma","Krajewska","Both","owner","Chief Executive Officer","Roma","Krajewski","Owner","Owner",,"Roma","Krajewska","Officer","Principal Officer",,"Roma","Krajewska","Both","Owner","Chief Executive Officer","Roma","Krajevska","Both","owner","Chief Executive Officer","Queens","11105","36","042","4431165","4008960053","01","22","103","QN72","40.783813","-73.916774"
"ALBANY GLASS M&S DOORS","Sub-Contractor","375 Jericho Turnpike",,"Floral Park","NEW YORK","11001","USA","Anna","Rozum","Both","President",,"Anna","Rozum","Owner","President",,"Anna","Rozum","Both","president","Chief Executive Officer","Anna","Rozum","Both","President","Chief Executive Officer","Anna","Rozum","Both","owner","Chief Executive Officer","Queens",,,,,,,,,,,
"AZAR DECORATING INC","Sub-Contractor","48 Bakertown road, Suite 404",,"Monroe","NEW YORK","10950","USA","David","Goldberger","Both","President","Chief Executive Officer","David","Goldberger","Both","owner","Chief Executive Officer","David","Goldberger","Owner","President",,"Sam","Goldberger","Both","President","Chief Executive Officer","Sam","Goldberger","Both","owner","Chief Executive Officer","Out of NYC",,,,,,,,,,,
"TRIBOROUGH","Sub-Contractor","35-00 Farrington Street","1st Floor","Flushing","NEW YORK","11354","USA","Jared","Bohrer","Owner","VP",,"Jared","Bohrer","Officer","Principal",,"Jared","Bohrer","Both","Vice President",,"John","Hsu","Both","President","Chief Executive Officer","Jared","Bohrer","Officer","partner",,"Queens","11354","40","052",,,"07","20","869","QN22","40.764277","-73.831716"
"SNG BRICK & STONE INC","Sub-Contractor","1119 38th St",,"Brooklyn","NEW YORK","11218","USA","Edyta","-","Both","pres",,"Edyta","-","Both","President",,"Gregory","Dec","Both","President",,,,,,,,,,,,"Brooklyn","11218","44","011","3123025","3052910020","12","39","226","BK88","40.643338","-73.989251"
"PAPASIDERO MARBLE AND TILE LLC","Sub-Contractor","28 Wilner Road",,"Somers","NEW YORK","10589","USA","Sal","Papasidero","Both","President",,"Sal","Papasidero","Both",,,"Salavatore","Papasidero","Both","President",,"sal","papasidero","Both","President",,"sal","papasidero","Both","pres",,"Out of NYC",,,,,,,,,,,
"AGRA MASONRY INC","Sub-Contractor","2546 East 13th Street","#F2","Brooklyn","NEW YORK","11235","USA","Maryann","Furman","Owner","President",,"Mary Ann","Furman","Owner","President",,"Mary Ann","Fourman","Both","Ms.",,"Elina","Shumsky","Both","Officer",,"Maryann","Furman","Both","President","Chief Executive Officer","Brooklyn","11235","45","057","3203888","3074330025","15","48","588","BK25","40.588265","-73.956284"
"TOMASO","Sub-Contractor","213-39 35th Avenue",,"Bayside","NEW YORK","11361","USA","Sergio","Guallpa",,"President",,"Sergio","Guallpa","Owner","President",,"Sergio","Guallpa","Both","Owner",,"Sergio","Guallpa","Owner","PRESIDENT",,"Sergio","Guallpa","Both","President","Chief Executive Officer","Queens","11361","26","068","4443782","4061190047","11","19","1097","QN46","40.769043","-73.773486"
"TOMASO","Contractor","213-39 35th Avenue",,"Bayside","NEW YORK","11361","USA","Sergio","Guallpa",,"President",,"Sergio","Guallpa","Owner","President",,"Sergio","Guallpa","Both","Owner",,"Sergio","Guallpa","Owner","PRESIDENT",,"Sergio","Guallpa","Both","President","Chief Executive Officer","Queens","11361","26","068","4443782","4061190047","11","19","1097","QN46","40.769043","-73.773486"
"AJC PLUMBING & HEATING CORP.","Sub-Contractor","3448 75th Street",,"jackson Heights","NEW YORK","11372","USA","Andrzej","Czechowski","Officer","Manager","Chief Executive Officer","ANDREZEJ","CZECHOWSKI","Owner","PRESIDENT",,"Andrew","Czechowski","Owner","president",,"andrew","czechowski","Owner","president",,,,,,,"Queens","11372","34","027","4028974","4012610032","03","25","289","QN28","40.751690","-73.891307"
"BAYSIDE REFRIGERATION","Sub-Contractor","24-26 46th Street",,"AStoria","NEW YORK","11103","USA","gerri","Domenikos","Both","president","Chief Executive Officer","Gerri","domenikos","Owner","president",,,,,,,,,,,,,,,,,"Queens","11103","36","051","4430186","4007180046","01","22","141","QN70","40.767130","-73.905777"
"VA CONSTRUCTION SERVICE","Sub-Contractor","528 Wyona Street",,"Brooklyn","NEW YORK","11207","USA","Adrian","Brathwaite","Officer","President","Chief Executive Officer",,,,,,,,,,,,,,,,,,,,,"Brooklyn","11207","60","088","3084738","3038080045","05","42","1126","BK85","40.665704","-73.891361"
"STERLING FLOOR DESIGNS LTD","Sub-Contractor","82 Modular Avenue",,"Commack","NEW YORK","11725","USA","Jerry","Herz","Both","Vice President",,"Erik","Herz","Owner","VP",,"Brian","Herz","Both","Vice President",,"Jerry","Herz","Officer","CEO","Chief Executive Officer","Brian","Herz","Officer","VP of Sales",,"Out of NYC",,,,,,,,,,,
"SIGN GUYS NEW YORK CITY, INC.","Sub-Contractor","237 Oack St",,"West Hempstead","NEW YORK","11552","USA","Michael","Emma","Officer","PRESIDENT",,"Michael","Emma","Officer","CEO","Chief Executive Officer","Michael","Emma","Owner","President",,,,,,,,,,,,"Out of NYC",,,,,,,,,,,
"TAK PLUMBING AND HEATING CORP","Sub-Contractor","133B SUTTON STREET",,"Brooklyn","NEW YORK","11222","USA","Robert","Szaba","Owner","Principal",,"ROBERT","SZABAT","Both","VICE PRESIDENT",,,,,,,,,,,,,,,,,"Brooklyn","11222","50","033",,,"01","33","589","BK76","40.727311","-73.940967"
"STAT FIRE SPRINKLER INC","Contractor","889 S. 2nd Street",,"Ronkonkoma","NEW YORK","11779","USA","Danielle","Sulger","Owner","President",,,,,,,,,,,,,,,,,,,,,,"Out of NYC",,,,,,,,,,,
"GOTHAM DRYWALL, INC.","Sub-Contractor","31-00 47th Avenue","Suite 4110","Long Island City","NEW YORK","11101","USA","Ashley","Finamore","Officer","Controller",,"AMY","Balidemin","Both",,,"John","Fitzpatrick","Officer","Principal",,"Ashley","Finamore","Officer","Officer",,"Abdulla","Darrat","Both","CM",,"Queens","11101","37","025","4003539","4002810001","02","26","199","QN31","40.743060","-73.935652"
"GOTHAM DRYWALL, INC.","Contractor","31-00 47th Avenue","Suite 4110","Long Island City","NEW YORK","11101","USA","Ashley","Finamore","Officer","Controller",,"AMY","Balidemin","Both",,,"John","Fitzpatrick","Officer","Principal",,"Ashley","Finamore","Officer","Officer",,"Abdulla","Darrat","Both","CM",,"Queens","11101","37","025","4003539","4002810001","02","26","199","QN31","40.743060","-73.935652"
"UPRIGHT FIRE PROTECTION","Sub-Contractor","32B East Carl Street",,"Hickville","NEW YORK","11801","USA","Thomas","Coppinge","Officer","Vice President",,"Thomas","Coppinger","Officer","Vice President","Chief Operating Officer","Thomas","Coppinger","Both","Vice President",,"Abdulla","Darrat","Owner","Construction Manager",,"Thomas","Coppinger","Owner","Owner",,"Out of NYC",,,,,,,,,,,
"CUSTOM METALCRAFTERS, INC","Sub-Contractor","16 McKinley Ave",,"Albertson","NEW YORK","11507","USA","Steven","Rosner","Both","President","Chief Executive Officer",,,,,,,,,,,,,,,,,,,,,"Out of NYC",,,,,,,,,,,
"CUSTOM METALCRAFTERS, INC","Contractor","16 McKinley Ave",,"Albertson","NEW YORK","11507","USA","Steven","Rosner","Both","President","Chief Executive Officer",,,,,,,,,,,,,,,,,,,,,"Out of NYC",,,,,,,,,,,
"GT MECHANICAL CORP.","Sub-Contractor","2101 Rene Court",,"Ridgewood","NEW YORK","11385","USA","Paul","Brzozwski","Owner","President",,"Paul","Brzozowski","Owner","Owner",,,,,,,,,,,,,,,,,"Queens","11385","37","060","4080197","4033610042","05","34","595","QN20","40.712360","-73.911027"
"ALUMITECH","Sub-Contractor","104-06 150th Street",,"Jamaica","NEW YORK","11435","USA","Julio","Sanguirma","Owner","Owner",,"Julio","Sanguirma","Officer","President","Chief Executive Officer","Julio","Sangurima","Owner","President",,"Julio","Sanguirma","Owner","President",,,,,,,"Queens","11435","32","017","4215063","4100610026","12","28","204","QN61","40.697691","-73.802297"
"COSMOPOLITAN INTERIORS","Sub-Contractor","315 West 33rd Street",,"New York","NEW YORK","10001","USA","Shuja","Maqbool","Owner","PM",,"Shuja","Maqabool","Owner","President",,,,,,,,,,,,,,,,,"Manhattan","10001","75","062","1013552","1007570022","04","03","103","MN13","40.751831","-73.994651"
"DEFALCO CONSTRUCTION INC","Sub-Contractor","178-01 Liberty Avenue",,"Jamaica","NEW YORK","11433","USA","Michael","Falco","Owner","owner",,"Mike","Falco","Owner","owner",,"Mike","Falco","Owner","Owner",,"Mike","Falco","Officer","President",,,,,,,"Queens","11433","29","019","4440201","4103290207","12","27","444","QN61","40.705447","-73.782040"
"CITY GATES","Sub-Contractor","15-20 129th Street",,"College point","NEW YORK","11356","USA","Vincent","Greco","Owner","President",,"Vincent","Greco","Both","President","Chief Executive Officer","Vincent","Greco","Both","owner","Chief Executive Officer","Vincent","Greco","Officer","President",,,,,,,"Queens","11356","27","063","4098491","4040950058","07","19","947","QN23","40.784492","-73.839450"
"LATTY'S GENERAL PLUMBING CONTRACTOR CORP","Contractor","1058 E Gunhill Road",,"Bronx","NEW YORK","10469","USA","Ian","Latty","Both","President","Chief Executive Officer","Ian","Latty","Officer","CEO","Chief Executive Officer",,,,,,,,,,,,,,,,"Bronx","10469","83","021","2057231","2046380029","12","12","370","BX44","40.874369","-73.857020"
"SJ ELECTRIC CORP","Sub-Contractor","228 Merrick Road",,"Lynbrook","NEW YORK","11563","USA","ROBERT","AMABILE","Officer","PRESIDENT",,"Robert","Amabile","Officer","President","Chief Executive Officer","Brian","Kay","Officer","CEO","Chief Executive Officer","Robert","Amabile","Officer","President",,"Jodi","Ficarra","Officer","Mr.","Chief Financial Officer","Out of NYC",,,,,,,,,,,
"QUALITY FACILITY SOLUTIONS","Sub-Contractor","75 Taaffe Place",,"Brooklyn","NEW YORK","11205","USA","Ted","Schonfeldch","Officer","Vice President",,"Ted","Schonfeldch","Owner","owner",,,,,,,,,,,,,,,,,"Brooklyn","11205","50","082","3054190","3018830005","03","33","1237","BK75","40.696724","-73.960695"
"TRISTATE CRANE LLC","Sub-Contractor","201 Snediker Ave",,"Brooklyn","NEW YORK","11207","USA","Saul","Herrera","Both","Member",,"Manuel","Herrera","Officer","Member",,"manuel","herrera","Officer","-",,"Manuel","Herrera","Both","Member","Chief Executive Officer","Manny","Unknown","Both","Unknown",,"Brooklyn","11207","55","061","3326869","3037320001","05","42","1144","BK85","40.670396","-73.901245"
"MOOREGROUP CORPORATION","Sub-Contractor","1 Jefferson Place",,"Baldwin","NEW YORK","11510","USA","Martin","Moore","Owner","President",,"John","Moore","Owner","President",,"-","-","Officer","-",,,,,,,,,,,,"Out of NYC",,,,,,,,,,,
"A&J PREMIUM CORP.","Sub-Contractor","17 Madison Street",,"Franklin Square","NEW YORK","11010","USA","Wendy","Gonzalez","Owner","President",,,,,,,,,,,,,,,,,,,,,,"Out of NYC",,,,,,,,,,,
"AMB CONSTRUCTION INC.","Sub-Contractor","30 Pekola Terrace",,"Carteret","NEW JERSEY","7008","USA","Bledar","Paja","Owner","President",,,,,,,,,,,,,,,,,,,,,,"Out of NYC",,,,,,,,,,,
"ALL QUALITY HOME IMPROVEMENT","Sub-Contractor","168-01 12th Avenue","Apt. 4D","Whitestone","NEW YORK","11357","USA","Constantine","Mavromatis","Owner","President",,"Constantine","Mavromatis","Both","President",,"Constantine","Mavromatis","Officer","President",,,,,,,,,,,,"Queens","11357","26","016","4104354","4046020119","07","19","991","QN49","40.791543","-73.795818"
"L. FRANK URBAN INC.","Contractor","11 Chapin Road Unit B",,"Pine Brook","NEW YORK","7058","USA","LuisFrank","Urban","Owner","President",,"Frank","Urban","Owner","President",,"Luis","Urban","Owner","President",,"Frank","Urban","Both","President",,"Jamie","Modica","Officer","Chief Financial Officer","Chief Financial Officer","Out of NYC",,,,,,,,,,,
"DANEX MARBLE AND TILE INC.","Contractor","17 Kilmer Avenue",,"Dix Hills","NEW YORK","11746","USA","Daniel","Wisniewski","Officer","President",,"Daniel","Wisniewski","Officer","CEO","Chief Executive Officer",,,,,,,,,,,,,,,,"Out of NYC",,,,,,,,,,,
"CHUTEMASTER ENVIRONMENTAL INC.","Sub-Contractor","1640 VAUXHALL RAOD",,"UNION","NEW YORK","7083","USA","CURTIS","CONDON","Officer","VICE PRESIDENT",,"CRAIG","BERLIN","Officer","PRESIDENT",,,,,,,,,,,,,,,,,"Out of NYC",,,,,,,,,,,
"C&L CONCRETE CORP","Sub-Contractor","9 Union Avenue",,"Ronkonkoma","NEW YORK","11779","USA","Luis","Antunes","Owner","owner",,"Luis","Antunes","Officer","CEO","Chief Executive Officer","Patrick","Charon","Both",,,"Patrick","Charon","Officer","Officer",,"Luis","Antunes","Both","President",,"Out of NYC",,,,,,,,,,,
"SARATOGA SECURITY SERVICES INC","Sub-Contractor","248 50th Street",,"Brooklyn","NEW YORK","11220","USA","Ian","Younge","Officer","VP",,"Edgar","Younge","Owner","Owner",,"Ian","Younge","Both","Owner","Chief Executive Officer","Ian","Younge","Officer","President","Chief Executive Officer","Ian","Younge","Officer","Officer",,"Brooklyn","11220","51","066","3013149","3007890026","07","38","20","BK32","40.648429","-74.015853"
"NOKAJ CONSTRUCTION GROUP, INC.","Contractor","25-21 49TH STREET",,"LONG ISLAND CITY","NEW YORK","11103","USA","KEVIN","NOKAJ","Officer","President",,,,,,,,,,,,,,,,,,,,,,"Queens","11103","36","051","4616401","4007450037","01","22","297","QN63","40.764042","-73.904947"
"ECD NY INC","Sub-Contractor","18-27a 42nd street",,"Astoria","NEW YORK","11105","USA","Patrick","Sorrentino","Officer","Officer",,"Barry","MCKENNA","Owner","President",,,,,,,,,,,,,,,,,"Queens","11105","36","055",,,"01","22","12301","QN72","40.778516","-73.896431"
"ECD NY INC","Contractor","18-27a 42nd street",,"Astoria","NEW YORK","11105","USA","Patrick","Sorrentino","Officer","Officer",,"Barry","MCKENNA","Owner","President",,,,,,,,,,,,,,,,,"Queens","11105","36","055",,,"01","22","12301","QN72","40.778516","-73.896431"
"BREEZE NATIONAL INC","Sub-Contractor","843 S. Ocean Ave",,"Freeport","NEW YORK","11520","USA","Toby","Romano","Officer","Chairman of the Board",,"Toby","Romano","Officer","President",,,,,,,,,,,,,,,,,"Out of NYC",,,,,,,,,,,
"L&L PAINTING CO. INC","Contractor","900 South Oyster Bay Road",,"Hicksville","NEW YORK","11801","USA","Michael","Levine","Both","President",,"Michael","Levine","Both","Pres",,"Michael","Levine","Officer","President",,,,,,,,,,,,"Out of NYC",,,,,,,,,,,
"CENTENNIAL CLOUD LLC.","Sub-Contractor","1273 Ryder Street",,"Brooklyn","NEW YORK","11234","USA",,,,,,,,,,,,,,,,,,,,,,,,,,"Brooklyn","11234","41","027","3217196","3078170021","18","45","738","BK58","40.621180","-73.937203"
"NYR CONTRACTING CORP.","Sub-Contractor","80 East Artisan Ave",,"Huntington","NEW YORK","11743","USA","Paul","Blonder","Officer","Manager","Chief Executive Officer","Mona","Blonder","Officer","Manager","Chief Executive Officer","Mona","Blonder","Owner","President",,,,,,,,,,,,"Out of NYC",,,,,,,,,,,
"ROZ-A-LITE ELECTRICAL CONTRACTING, INC.","Sub-Contractor","159 20th Street","401","Brooklyn","NEW YORK","11232","USA","Alex","Rozovsky","Both",,,"Alex","Rozovsky","Both","pres",,,,,,,,,,,,,,,,,"Brooklyn","11232","51","055","3009138","3006360047","07","38","143","BK37","40.663719","-73.995840"
"CASSWAY CONTRACTING CORP","Sub-Contractor","771 Nepperhan Ave",,"Yonkers","NEW YORK","10703","USA","James","Cassidy","Owner","President",,,,,,,,,,,,,,,,,,,,,,"Out of NYC",,,,,,,,,,,
"CLEARVIEW SM","Sub-Contractor","199 Bush Street",,"Brooklyn","NEW YORK","11231","USA","Mojsi","Marke","Owner","President",,"Mojsi","Marke","Both","president","Chief Executive Officer","Mojsi","Marke","Owner","president",,"Mojsi","Marke","Owner","pres",,"Mojsi","Marke","Both","President","Chief Executive Officer","Brooklyn","11231","51","069","3008571","3005620046","06","38","53","BK33","40.673573","-74.001337"
"SPIRE SCAFFOLDING & HOISTING CORP","Sub-Contractor","1000 Anderson Avenue","2nd Floor","Fort Lee","NEW JERSEY","7024","USA","Ashley","Perrone","Owner","Manager",,,,,,,,,,,,,,,,,,,,,,"Out of NYC",,,,,,,,,,,
"SNG BRICK LLC","Contractor","1119 38th Street",,"Brooklyn","NEW YORK","11218","USA","Gregory","Dec","Officer","Principal Owner",,"Gregory","Dec","Both",,,,,,,,,,,,,,,,,,"Brooklyn","11218","44","011","3123025","3052910020","12","39","226","BK88","40.643338","-73.989251"
"SNG BRICK LLC","Sub-Contractor","1119 38th Street",,"Brooklyn","NEW YORK","11218","USA","Gregory","Dec","Officer","Principal Owner",,"Gregory","Dec","Both",,,,,,,,,,,,,,,,,,"Brooklyn","11218","44","011","3123025","3052910020","12","39","226","BK88","40.643338","-73.989251"
"CIRCLE ROSE CONTRACTING INC","Contractor","201 Northwest Drive","Ste 5","Farmingdale","NEW YORK","11735","USA","Lisa","Ostreander","Officer","President",,"lisa","ostrander","Owner","Owner",,"Lisa","Ostrander","Both",,,"Lisa","Ostander","Both","President",,,,,,,"Out of NYC",,,,,,,,,,,
"LB NOVA","Sub-Contractor","P. O. Box 4",,"New York","NEW YORK","10108","USA","Arturo","Lugo","Owner","President",,"arturo","lugo","Owner","president",,"Arturo","Lugo","Both","President","Chief Executive Officer",,,,,,,,,,,"Manhattan",,,,,,,,,,,
"HEAT WATCH LLC","Sub-Contractor","818 6TH AVENUE","SUITE 4N","NEW YORK","NEW YORK","10001","USA","JEFF","CARLETON","Owner","PRESIDENT",,,,,,,,,,,,,,,,,,,,,,"Manhattan","10001","75","035","1015710","1008300003","05","03","76","MN17","40.746215","-73.990379"
"ENERGY PLUS NY","Sub-Contractor","831 Kent Avenue",,"Brooklyn","NEW YORK","11205","USA","Moshe","Lefkowitz","Both","President","Chief Executive Officer","moshe","lefkowitz","Owner","president",,"Moshe","Lefkowitz","Owner","President",,,,,,,,,,,,"Brooklyn","11205","50","083","3000000","3018980019","03","33","1237","BK75","40.695612","-73.959589"
"STARBRITE WATERPROOFING CO. INC.","Sub-Contractor","PO BOX 421",,"HARRIMAN","NEW YORK","10926","USA","Rick","Chesney","Officer","COO","Chief Operating Officer","Rick","Chesney","Officer","President",,"RICK","CHESKNEY","Owner","PRESIDENT",,,,,,,,,,,,"Out of NYC",,,,,,,,,,,
"DEEP PLUMBING WATER & SEWER, INC. DBA UNDERGROUND WATER & SEWER","Sub-Contractor","2209 De Reimmer Ave",,"Bronx","NEW YORK","10475","USA","Kelvin","Basdeo","Officer","Manager","Chief Executive Officer","Gani","Gjevukaj","Owner","President",,"Luke","Lajqi","Owner","President",,"Luke","Lajqi","Officer","Manager","Chief Executive Officer","Gani","Gjevukaj","Owner","Vice President",,"Bronx",,,,,,,,,,,
"ANAAR CONSTRUCTION & CONTRACTING CORP","Sub-Contractor","240-35 68TH AVENUE",,"LITTLE NECK","NEW YORK","11362","USA","Sadaf","Bhatti","Officer","CEO","Chief Executive Officer","Sadaf","Bhatti","Officer","COO","Chief Operating Officer",,,,,,,,,,,,,,,,"Queens","11362","25","025","4452452","4082907501","11","23","152901","QN45","40.751020","-73.737960"
"BARAMI CONSTRUCTION CORP","Sub-Contractor","481 8TH AVE","STE 536","NEW YORK","NEW YORK","10001","USA","VEHBI","BAJRAMI","Officer","COO",,"VEHBI","BAJRAMI","Officer","COO","Chief Operating Officer",,,,,,,,,,,,,,,,"Manhattan","10001","75","062","1013561","1007580037","04","03","111","MN13","40.752295","-73.993402"
"BPRT CONSTRUCTION CORP","Sub-Contractor","295 Madison Avenue",,"New York","NEW YORK","10017","USA","Bajwa","Hassan","Owner","President",,"Hassan","Bajwa","Owner","Owner",,"Hassan","Bajwa","Both","Owner",,"Hassan","Bajwa","Officer","Officer",,"Hassan","Bajwa","Both","President","Chief Executive Officer","Manhattan","10017","73","007","1035321","1012750050","05","04","82","MN20","40.751997","-73.979864"
"RACANELLI CONSTRUCTION COMPANY, INC.","Contractor","1895 Walt Whitman Road",,"Melville","NEW YORK","11747","USA","Michael","Racanelli","Both","Vice President",,,,,,,,,,,,,,,,,,,,,,"Out of NYC",,,,,,,,,,,
"LAURA ELECTRICAL LIGHTING & MAINTENANCE SERVICE INC.","Sub-Contractor","119-19 15TH AVE",,"COLLEGE POINT","NEW YORK","11365","USA","CONSTANCE","GARGIULO","Officer","President",,"Constance","Gargiulo","Officer","Principal Officer",,"CONSTANCE","GARGIULO","Owner","PRESIDENT",,"CONSTANCE","GARGIULO","Both","President","Chief Executive Officer","Constance","Gargiulo","Officer","President","Chief Executive Officer","Queens","11356","27","064","4098160","4040720011","07","19","929","QN23","40.784122","-73.848287"
"DITTA MALTIO CONSTRUCTION INDUSTRIES","Sub-Contractor","15 LENZIE ST",,"STATEN ISLAND","NEW YORK","10312","USA","GINO","MALITO","Owner","Owner",,"GINO","MALITO","Officer","President",,"GINO","MALITO","Officer","PRESIDENT",,"GINO","MALITO","Owner","PRESIDENT",,,,,,,"Staten Island","10312","62","036","5167552","5053820034","03","51","15602","SI01","40.532368","-74.161588"
"MAYRICH CONSTRUCTION CORP","Sub-Contractor","1141 Oakpoint Ave",,"Bronx","NEW YORK","10474","USA","Jamie","Furey","Officer","Vice President",,,,,,,,,,,,,,,,,,,,,,"Bronx","10474","84","073","2006764","2027680023","02","17","93","BX27","40.809229","-73.892749"
"D'APRILE","Sub-Contractor","1907 Bellmore Ave.",,"Bellmore","NEW YORK","11710","USA","Frank","Renna","Owner","Officer",,"Frank","Renna","Officer","President","Chief Executive Officer","Frank","Renna","Officer","President",,"Frank","Renna","Owner","Owner",,,,,,,"Out of NYC",,,,,,,,,,,
"DELCO ELECTRIC","Contractor","241 west 37th St",,"New York","NEW YORK","10018","USA","John","DeLuca","Owner","President",,,,,,,,,,,,,,,,,,,,,,"Manhattan","10018","75","067","1014455","1007870020","05","03","109","MN17","40.753426","-73.990475"
"BUILT QUICK INC","Sub-Contractor","Street: 149-43 17th Road",,"Whitestone","NEW YORK","11357","USA","niko","Karakostas","Officer","president",,"Nick","Karakostas","Both","President","Chief Executive Officer",,,,,,,,,,,,,,,,"Queens","11357","26","079","4105799","4046660025","07","19","1039","QN49","40.783547","-73.815421"
"ISG 1 INC.","Sub-Contractor","99 Smithtown Blvd.",,"Smithtown","NEW YORK","11787","USA","CHRISTINE","Amoroso","Owner","PRESIDENT",,"Christine","Amoroso","Owner","Manager",,"Christine","Amoroso","Officer","Manager","Chief Executive Officer","Christine","Amoroso","Owner","President",,"Vinny","Amoroso","Officer","Manager","Chief Executive Officer","Out of NYC",,,,,,,,,,,
"SUPREME FLOORING, INC","Sub-Contractor","1072 Madison Avenue",,"Lakewood","NEW YORK","8701","USA","Malka","Feldman","Officer","Office Manager",,"Malka","Feldman","Both",,,"Eliezer","Rasman","Both","Pres",,"Eliezer","Rausman","Officer","Manager","Chief Executive Officer","Ari","Weber","Both",,,"Out of NYC",,,,,,,,,,,
"A&A MAINTENANCE ENT., INC.","Contractor","965 Midland Avenue",,"Yonkers","NEW YORK","10704","USA","Armando","Rodriguez","Owner","President",,"Armando","Rodriguez","Owner","Owner",,,,,,,,,,,,,,,,,"Out of NYC",,,,,,,,,,,
"S & J INDUSTRIAL CORP","Sub-Contractor","800 Flatbush Avenue",,"Brooklyn","NEW YORK","11226","USA","Semyon","Pivovarov","Owner","President",,,,,,,,,,,,,,,,,,,,,,"Brooklyn","11226","43","074","3397264","3050630058","14","40","50803","BK42","40.653312","-73.959413"
"HIGHRISE SAFETY SYSTEMS","Contractor","273 Walt Whitman Road",,"Huntington Station","NEW YORK","11746","USA","Ernesto","Tersigni","Both","President","Chief Executive Officer",,,,,,,,,,,,,,,,,,,,,"Out of NYC",,,,,,,,,,,
"DEFILA PAINTING CO.","Sub-Contractor","2718 Quaker Church Road",,"Yorktown Heights","NEW YORK","10598","USA","Paul","Filancia","Officer","President",,"Paul","Filancia","Owner","Manager",,"Paul","Filancia","Officer","Manager","Chief Executive Officer",,,,,,,,,,,"Out of NYC",,,,,,,,,,,
"JECO ELECTRICAL SERVICE CORP","Sub-Contractor","1162 Intervale Avenue",,"Bronx","NEW YORK","10459","USA","Jesus","Corporan","Owner","President",,"Jesus","Corporan","Owner","Owner",,,,,,,,,,,,,,,,,"Bronx","10459","85","055","2005502","2027060052","02","17","131","BX33","40.827731","-73.895671"
"SHAKER CONTRACTORS CORP","Sub-Contractor","245 Throggs Neck Blvd",,"Bronx","NEW YORK","10465","USA","SHAHBAZ","SHER","Both","CEO",,"Shahbaz","Sher","Officer","President",,"Shahbaz","Sher","Owner","President",,"Shahbaz","Sher","Officer","CEO/President","Chief Executive Officer",,,,,,"Bronx","10465","82","006","2077429","2054500031","10","13","130","BX52","40.818534","-73.813294"
"BP CYRUS LLC","Contractor","1605 University Avenue",,"Bronx","NEW YORK","10453","USA","Justin","Stein","Both","VP- Development",,,,,,,,,,,,,,,,,,,,,,"Bronx","10453","77","021","2114454","2028780019","05","14","21501","BX36","40.847076","-73.920313"
"MOLINA FRAMING","Sub-Contractor","112-22 14th Road",,"College Point","NEW YORK","11356","USA","Luis","Molina","Both","President","Chief Executive Officer",,,,,,,,,,,,,,,,,,,,,"Queens","11356","27","064","4098105","4040640010","07","19","929","QN23","40.784575","-73.854291"
"E & G CARPENTERS CORP","Sub-Contractor","3425 Gates Place",,"Bronx","NEW YORK","10467","USA","Edwin","Gonzalez","Both","Owner","Chief Executive Officer",,,,,,,,,,,,,,,,,,,,,"Bronx","10467","80","087","2017676","2033240019","07","11","421","BX43","40.882630","-73.883947"
"GCG INDUSTRIES INC","Sub-Contractor","160-52 91st Street",,"Howard Beach","NEW YORK","11414","USA","Glenn","Dano","Officer","President","Chief Executive Officer","Anna","Anders","Officer","Officer",,"Shaun","Teti","Owner","Owner",,,,,,,,,,,,"Queens","11414","23","045","4293733","4140280032","10","32","892","QN57","40.656355","-73.841164"
"UNDERPINNING & FOUNDATION SKANSKA INC.","Sub-Contractor","46-36 54th Road",,"Maspeth","NEW YORK","11378","USA","Andrew","Burns","Officer","Vice President",,"Stephen","Hughes","Officer","Secretary/Treasurer","Chief Operating Officer",,,,,,,,,,,,,,,,"Queens","11378","30","019","4441134","4025460024","02","30","205","QN31","40.730851","-73.921513"
"PARKVIEW PLUMBING & HEATING","Sub-Contractor","2210 Reeds Mill Lane",,"Bronx","NEW YORK","10475","USA","Christopher","Strnad","Officer","President","Chief Executive Officer","Brian","Strnad","Officer","Vice President",,"Chris","Strnad","Officer","PRESIDENT",,"Chris","Strnad","Both","President","Chief Operating Officer","Chris","Strand","Officer","Principal",,"Bronx","10475","83","067","2123649","2052630132","12","12","46202","BX13","40.882627","-73.830360"
"HAZLETON CREEK PROPERTIES, LLC","Sub-Contractor","390 North Broadway",,"Jericho","PENNSYLVANIA","11753","USA","Matt","Petrie","Officer","VP",,,,,,,,,,,,,,,,,,,,,,"Out of NYC",,,,,,,,,,,
"UNITED STEEL PRODUCTS","Contractor","33-40 127TH PLACE",,"FLUSHING","NEW YORK","11368","USA","ALFREDO","FRANZA","Owner","President",,"Alfredo","Franza","Owner","President",,"ALFREDO","FRANZA","Owner","Owner",,"ALFREDO","FRANZA","Officer","VICE PRESIDENT",,"fred","budetti","Owner","president",,"Queens","11368","27","058","4045058","4018280021","07","21","38301","QN99","40.761490","-73.842545"
"DANI'S BUILDERS","Sub-Contractor","404 N Terrace Avenue",,"Mount Vernon","NEW YORK","10552","USA","Brett","Steinberg","Owner","Owner",,,,,,,,,,,,,,,,,,,,,,"Out of NYC",,,,,,,,,,,
"VISION CONCRETE","Sub-Contractor","34 Barretts Avenue",,"Holtsville","NEW YORK","11742","USA","Manuel","Coto","Officer","Principal",,,,,,,,,,,,,,,,,,,,,,"Out of NYC",,,,,,,,,,,
"METROPOLITAN COMPACTOR","Sub-Contractor","21 Quine Street",,"Cranford","NEW YORK","7016","USA","michael","walker","Owner","president",,"Ken","Johnson","Officer","Project Manager",,,,,,,,,,,,,,,,,"Out of NYC",,,,,,,,,,,
"WITH PRIDE","Sub-Contractor","77 Marine Street",,"Farmingdale","NEW YORK","11735","USA","mike","Dolan","Owner","president",,"Mike","Dolan","Owner","president",,"Mike","Dolan","Owner","Owner",,"Mike","Dolan","Officer","Principal",,"Mike","Dolan","Officer","President",,"Out of NYC",,,,,,,,,,,
"CHAIM ELECTRIC","Sub-Contractor","2920 Avenue J",,"Brooklyn","NEW YORK","11210","USA","Yitz","Gelb","Owner","Owner",,,,,,,,,,,,,,,,,,,,,,"Brooklyn","11210","42","051","3207865","3076110047","14","45","750","BK43","40.626688","-73.947577"
"ONLINE MECHANICAL CORP.","Sub-Contractor","24-15 45TH STREET",,"Astoria","NEW YORK","11103","USA","ROLANDO","HYSENAJ","Owner","Owner",,"Rolando","Hysenaj","Owner","Owner",,"Roland","Hysenej","Officer","PRESIDENT",,"Roland","Hysenej","Officer","President",,"JETMIRA","GALICA","Owner","PRESIDENT",,"Queens","11103","36","051","4012872","4007180030","01","22","141","QN70","40.767562","-73.906505"
"ALBA STONE WORKS","Sub-Contractor","3826 54th Street",,"Woodside","NEW YORK","11377","USA","skender","Kokaj","Both","President",,"Skender","Kokaj","Owner","President",,"Skender","Kokaj","Both","owner","Chief Executive Officer","Skender","Koka","Officer","Officer",,"Skender","Koka","Both","unknown",,"Queens","11377","30","076","4027584","4012070058","02","26","255","QN63","40.749572","-73.908573"
"CS BRIDGE","Sub-Contractor","1470 Bruckner Blvd",,"Bronx","NEW YORK","10473","USA","Peter","O'Farrell","Officer","President",,"Michael","O'Farrell","Both","Secretary / Treasurer","Chief Financial Officer","Peter","O'Farrell","Both","President","Chief Executive Officer",,,,,,,,,,,"Bronx","10473","85","037","2022563","2036490030","09","17","28","BX09","40.823168","-73.880257"
"LET IT GROW, INC.","Sub-Contractor","52 Ackerson Street",,"Township of Washington","NEW YORK","7676","USA","Michelle","Downey","Officer","Officer",,"Paul","Imbattato","Both","President",,"Brian","Palumbo","Both",,,"Russell","Zeltner","Officer","President",,"Michelle","Downey","Both",,,"Out of NYC",,,,,,,,,,,
"BEST ENERGY POWER 2015 LLC","Sub-Contractor","20 W Fairview Aveue",,"Valley Stream","NEW YORK","11580","USA","Gina","Shea","Officer","payrool",,"Ronnie","Mandle","Both","President",,,,,,,,,,,,,,,,,"Out of NYC",,,,,,,,,,,
"PAOLO CONSTRUCTION","Sub-Contractor","91-28 175th St",,"Jamaica","NEW YORK","11432","USA","Mariana","Caceres","Both","Owner","Chief Executive Officer",,,,,,,,,,,,,,,,,,,,,"Queens","11432","29","016","4537581","4098090077","12","27","462","QN61","40.708820","-73.786102"
"UNIVERSAL CHUTES INC.","Sub-Contractor","176 Kansas Street",,"Hackensack","NEW YORK","7601","USA","Uzi","Saban","Owner","Owner",,,,,,,,,,,,,,,,,,,,,,"Out of NYC",,,,,,,,,,,
"JAG CONTRACTING LLC","Sub-Contractor","409 Joyce Kilmer Ave, 317",,"New Brunswick","NEW YORK","8091","USA","Jorge","Galeano","Owner","president",,"jorge","galeano","Owner","president",,,,,,,,,,,,,,,,,"Out of NYC",,,,,,,,,,,
"PREMIER COMPACTION SYSTEMS, LLC","Sub-Contractor","264 Lackawanna Ave",,"woodland","NEW YORK","7424","USA","John","Frustaci","Officer","Engineer",,"robert","frustaci","Officer","president",,"robert","frustaci","Owner","president",,"John","Frustaci","Owner","President",,"Robert","Frustaci","Officer","President",,"Out of NYC",,,,,,,,,,,
"STATIC ELECTRIC","Sub-Contractor","1930 Adee Ave",,"bronx","NEW YORK","10469","USA","devon","chambers","Owner","president",,,,,,,,,,,,,,,,,,,,,,"Bronx","10469","83","001","2062766","2047970069","12","12","46202","BX13","40.871653","-73.835678"
"AMK MECHANICAL LTD","Sub-Contractor","5308 13th Ave","Ste 446","Brooklyn","NEW YORK","11219","USA","asher","klein","Owner","president",,"Asher","Klein","Owner","President",,"Asher","Klein","Officer","Manager","Chief Executive Officer","Asher","Klein","Officer","CEO",,,,,,,"Brooklyn","11219","48","009","3139018","3056690070","12","44","218","BK88","40.632675","-73.994581"
"BP MAPES LLC","Contractor","16 Mount EBO RD S STE 14",,"Brewster","NEW YORK","10509","USA","Justin","Stein","Both","Member",,,,,,,,,,,,,,,,,,,,,,"Out of NYC",,,,,,,,,,,
"JEROME 1769 LIHTC LLC","Contractor","1769 Jerome Avenue",,"Bronx","NEW YORK","10453","USA","justin","Stein","Officer","Officer",,,,,,,,,,,,,,,,,,,,,,"Bronx","10453","77","036","2090447","2028610163","05","14","217","BX36","40.848423","-73.911846"
"ECONOMY IRON WORKS & DESIGN CORP","Sub-Contractor","670 southern blvd",,"bronx","NEW YORK","10455","USA","anderson","lopez","Owner","president",,,,,,,,,,,,,,,,,,,,,,"Bronx","10455","84","085","2094273","2026030173","02","08","83","BX33","40.813224","-73.900256"
"MERCON PLUMBING CORP","Sub-Contractor","1616 Mermaid Avenue",,"Brooklyn","NEW YORK","11224","USA","Serge","Pisman","Owner","President",,,,,,,,,,,,,,,,,,,,,,"Brooklyn","11224","46","016","3189585","3070620006","13","47","326","BK21","40.576705","-73.983992"
"CHAMPION ELEVATOR","Contractor","521 5th Avenue","17th Floor","New York","NEW YORK","10175","USA","Joseph","Corrado","Owner","Vice president",,,,,,,,,,,,,,,,,,,,,,"Manhattan","10017","73","008","1035355","1012780001","05","04","94","MN17","40.754078","-73.979935"
"P&H PAINTING","Contractor","7 Purdy Street","suite 201","Harrison","NEW YORK","10528","USA","Jose","Ayaso","Officer","President",,"Jason","Peligri","Officer","Unknown",,"Jason","Ayaso","Owner","President",,,,,,,,,,,,"Out of NYC",,,,,,,,,,,
"ENTERPRISE ARCHITECTURAL SALES, INC.","Sub-Contractor","20 West 64th Street","Lower Level","New York","NEW YORK","10023","USA","Jonathan","Strenchos","Owner","President",,,,,,,,,,,,,,,,,,,,,,"Manhattan","10023","75","095","1027472","1011167501","07","06","149","MN14","40.771430","-73.980335"
"J & R ELECTRIC COMMUNICATION INC.","Sub-Contractor","PO Box 518",,"Pawling","NEW YORK","12564","USA","Clayton","Macartney","Owner","owner",,"Clayton","Macartney","Officer","Officer",,"Clayton","Macartney","Owner","Owner",,,,,,,,,,,,"Out of NYC",,,,,,,,,,,
"UNIVERSAL BUILDERS SUPPLY INC.","Contractor","27 Horton Avenue",,"New Rochelle","NEW YORK","10801","USA","Terrian","Gilpin","Officer","Principal Officer",,"Kevin","O'Callaghan","Both","Chairman/CEO","Chief Executive Officer","Maureen","Pinnock","Officer","Payroll Coordinator",,"Brenda","Sabater","Officer","Principal Officer",,,,,,,"Out of NYC",,,,,,,,,,,
"WINCO CORPORATION","Sub-Contractor","7 New Street",,"Lynbrook","NEW YORK","11563","USA","Donna","Marino","Both","Chief Operating Officer","Chief Operating Officer",,,,,,,,,,,,,,,,,,,,,"Out of NYC",,,,,,,,,,,
"HK MARBLE INC","Sub-Contractor","1192 Hyland Boulevard",,"Staten Island","NEW YORK","10305","USA","Hiu Lam","Sze","Both","Principal",,"HIU","LAM","Owner","PRESIDENT",,"Eva","Lee","Both","Officer",,,,,,,,,,,,"Staten Island",,,,,,,,,,,
"JLM CONTRACTING LLC","Sub-Contractor","P.O BOX 9",,"PURCHASE","NEW YORK","10577","USA","Richard","Mushi","Officer","Accountant",,"Joseph","Martino","Owner","President",,,,,,,,,,,,,,,,,"Out of NYC",,,,,,,,,,,
"BARONE STEEL INC.","Contractor","130-18 90 Avenue",,"Richmond Hills","NEW YORK","11418","USA","Dov","Michilovich","Officer","Vice President",,"nick","barone","Both","owner",,"Ralph","Barone","Officer","Vice President",,"Nick","Barone","Officer","President",,,,,,,"Queens","11418","24","065","4196818","4093580014","09","29","14202","QN54","40.698901","-73.820492"
"PRINCE CARPENTRY, INC","Sub-Contractor","1615 Northern Blvd.","Suite 204","Manhasset","NEW YORK","11030","USA","Thomas","Voss","Officer","President",,"Thomas","Voss","Officer","President/Treasurer",,"Mark","Prince","Officer","President",,"Thomas","Voss","Officer","PRESIDENT/TREASURER",,"Tom","Vass","Officer","President",,"Out of NYC",,,,,,,,,,,
"PHOENIX COMBUSTION CORP","Sub-Contractor","71-14 88 Street",,"Glendale","NEW YORK","11385","USA","Frank","Garibaldi","Officer","Vice President",,"Frank","Garibaldi","Owner","Owner",,,,,,,,,,,,,,,,,"Queens","11385","28","072",,,"05","30","637","QN19","40.709974","-73.864373"
"CERTUS CONTROLS LLC","Sub-Contractor","154 Toledo Street",,"Farmingdale","NEW YORK","11735","USA","John","Mardine","Owner","Principal",,"John","Nardine","Owner","Principal",,"John","Nardine","Owner","Princicpal",,,,,,,,,,,,"Out of NYC",,,,,,,,,,,
"J & J BRONX PLUMBING CORP","Sub-Contractor","3935 White Plains Road","1st Floor","Bronx","NEW YORK","10466","USA","Junor","Carter","Officer","Vice President",,"James","Carrier","Officer","Vice President",,,,,,,,,,,,,,,,,"Bronx","10466","83","048","2062935","2048250007","12","12","394","BX44","40.886728","-73.861076"
"A PLUS CONTRACTING CORP.","Sub-Contractor","1307 Herschell Street",,"Bronx","NEW YORK","10461","USA","Robena","Shach","Officer","Office Operations",,,,,,,,,,,,,,,,,,,,,,"Bronx","10461","82","027","2027213","2038440114","10","18","96","BX59","40.836213","-73.843131"
"PANTHEON DEVELOPMENT, LLC","Sub-Contractor","21 Cerrreta lane",,"Scarsdale","NEW YORK","10583","USA","Joseph","LoCascio","Owner","Owner",,,,,,,,,,,,,,,,,,,,,,"Out of NYC",,,,,,,,,,,
"REGAL RECONSTRUCTION CORP.","Sub-Contractor","56 Van Street",,"Staten Island","NEW YORK","10310","USA","Mary Beth","D'Amico","Owner","President",,"Justin","Gaeta","Officer","President","Chief Executive Officer",,,,,,,,,,,,,,,,"Staten Island","10310","61","016","5005148","5001870085","01","49","13302","SI22","40.639357","-74.119406"
"KILCLARE CONSTRUCTION INC","Sub-Contractor","941 McClean Avenue",,"Yonkers","NEW YORK","10704","USA","Kevin","Vaughan","Owner","President",,"Kevn","Vaughan","Owner","President",,,,,,,,,,,,,,,,,"Out of NYC",,,,,,,,,,,
"EAST COAST INTERIOR DCOR","Contractor","112 Wallabout ST","#4B","Brooklyn","NEW YORK","11249","USA","Esther","Pollack","Officer","President",,"Joseph","Pollak","Owner","owner",,"Esther","pollak","Both","President",,"Esther","Pollack","Owner","President",,,,,,,"Brooklyn","11249","50","074","3343716","3022627502","01","33","537","BK72","40.699473","-73.958598"
"TRANSEL ELEVATOR & ELECTRIC INC.","Contractor","30-30 47th Ave","Suite 610","Long Island City","NEW YORK","11101","USA","Mark","Gregorio","Both","President","Chief Executive Officer",,,,,,,,,,,,,,,,,,,,,"Queens","11101","37","025","4003540","4002820001","02","26","199","QN31","40.743168","-73.936568"
"TRANSEL ELEVATOR & ELECTRIC INC.","Sub-Contractor","30-30 47th Ave","Suite 610","Long Island City","NEW YORK","11101","USA","Mark","Gregorio","Both","President","Chief Executive Officer",,,,,,,,,,,,,,,,,,,,,"Queens","11101","37","025","4003540","4002820001","02","26","199","QN31","40.743168","-73.936568"
"PLATFORM SOLUTIONS, INC.","Sub-Contractor","1212 Avenue of americas","5th Floor","New York","NEW YORK","10036","USA","Jerry","McCarthy","Both",,,"Jerry","McCarthy","Officer","President",,"Paul","Doherty","Both",,,"Chauncey","Collins","Owner","President",,"Jerry","McCarthy","Both","President",,"Manhattan","10036","75","075","1034502","1012630071","05","04","96","MN17","40.758404","-73.981504"
"CHAZEN ENGINEERING, LAND SURVEYING& LANDSCAPE ARCHITECTURE CO., D.P.C","Sub-Contractor","21 Fox Street",,"Poughkeepsie","NEW YORK","1261","USA","Kevin","McGrath","Officer","Officer",,"RICHARD","CHAZEN","Owner","PRESIDENT",,,,,,,,,,,,,,,,,"Out of NYC",,,,,,,,,,,
"JERSEY FIRESTOP, LLC","Sub-Contractor","317 East 2nd St",,"Bound Brook","NEW YORK","8805","USA","Stephanie","JErsey","Officer",,,"angie","chacon","Officer",,,"David","Hinoyosa","Both","President",,"David","Hinojosa","Officer","Unknown",,,,,,,"Out of NYC",,,,,,,,,,,
"EPIC MECHANICAL CONTRACTORS LLC","Contractor","76 Mall Drive",,"Commack","NEW YORK","11725","USA","Michael J.","Fregara","Both","President","Chief Operating Officer",,,,,,,,,,,,,,,,,,,,,"Out of NYC",,,,,,,,,,,
"A.J. MCNULTY & CO INC.","Sub-Contractor","53-20 44th Street",,"Maspeth","NEW YORK","11378","USA","Elizabeth","Weiss","Both","President","Chief Executive Officer","Elizabeth","Weiss","Both","President","Chief Operating Officer",,,,,,,,,,,,,,,,"Queens","11378","37","026","4437431","4025140026","02","30","205","QN31","40.732455","-73.923048"
"WOODWORKS CONSTRUCTION CO. INC.","Contractor","322 8th Avenue","701","New York","NEW YORK","10001","USA","Scott","Rives","Both","President","Chief Executive Officer",,,,,,,,,,,,,,,,,,,,,"Manhattan","10001","75","048","1014225","1007760001","05","03","95","MN17","40.747294","-73.997023"
"ZND PRODUCTIONS LLC","Sub-Contractor","257 West 117th Street","1E","New York","NEW YORK","10026","USA","Ziv","Sidi","Owner","Owner",,"Ziv","Sidi","Owner","owner",,,,,,,,,,,,,,,,,"Manhattan","10026","70","011","1058390","1019237501","10","09","218","MN11","40.804667","-73.953830"
"JRA MARBLE AND CONSTRUCTION LLC","Sub-Contractor","279 Plateau Avenue",,"Fort Lee","NEW JERSEY","7024","USA","Juan","Rodriguez","Owner","Owner",,,,,,,,,,,,,,,,,,,,,,"Out of NYC",,,,,,,,,,,
"LED PLUMBING & HEATING LLC","Sub-Contractor","102-53 JAMAICA AVENUE",,"RICHMONT HILL","NEW YORK","11418","USA","MICHAL","CHELSTOWSKI","Officer","MANAGER PARTNER",,,,,,,,,,,,,,,,,,,,,,"Queens","11418","28","001","4191668","4091870034","09","32","26","QN54","40.695197","-73.843365"
"WIREMAN INC","Sub-Contractor","122 Brenner Ave",,"Bethpage","NEW YORK","11714","USA","Bryan","Heaney","Owner","President",,,,,,,,,,,,,,,,,,,,,,"Out of NYC",,,,,,,,,,,
"UNIQUE MARNLE AND GRANITE","Contractor","1957 steinway street",,"astoria","NEW YORK","11105","USA","john","manassakis","Both","president",,,,,,,,,,,,,,,,,,,,,,"Queens","11105","36","055","4015655","4008010009","01","22","12301","QN72","40.777265","-73.900653"
"COLE PARTNERS, INC.","Sub-Contractor","59-12 57 Street",,"Maspeth","NEW YORK","11378","USA","Marion","Cole","Owner","Owner",,"Marion","Cole","Officer","President",,,,,,,,,,,,,,,,,"Queens","11378","37","041","4535044","4026310030","05","30","535","QN30","40.718221","-73.911928"
"SPECTRUM PAINTING CORP.","Contractor","5 N Greenwich Road",,"Armonk","NEW YORK","10504","USA","James","Hart","Officer","CFO","Chief Financial Officer","Rino","Monteforte","Owner","Owner",,"Ralph","Tarchinea","Owner","Pres",,"Rino","Monteforte","Owner","CEO",,"Ralph","Tarchinea","Officer","Principal",,"Out of NYC",,,,,,,,,,,
"TRINCHESE IRON WORKS & CONSTRUCTION INC","Contractor","234 Belmont Avenue",,"Brooklyn","NEW YORK","11207","USA","Andrew","Trinchese","Officer","President",,"Andrew","Trinchese","Officer","Principal",,"Andrew","Trinchese","Officer","Principal Officer",,,,,,,,,,,,"Brooklyn","11207","55","061","3326888","3037480017","05","42","1134","BK85","40.669748","-73.901401"
"RYAN'S EXCAVATION OF THE BRONX LLC","Sub-Contractor","P.O.Box 9",,"Purchase","NEW YORK","10577","USA","Richard","Mushi","Officer","Accountant",,,,,,,,,,,,,,,,,,,,,,"Out of NYC",,,,,,,,,,,
"SPRAY ENTERPRISE LLC","Sub-Contractor","3220 Pearsall Avenue",,"Bronx","NEW YORK","10469","USA","Commie","St.Louis","Owner","Owner",,,,,,,,,,,,,,,,,,,,,,"Bronx","10469","83","024","2056789","2046180016","11","12","348","BX31","40.871609","-73.851739"
"MCA INTERIOR RENOVATION CORP","Sub-Contractor","215 Wycoff ave","2R","Brooklyn","NEW YORK","11237","USA","yansi","caballero","Owner","president",,"Yansi","Caballero","Owner","President",,,,,,,,,,,,,,,,,"Brooklyn",,,,,,,,,,,
"DENIS MECHANICAL & HEATING CORP","Sub-Contractor","11 saddle rock road",,"valley stream","NEW YORK","11581","USA","delio","denis","Owner","president",,,,,,,,,,,,,,,,,,,,,,"Out of NYC",,,,,,,,,,,
"CONSTANT INSULATION AND CONTRACTING CORP","Contractor","25-10 Newtown Avenue",,"astoria","NEW YORK","11102","USA","konstantina","casabianca","Both","owner","Chief Executive Officer","Konstantina","Casabianca","Owner","President",,"Konstantina","Casabianca","Officer","president","Chief Executive Officer","Konstantina","Casablanca","Officer","President",,"konstantina","casabianca","Both","president","Chief Executive Officer","Queens","11102","36","052","4006827","4005740004","01","22","71","QN71","40.770174","-73.923344"
"NY DRILLING INC","Sub-Contractor","51 N Dunton Ave",,"Medford","NEW YORK","11763","USA","Wayne","Fried","Both","President",,,,,,,,,,,,,,,,,,,,,,"Out of NYC",,,,,,,,,,,
"ELITE STRUCTURAL BUILDERS","Contractor","1841 Steinway Street",,"Astoria","NEW YORK","11105","USA","Christella","Xu","Owner","President",,,,,,,,,,,,,,,,,,,,,,"Queens","11105","36","055","4015685","4008020116","01","22","12301","QN72","40.779344","-73.898119"
"CONCRETE INDUSTRIES ONE CORP","Sub-Contractor","300 Boulevard of the Americas",,"Lakewood","NEW YORK","8701","USA","Mark","Furer","Both","president",,"Mark","Furer","Both","President","Chief Executive Officer","Mark","Furer","Officer","President",,"Mitch","Benjamin","Owner","President",,,,,,,"Out of NYC",,,,,,,,,,,
"L & G ACCOUSTICAL","Sub-Contractor","35 davenport road",,"Yonkers","NEW YORK","10704","USA","vinny","cullaro","Owner","president",,,,,,,,,,,,,,,,,,,,,,"Out of NYC",,,,,,,,,,,
"CLEAR IMAGE STOREFRONTS & GLASS","Sub-Contractor","2071 middle country road",,"centerreach","NEW YORK","11720","USA","donald","barter","Owner","president",,"DOnald","Barter","Both","President",,,,,,,,,,,,,,,,,"Out of NYC",,,,,,,,,,,
"AMERICAN SPECIALTIES","Sub-Contractor","441 saw mill river road",,"yonkers","NEW YORK","10710","USA","tarrod","fields","Owner","officer",,,,,,,,,,,,,,,,,,,,,,"Out of NYC",,,,,,,,,,,
"CLEARVIEW SM INC","Sub-Contractor","199 bush street",,"brooklyn","NEW YORK","11231","USA","mojsi","marke","Owner","president",,"Mojsi","Marke","Both","president","Chief Executive Officer",,,,,,,,,,,,,,,,"Brooklyn","11231","51","069","3008571","3005620046","06","38","53","BK33","40.673573","-74.001337"
"SPRAY RISE LLC","Sub-Contractor","2130 Ford Street",,"Brooklyn","NEW YORK","11229","USA","Richard","Diconcilio","Owner","President",,"Richard","Diconcillo","Owner","President",,"Richard","Diconcilio","Officer","President",,"Richard","Diconcillo","Officer","President",,,,,,,"Brooklyn","11229","41","062","3200417","3073660017","15","46","570","BK17","40.599853","-73.937936"
"MOBILITY ELEVATOR & LIFT CO.","Sub-Contractor","4 York Avenue","Suite 1","West Caldwell","NEW YORK","7006","USA","Douglas","Simon","Officer","CEO","Chief Executive Officer","Kamran","Shushtarian","Officer","President",,"Douglas","Simon","Both","CEO","Chief Executive Officer","Douglas","Simon","Owner","President",,,,,,,"Out of NYC",,,,,,,,,,,
"MGM PRO INC","Sub-Contractor","71-07 Cooper Avenue",,"Glendale","NEW YORK","11385","USA","Maciej","Moskal","Both","Owner",,"Maciej","Moskal","Owner","PRESIDENT",,"Maciej","Moskal","Owner","OWNER",,"Maciej","Moskal","Both","OWNER",,,,,,,"Queens","11385","38","028","4537128","4036870052","05","30","625","QN19","40.702333","-73.879926"
"PAPPILLION SECURITY INC","Sub-Contractor","255 Robinson Ave",,"Bronx","NEW YORK","10465","USA","Gustavo","Pizza","Both","Owner",,"Gustavo","Pizza","Owner","owner",,,,,,,,,,,,,,,,,"Bronx","10465","82","010","2081541","2056000063","10","13","132","BX52","40.814596","-73.826180"
"PINNACLE ALLIANCE GROUP","Sub-Contractor","2050 Eastchester Road","Suite 202","Bronx","NEW YORK","10461","USA","Ululy","Rafael Martinez","Officer","President",,"Vincent","Torres","Owner","VP",,"Ulily","Martinez","Officer","President",,"Ululy Rafael","Martinez","Officer","Officer",,"Ululy Rafael","Martinez","Owner","President",,"Bronx","10461","80","001","2047038","2042200001","11","13","296","BX49","40.854793","-73.843672"
"EZ WALLS","Sub-Contractor","96-09 Corona Ave",,"Corona","NEW YORK","11368","USA","nestor","martinez","Both","president","Chief Executive Officer","nestor","martinez","Both","owner","Chief Executive Officer",,,,,,,,,,,,,,,,"Queens","11368","39","010","4442970","4016210001","04","21","411","QN25","40.742217","-73.867159"
"NJ COLORED GLASS LLC","Sub-Contractor","29 Briarcliff Rd",,"Bergenfield","NEW YORK","7621","USA","Dan","Neuman","Owner","Director",,"Avraham","Yedidya","Owner","Owner",,,,,,,,,,,,,,,,,"Out of NYC",,,,,,,,,,,
"MR. SHOWER DOOR","Contractor","260 Hathaway Drive",,"Stratford","CONNECTICUT","615","USA","Thomas","Whitaker","Owner","President",,,,,,,,,,,,,,,,,,,,,,"Out of NYC",,,,,,,,,,,
"EJ ELECTRIC","Contractor","46-41 vernon blvd",,"long island city","NEW YORK","11101","USA","Anthony","Mann","Both","President","Chief Executive Officer",,,,,,,,,,,,,,,,,,,,,"Queens","11101","37","075","4311868","4000470001","02","26","7","QN31","40.745956","-73.953012"
"IMPERIAL FLOORING SYSTEMS INC","Contractor","56 Bowne Avenue",,"Freehold","NEW YORK","7728","USA","Evan","Tarabocchia","Both","owner","Chief Executive Officer","Evan","Tarabocchia","Owner","president",,,,,,,,,,,,,,,,,"Out of NYC",,,,,,,,,,,
"K&E BUILDERS","Sub-Contractor","67-31 52nd Road",,"Maspeth","NEW YORK","11373","USA","Kristina","Fearon","Officer","Owner",,"Kristina","Fearon","Officer","PRESIDENT",,"Kristina","Fearon","Owner","President",,"Kristina","Fearon","Owner","PRESIDENT",,"Kristina","Fearon","Both","PRESIDENT","Chief Executive Officer","Queens","11378","30","025","4055906","4024120039","05","30","513","QN30","40.732924","-73.897580"
"COLONNA MARBLE","Sub-Contractor","1320 Garrison Ave",,"Bronx","NEW YORK","10474","USA","maria","estrada","Owner","president",,,,,,,,,,,,,,,,,,,,,,"Bronx","10474","85","038","2006375","2027610113","02","17","11502","BX27","40.821083","-73.886775"
"U ARIAS CORP","Sub-Contractor","1855 Imperial Ave",,"new Hyde Park","NEW YORK","11040","USA","edward","arias","Owner","president",,,,,,,,,,,,,,,,,,,,,,"Out of NYC",,,,,,,,,,,
"A-L SERVICES","Sub-Contractor","669 Littleton Road",,"parsippany","NEW JERSEY","7054","USA","curt","appleby","Owner","copresident",,,,,,,,,,,,,,,,,,,,,,"Out of NYC",,,,,,,,,,,
"WALSH FACADE SERVICES","Contractor","923 OLD NEPPERHAN AVE",,"Yonkers","NEW YORK","10703","USA","Richard","Egan","Both","President",,"Nicholas","Camastro","Both","Office",,,,,,,,,,,,,,,,,"Out of NYC",,,,,,,,,,,
"JEM CONTRACTING CORP","Sub-Contractor","59-43 60th Street",,"Maspeth","NEW YORK","11378","USA","Joseph","Molina","Officer","President","Chief Executive Officer","Joseph","Molina","Owner","President",,,,,,,,,,,,,,,,,"Queens","11378","37","044","4432494","4027290002","05","30","525","QN30","40.717520","-73.906413"
"EASTERN METALWORKS OF NY INC.","Sub-Contractor","66 Mahan Street",,"West Babylon","NEW YORK","11704","USA","John","Hauser","Officer","Chief Operating Officer","Chief Operating Officer",,,,,,,,,,,,,,,,,,,,,"Out of NYC",,,,,,,,,,,
"LASTRADA GENERAL CONTRACTING CORP.","Sub-Contractor","3 Filasky Court",,"Glen Head","NEW YORK","11545","USA","Pietro","Guglielmi","Both","President","Chief Executive Officer","Pietro","Guglielmi","Owner","President",,,,,,,,,,,,,,,,,"Out of NYC",,,,,,,,,,,
"D-STAR WATERPROOFERS","Sub-Contractor","365 babylon turnpike",,"roosevelt","NEW YORK","11575","USA","antonio","Ramirez","Both","president",,,,,,,,,,,,,,,,,,,,,,"Out of NYC",,,,,,,,,,,
"PLATINUM SERVICES NY LLC","Sub-Contractor","53-28 11 Street",,"Long Island City","NEW YORK","11101","USA","ROCKY","SINGH","Owner","PRESIDENT",,"Mandip","Kaur","Officer","MEMBER",,"Rocky","Singh","Officer","President",,"Mandip","Kaur","Officer","Member",,"Mandip","Kaur","Owner","Member",,"Queens","11101","37","023","4436595","4000380016","02","26","1","QN31","40.740167","-73.952529"
"JNP GENERAL CONTRACTORS","Sub-Contractor","77-31 164TH STREET",,"Queens","NEW YORK","11366","USA","John","Tagios","Officer","CEO","Chief Executive Officer","John","Tagios","Owner","president",,,,,,,,,,,,,,,,,"Queens","11366","25","008","4150900","4069710003","08","24","1241","QN38","40.723507","-73.804717"
"DYNAMIC WINDOW SYSTEM INC.","Sub-Contractor","414 Cliff Street","Suite 2","Fairview","NEW YORK","7022","USA","Robert","Eis","Officer","Officer",,,,,,,,,,,,,,,,,,,,,,"Out of NYC",,,,,,,,,,,
"ANTONAKOS PAINTING & CONTRACT","Sub-Contractor","385 Northfield Ave",,"West Orange","NEW YORK","7052","USA","Mike","Antonakos","Owner","President",,,,,,,,,,,,,,,,,,,,,,"Out of NYC",,,,,,,,,,,
"KMC CARPET","Sub-Contractor","810 Maine Ave",,"bay shore","NEW YORK","11700","USA","Levin","Morales","Both","president","Chief Executive Officer","Levin","Morales","Owner","Ownder",,"Levin","Morales","Both","owner","Chief Executive Officer",,,,,,,,,,,"Out of NYC",,,,,,,,,,,
"ANTHONY G. FERRY, INC.","Sub-Contractor","1916 Park Avenue",,"New York","NEW YORK","10037","USA","Patrick","Kennelly","Owner","Owner",,,,,,,,,,,,,,,,,,,,,,"Manhattan","10037","68","083","1054286","1017550033","11","09","206","MN03","40.808320","-73.936662"
"FORWARD HEATING OF MASPETH LLC","Sub-Contractor","59-68 55th Drive",,"Maspeth","NEW YORK","11378","USA","Vito","Mossa","Officer","COO","Chief Operating Officer",,,,,,,,,,,,,,,,,,,,,"Queens","11378","30","013","4059950","4026880044","05","30","531","QN30","40.725941","-73.907029"
"URBAN ATELIER GROUP LLC","Contractor","85 Fifth Avenue","12th floor","New York","NEW YORK","10003","USA","david","damico","Officer","CEO","Chief Executive Officer","David","Damico","Officer","President","Chief Executive Officer",,,,,,,,,,,,,,,,"Manhattan","10003","75","008","1016080","1008440001","05","02","52","MN13","40.737416","-73.992581"
"KM BUILDERS CORP","Sub-Contractor","109-59 54th Avenue",,"Corona","NEW YORK","11368","USA","Pablo","Dominguez-Ferreira","Owner","Owner",,"Pablo","Dominguez-Ferreira","Both","owner","Chief Executive Officer",,,,,,,,,,,,,,,,"Queens","11368","39","005","4530136","4020090041","04","21","427","QN25","40.742539","-73.852265"
"MAGELLA CONSTRUCTION CORP.","Sub-Contractor","700 West 176th Street - Apt 2E",,"New York","NEW YORK","10033","USA","Brusandra","Cross","Both","owner","Chief Executive Officer","Brusandra","Cross","Both","Owner","Chief Executive Officer",,,,,,,,,,,,,,,,"Manhattan","10033","71","066","1063513","1021420217","12","10","263","MN36","40.846947","-73.938468"
"EAST COAST ELEVATOR, LLC","Sub-Contractor","P. O. Box 80",,"Three Bridges","NEW JERSEY","8887","USA","Letty","Garces","Owner","Operations Manager",,,,,,,,,,,,,,,,,,,,,,"Out of NYC",,,,,,,,,,,
"MF ELECTRIC SERVICE CO., INC.","Sub-Contractor","3323 Merrit Avenue",,"Bronx","NEW YORK","10475","USA","Albert","Faella","Owner","Officer",,"Albert","Faella","Both","President",,"Albert","Faella","Officer","CEO","Chief Executive Officer",,,,,,,,,,,"Bronx",,,,,,,,,,,
"CERTIFIED ALARM TECH SYSTEMS, INC.","Sub-Contractor","1260 WAters Place",,"Bronx","NEW YORK","10461","USA","Clarence","Lidharrie","Both","President","Chief Executive Officer",,,,,,,,,,,,,,,,,,,,,"Bronx","10461","82","032","2113980","2042260040","11","13","284","BX37","40.842744","-73.838413"
"PRECISION STONE MARBLE AND GRANITE","Sub-Contractor","1194 King Street",,"Greenwich","CONNECTICUT","6831","USA","Marc","Gazzola","Both","President",,,,,,,,,,,,,,,,,,,,,,"Out of NYC",,,,,,,,,,,
"US WINDOW SUPPLY & SERVICE INC.","Sub-Contractor","246-21 52 Avenue",,"Little Nec","NEW YORK","11362","USA","Dong","Guo","Both","President",,,,,,,,,,,,,,,,,,,,,,"Queens","11362","26","029","4170592","4082100035","11","19","150701","QN45","40.760913","-73.737101"
"TARA STEEL FABRICATION","Sub-Contractor","1623 Cody Avenue",,"Ridgewood","NEW YORK","11385","USA","Joe","O'Brien","Officer","Vice President",,,,,,,,,,,,,,,,,,,,,,"Queens","11385","38","007","4085822","4035560089","05","34","559","QN20","40.694269","-73.900781"
"SHANNON ENVIRONMENTAL CORP","Sub-Contractor","201 Christian Avenue",,"Stony Brook","NEW YORK","11790","USA","Ramon","Henriquez","Officer","President",,"Ramon","Henriquez","Both","President",,,,,,,,,,,,,,,,,"Out of NYC",,,,,,,,,,,
"RIGHT TEMP MECHANICAL INC.","Sub-Contractor","3902 29th Street",,"Long Island City","NEW YORK","11101","USA","John","Karalis","Owner","Owner",,,,,,,,,,,,,,,,,,,,,,"Queens","11101","30","038","4004828","4003980025","01","26","31","QN68","40.753322","-73.934667"
"CAPITAL SIGNS OF NYC INC.","Sub-Contractor","264 WEST 40TH STREET","SUITE 701","NEW YORK","NEW YORK","10001","USA","ALEX","WANG","Owner","PRESIDENT",,"ALEX","WANG","Owner","OWNER",,,,,,,,,,,,,,,,,"Manhattan","10018","75","073","1014511","1007890075","05","03","113","MN17","40.755470","-73.989616"
"A&H SECURITY SERVICES LLC","Sub-Contractor","611 Jackson Ave",,"Bronx","NEW YORK","10455","USA","Felix","Cabreja","Officer","President",,,,,,,,,,,,,,,,,,,,,,"Bronx","10455","84","043","2004434","2026230207","01","08","73","BX34","40.814910","-73.908484"
"AAA METAL & GLASS INC","Sub-Contractor","786 Easy 27 Street",,"Paterson","NEW YORK","7504","USA","Evan","Feather","Owner","President",,"Evan","Feather","Officer","President",,,,,,,,,,,,,,,,,"Out of NYC",,,,,,,,,,,
"JANTILE INC","Contractor","100 Business Park Drive",,"Armonk","NEW YORK","10504","USA","Anthony","Casola","Both","President","Chief Executive Officer","Anthony","Casola","Officer","President",,"Nektaria","Francescon","Officer","COO","Chief Operating Officer",,,,,,,,,,,"Out of NYC",,,,,,,,,,,
"PETRONE ERECTORS INC.","Contractor","96 Shell Bank Place",,"Rockville Center","NEW YORK","11570","USA","Ronald","Petrone","Both","Owner",,,,,,,,,,,,,,,,,,,,,,"Out of NYC",,,,,,,,,,,
"BAM MECHANICAL CORP.","Contractor","26 Chestnut Ridge Rd",,"Armonk","NEW YORK","10504","USA","Anthony","Marino","Officer","President",,,,,,,,,,,,,,,,,,,,,,"Out of NYC",,,,,,,,,,,
"KLG CONTRACTING INC.","Contractor","102-31 43rd Ave",,"Corona","NEW YORK","11368","USA","Lefteris","Kameris","Owner","President",,"Letteris","Kamberis","Owner","President",,"Lefteris","Kamberis","Owner","President",,"Lefteris","Kamberis","Officer","President",,,,,,,"Queens","11368","39","054","4048590","4019770048","04","21","405","QN26","40.747278","-73.862486"
"KLG CONTRACTING INC.","Sub-Contractor","102-31 43rd Ave",,"Corona","NEW YORK","11368","USA","Lefteris","Kameris","Owner","President",,"Letteris","Kamberis","Owner","President",,"Lefteris","Kamberis","Owner","President",,"Lefteris","Kamberis","Officer","President",,,,,,,"Queens","11368","39","054","4048590","4019770048","04","21","405","QN26","40.747278","-73.862486"
"SECURITY WHOLESALES INC","Contractor","3624 12th Ave",,"Brooklyn","NEW YORK","11218","USA","-","-","Officer","-",,"Esther","Khan","Officer","President","Chief Executive Officer","Esther","Khan","Both","principal","Chief Executive Officer",,,,,,,,,,,"Brooklyn","11218","44","011","3336249","3052920001","12","39","226","BK88","40.643418","-73.986930"
"VOLO MECHANICAL CORP","Sub-Contractor","38-17 54TH STREET",,"WOODSIDE","NEW YORK","11377","USA","Jeffrey","Ng","Officer","President",,"Bryan","Ng","Both","President","Chief Executive Officer","Jeffrey","Ng","Both","President","Chief Executive Officer",,,,,,,,,,,"Queens","11377","30","076","4027618","4012080058","02","26","255","QN63","40.749646","-73.908516"
"KING CONTRACTING GROUP NY INC","Contractor","26 Journal Square Plaza","Suite 505","Jersey City","NEW YORK","7306","USA","Brett","Steinberg","Both","owner","Chief Executive Officer","Brett","Steinberg","Owner","Principle",,"Brett","Steinberg","Officer","President","Chief Executive Officer","Brett","Steinberg","Officer","Principal",,"Brett","Steinberg","Officer","Principal","Chief Executive Officer","Out of NYC",,,,,,,,,,,
"KING CONTRACTING GROUP NY INC","Sub-Contractor","26 Journal Square Plaza","Suite 505","Jersey City","NEW YORK","7306","USA","Brett","Steinberg","Both","owner","Chief Executive Officer","Brett","Steinberg","Owner","Principle",,"Brett","Steinberg","Officer","President","Chief Executive Officer","Brett","Steinberg","Officer","Principal",,"Brett","Steinberg","Officer","Principal","Chief Executive Officer","Out of NYC",,,,,,,,,,,
"CNZ CONTRACTING","Sub-Contractor","5202 3rd Avenue",,"Brooklyn","NEW YORK","11220","USA","Paulina","Guida","Both","President","Chief Executive Officer",,,,,,,,,,,,,,,,,,,,,"Brooklyn","11220","51","078","3388017","3008050045","07","38","20","BK32","40.646472","-74.015852"
"BARRIER ASSOCIATES","Sub-Contractor","435 Bellvale Rd",,"Chester","NEW YORK","10918","USA","Eli","Stelmetz","Officer","Officer",,"Eli","Stelmetz","Officer","Finance manager",,,,,,,,,,,,,,,,,"Out of NYC",,,,,,,,,,,
"SOLICITO & SON CONTRACTING CORP","Sub-Contractor","162 Erie Street",,"Blauvelt","NEW YORK","10913","USA","Joseph","Solicito","Both","president","Chief Executive Officer","Joe","Solicito JR","Officer","Bookkeeper",,"Joseph","Solicito","Officer","President",,,,,,,,,,,,"Out of NYC",,,,,,,,,,,
"ICON FACADE WORKS, LLC","Sub-Contractor","15 West 38th Street","Suite 901","New York","NEW YORK","10018","USA","Gurol","Arici","Both","Unknown",,"Dennis","Khaimov","Both","President",,"Gurol","Arici","Officer","Managing Partner",,"Dennis","Khaimov","Both",,,,,,,,"Manhattan","10018","75","058","1016002","1008400031","05","04","84","MN17","40.751306","-73.983524"
"PLAYSITES + SURFACES INC","Sub-Contractor","103 Brightside Avenue",,"Central Islip","NEW YORK","11722","USA","William","Calderon","Both","president","Chief Executive Officer","William","Calderon","Both","owner","Chief Executive Officer","michele","barbera","Officer","compliance associate",,"William","Calderone","Both","President",,"William","Calderon","Officer","President",,"Out of NYC",,,,,,,,,,,
"VIKXS SERVICES INC","Contractor","12 Railroad place",,"Belleville","NEW YORK","7109","USA","Viktor","Bober","Owner","President",,"Viktor","Bober","Both","President","Chief Executive Officer","Viktor","Bober","Owner","Principal",,,,,,,,,,,,"Out of NYC",,,,,,,,,,,
"COUNTY ELECTRICAL CONTRACTORS","Sub-Contractor","100 beard street",,"brooklyn","NEW YORK","11231","USA","Mayer","Weber","Owner","President",,"Mayer","Weber","Officer","President","Chief Executive Officer","Mayer","Weber","Owner","owner",,,,,,,,,,,,"Brooklyn","11231","51","049","3008860","3006040016","06","38","53","BK33","40.674365","-74.014182"
"3 BROTHERS MECHANICAL INC.","Sub-Contractor","21 Park Lane",,"Masapequa","NEW YORK","11758","USA","Rocky","Valenzisi","Officer","V.P.",,,,,,,,,,,,,,,,,,,,,,"Out of NYC",,,,,,,,,,,
"ENERGY CONTROL SERVICE, INC.","Sub-Contractor","15 Murray Streer",,"Staten Island","NEW YORK","10309","USA","David","Bronzo","Officer","Principal",,"David","Bronzo","Officer","President",,,,,,,,,,,,,,,,,"Staten Island",,,,,,,,,,,
"BUILDER SERVICES GROUP DBA TRUTEAM COMMERCIAL SERVICES","Sub-Contractor","120 Wall Street",,"New York","NEW YORK","10005","USA","Robert","Marino","Officer","President",,"Publicly","Traded","Owner","Corporation",,"Robert","Marino","Officer","President","Chief Executive Officer",,,,,,,,,,,"Manhattan","10005","65","086","1000871","1000370001","01","01","7","MN25","40.704380","-74.006427"
"CITIBIX AND TILE INC","Sub-Contractor","58-18 37th Ave",,"Woodside","NEW YORK","11377","USA","Bernard","Fegan","Officer","chief operating officer",,"Bernard","Fegan","Officer","President",,"-","-","Owner","-",,"Chris","Dowling","Both","President",,"Chris","Dowling","Officer","vice President",,"Queens","11377","30","052","4027707","4012130056","02","26","259","QN63","40.750090","-73.904090"
"EAST COAST BULKHEADING INC","Sub-Contractor","50 Davison Lane East",,"West Islip","NEW YORK","11795","USA","Scot","Bendersky","Owner","President",,"Scot","Bendersky","Officer","President","Chief Executive Officer",,,,,,,,,,,,,,,,"Out of NYC",,,,,,,,,,,
"MIRAGE MIRROR AND GLASS","Sub-Contractor","61 Water Street",,"Ossining","NEW YORK","10562","USA","John","Count","Owner","President",,,,,,,,,,,,,,,,,,,,,,"Out of NYC",,,,,,,,,,,
"B&L TESTING AND BALANCING","Sub-Contractor","2735 Academy Street",,"Oceanside","NEW YORK","11572","USA","Brett","Sanicola","Both","president","Chief Executive Officer","Brett","Sanicola","Both","President","Chief Executive Officer","Brett","Sanicola","Officer","President",,,,,,,,,,,,"Out of NYC",,,,,,,,,,,
"JAG EXCAVATION AND CONCRETE INC.","Sub-Contractor","900 S 2nd Street","Unit 4","Ronkonkoma","NEW YORK","11779","USA","Jordan","Garrido","Owner","Owner",,"Jordan","Garrido","Owner","President",,,,,,,,,,,,,,,,,"Out of NYC",,,,,,,,,,,
"L.M.C. SPECIALTIES INC","Sub-Contractor","23-30 123rd Street",,"College Point","NEW YORK","11356","USA","Linda","Califano","Both","President",,,,,,,,,,,,,,,,,,,,,,"Queens","11356","27","081","4099815","4042260039","07","19","919","QN23","40.778275","-73.845224"
"AMERICAN ELITE CONSTRUCTION SERVICES, INC","Sub-Contractor","120 Lake Avene South","Suite 21","Nesconset","NEW YORK","11767","USA","Brian","Kelly","Owner","Owner",,"Brian","Kelly","Owner","President",,"Joyce","Fay","Both","Project Manager",,,,,,,,,,,,"Out of NYC",,,,,,,,,,,
"THE PRESRAY CORPORATION","Contractor","32 Nelson Hill Rd",,"Wassaic","NEW YORK","12592","USA","Jonathan","Field","Both","Controller",,"Jason W.","Smith","Both","President",,"Alex","Field","Officer","PM",,,,,,,,,,,,"Out of NYC",,,,,,,,,,,
"RESPLANDECER INC","Contractor","512 Cherry Lane",,"Floral Park","NEW YORK","11001","USA","Alexandra","Gonzalez","Both","President",,,,,,,,,,,,,,,,,,,,,,"Queens",,,,,,,,,,,
"ABOVE ALL STORE FRONTS, INC","Sub-Contractor","50 Gilpin Avenue",,"Hauppauge","NEW YORK","11788","USA","Christine","Lobos","Both","Na",,"Christine","Lobos","Both",,,"Anthony","Lipari","Both","President",,,,,,,,,,,,"Out of NYC",,,,,,,,,,,
"ICONIC MECHANICAL SERVICES CORP","Sub-Contractor","6470 Maurice Avenue",,"Maspeth","NEW YORK","11378","USA","Chris","Bezmalinovic","Owner","Owner",,"Chris","Bezmalinovic","Both",,,"Ryan","Helmbold","Both","Pres",,"Chris","Bezmalinovic","Owner","President",,,,,,,"Queens","11378","30","023","4054799","4023750132","05","30","515","QN30","40.733276","-73.901603"
"COMPLETE FLOORING INC","Sub-Contractor","219 Bay 26th Street",,"Brooklyn","NEW YORK","11214","USA","Diane","Pisano","Both",,,,,,,,,,,,,,,,,,,,,,,"Brooklyn","11214","47","016","3168868","3064440007","11","47","286","BK27","40.599431","-74.001235"
"CROSS FIRE & SECURITY CO., INC.","Sub-Contractor","1756 86th Street",,"Brooklyn","NEW YORK","11214","USA","Kevin","Maguire","Owner","President",,,,,,,,,,,,,,,,,,,,,,"Brooklyn","11214","47","006","3329084","3063680029","11","43","178","BK27","40.607637","-74.003295"
"ELDOR ELECTRIC, LLC","Contractor","18-15 129th Street",,"College Point","NEW YORK","11356","USA","Anthony","Biamonte","Officer","Director of Finance","Chief Financial Officer",,,,,,,,,,,,,,,,,,,,,"Queens","11356","27","063","4098997","4041350018","07","19","947","QN23","40.782985","-73.839519"
"BLACK SHEEP HOLDING LLC","Sub-Contractor","8 Sagamore Hill Drive",,"Port Washington","NEW YORK","11050","USA","Jesse","Vasquez","Both","president","Chief Executive Officer","Jesse","Vasquez","Officer","principal",,"Jesse","Vasquez","Owner","President",,"Jesse","Vasquez","Officer","President",,"Jesse","Vasquez","Both","principal","Chief Executive Officer","Out of NYC",,,,,,,,,,,
"ECO REMODELING","Sub-Contractor","342 Lakeview Ave",,"Drexel Hill","NEW YORK","19026","USA","john","mokas","Owner","president",,,,,,,,,,,,,,,,,,,,,,"Out of NYC",,,,,,,,,,,
"SINGH WELDING LLC","Sub-Contractor","2939 Edson Ave",,"Bronx","NEW YORK","10469","USA","Maniram","Singh","Owner","President",,,,,,,,,,,,,,,,,,,,,,"Bronx","10469","83","001","2062762","2047970023","12","12","46202","BX13","40.870693","-73.834324"
"UNIVERSAL SYSTEMS","Sub-Contractor","76-10 34th Avenue","Suite 1A","Jackson Heights","NEW YORK","11372","USA","marius","mera","Officer","maneger",,"Marius","Mera","Officer","Manager",,,,,,,,,,,,,,,,,"Queens","11372","34","026","4029029","4012630001","03","25","287","QN28","40.753160","-73.890406"
"PRIME MASTER CONSTRUCTION","Sub-Contractor","807 Nassau Street",,"North Brunswick","NEW YORK","8902","USA","Michelle","Peguero","Officer","Manager",,,,,,,,,,,,,,,,,,,,,,"Out of NYC",,,,,,,,,,,
"GREENVALE PLAZA INTERIORS CORP","Sub-Contractor","1 Plaza Road","2nd Floor","Greenvale","NEW YORK","11548","USA","Michael","Fillas","Officer","Principal",,"Michael","Fillas","Owner","Principal",,"Michael","Fillas","Owner","President",,"Peter","Eleftheriades","Officer","Controller",,,,,,,"Out of NYC",,,,,,,,,,,
"INDUSTRIAL DOOR & GLASS","Sub-Contractor","4460 White Plains Rd",,"Bronx","NEW YORK","10470","USA","James","Riordian","Owner","President",,,,,,,,,,,,,,,,,,,,,,"Bronx","10470","81","021","2093805","2050700026","12","11","434","BX62","40.899338","-73.853540"
"KEN-CAL MAINTENANCE CORP","Sub-Contractor","399 Knollwood Road",,"White Plains","NEW YORK","10603","USA","Kenneth","Hirschberg","Owner","President",,,,,,,,,,,,,,,,,,,,,,"Out of NYC",,,,,,,,,,,
"CERTIFIED G. I. INC","Contractor","623 West 51st Street",,"New York","NEW YORK","10019","USA","Dean","Landry","Officer","Vice President","Chief Operating Officer","Michael","Borrico","Both","President",,"Dean","Landry","Officer","Vice President",,"Michael","Borrico","Officer","President",,,,,,,"Manhattan","10019","67","005","1027139","1010990019","04","03","135","MN15","40.766771","-73.994798"
"FLS STEEL CONTRACTING, INC.","Sub-Contractor","91-32 75th Street",,"Woodhaven","NEW YORK","11421","USA","Dominick","LoFaso","Both","President","Chief Executive Officer","Dominick","LoFaso","Officer","President","Chief Executive Officer","Dominick","LoFaso","Officer","CEO","Chief Executive Officer","Dominick","LoFaso","Officer","President",,,,,,,"Queens","11421","38","045","4184586","4089420035","09","30","6","QN53","40.685639","-73.865187"
"REPUBLIC EXTERIOR SERVICES CORP","Sub-Contractor","26 Capt Faldermeyer DR",,"Stony Point","NEW YORK","10980","USA","fari","hama","Officer","president",,"Fari","Hama","Officer","President",,"Fari","Hama","Both","Vice President","Chief Executive Officer","Fari","Hama","Both","owner","Chief Executive Officer","Derek","Barran","Owner","President",,"Out of NYC",,,,,,,,,,,
"T.M. BIER & ASSOCIATES, INC.","Sub-Contractor","79 Hazel Street",,"Glen Cove","NEW YORK","11542","USA","Robert","Bier","Officer","Senior Vice President",,,,,,,,,,,,,,,,,,,,,,"Out of NYC",,,,,,,,,,,
"VITORIA CONSTRUCTION INC","Sub-Contractor","35-15 34th street Apt C23",,"Astoria","NEW YORK","11106","USA","Luis","Reis","Owner","president",,,,,,,,,,,,,,,,,,,,,,"Queens","11106","30","068","4009584","4006380019","01","26","57","QN70","40.756614","-73.926406"
"ECONOMY IRON WORK","Sub-Contractor","670 Southern Blvd",,"Bronx","NEW YORK","10454","USA","anderson","lopez","Owner","president",,,,,,,,,,,,,,,,,,,,,,"Bronx","10455","84","085","2094273","2026030173","02","08","83","BX33","40.813224","-73.900256"
"COMMUNITY PAVING CORP.","Sub-Contractor","271 West Lincoln Avenue",,"Mount Vernon","NEW YORK","10550","USA","Alfredo","Maiorano","Owner","president",,,,,,,,,,,,,,,,,,,,,,"Out of NYC",,,,,,,,,,,
"CASINO DEVELOPMENT GROUP, INC.","Sub-Contractor","54-01 43rd St.",,"Maspeth","NEW YORK","11378","USA","William","Charon","Owner","President",,,,,,,,,,,,,,,,,,,,,,"Queens","11378","37","026","4058814","4025220010","02","30","205","QN31","40.732146","-73.924553"
"SITEWORKS CONTRACTING CORP","Sub-Contractor","PO Box 3290",,"Mt Vernon","NEW YORK","10553","USA","Peter","Borducci","Officer","Exec. Vice President",,"Patricia","Rossi","Officer","Executive Assistant",,"Patricia","Rossi","Officer","President",,,,,,,,,,,,"Out of NYC",,,,,,,,,,,
"LONG ISLAND CONCRETE, INC.","Sub-Contractor","215-10 Hempstead Avenue",,"Queens Village","NEW YORK","11429","USA","Jennifer","Reyes","Both",,,"Jennifer","Reyes","Both","Officer",,,,,,,,,,,,,,,,,"Queens","11429","33","043","4238780","4110830079","13","27","540","QN34","40.715576","-73.743730"
"ON POINT WINDOW TREATMENT","Sub-Contractor","145 Main Avenue",,"Passaic","NEW YORK","7055","USA","Joseph","Goldberger","Both","owner","Chief Executive Officer","Yossy","Goldberger","Officer","Compliance",,,,,,,,,,,,,,,,,"Out of NYC",,,,,,,,,,,
"DFB CONSTRUCTION LLC","Sub-Contractor","918 EAST 211 STREET",,"BRONX","NEW YORK","10469","USA","DILOO","BROWN","Owner","PRESIDENT",,,,,,,,,,,,,,,,,,,,,,"Bronx","10469","83","031","2058663","2046810043","12","12","368","BX44","40.876051","-73.859385"
"LB AND J CONSTRUCTION INC","Sub-Contractor","1105 Jericho Turnpike",,"New Hyde Park","NEW YORK","11040","USA","JASPREET","SINGH","Owner","PRESIDENT",,"Jarpeet","Singh","Officer","President",,"JASPREET","SINGH","Both","PRESIDENT","Chief Executive Officer",,,,,,,,,,,"Out of NYC",,,,,,,,,,,
"SEALPROOF CORP","Sub-Contractor","342 North High Street",,"Mount Vernon","NEW YORK","10550","USA","Gennaro","Arpaia","Officer","Chief Operating",,"Gennaro","Arpaia","Officer","Chief Operating Officer","Chief Executive Officer","Gennaro","Arpaia","Officer","Chief Operating Officer",,,,,,,,,,,,"Out of NYC",,,,,,,,,,,
"NYC CRANE HOIST OPERATIONS","Sub-Contractor","2-4 Kieffer Lane",,"Kingston","NEW YORK","12401","USA","Thomas","Avinger","Officer","President",,"THOMAS","AURINGER","Both","Pres",,"Thomas","Auringer","Both","Pres",,"Thomas","Auringer","Officer","MEMBER",,"THOMAS","AURINGER","Both","President",,"Out of NYC",,,,,,,,,,,
"APEX DEVELOPMENT INC.","Sub-Contractor","358 BROADWAY",,"NEWARK","NEW JERSEY","7104","USA","Chinyelu","Oraegdunam","Officer","Vice President",,,,,,,,,,,,,,,,,,,,,,"Out of NYC",,,,,,,,,,,
"BLUE WATER PLUMBING INC","Sub-Contractor","75-14 Jamaica Ave",,"Woodhaven","NEW YORK","11421","USA","Hector","Asencio","Both","COO","Chief Operating Officer",,,,,,,,,,,,,,,,,,,,,"Queens","11421","38","024","4183032","4089040007","09","30","4","QN53","40.691449","-73.866286"
"VITRUVIUS CONTRACTING CORP.","Sub-Contractor","151 INDUSTRIAL LOOP",,"STATEN ISLAND","NEW YORK","10309","USA","NICK","BROZEK","Owner","PRESIDENT",,,,,,,,,,,,,,,,,,,,,,"Staten Island","10309","62","009","5151682","5072060284","03","51","226","SI11","40.549592","-74.230617"
"GREAT NORTHERN CARPET COMPANY","Sub-Contractor","100 Park Avenue","16 floor","New York","NEW YORK","10017","USA","Lawrence","Lipton","Owner","President",,,,,,,,,,,,,,,,,,,,,,"Manhattan","10017","73","007","1035319","1012750027","05","04","82","MN20","40.751000","-73.978504"
"BLACK HAWK INC.","Sub-Contractor","194A Miller Place",,"Hicksville","NEW YORK","11801","USA","Thomas","Guarino","Officer","President",,,,,,,,,,,,,,,,,,,,,,"Out of NYC",,,,,,,,,,,
"SP GROUP PLUMBING AND HEATING LLC","Sub-Contractor","20-35 Steinway Street",,"Astoria","NEW YORK","11105","USA","Scott","Lovetro","Officer","Partner",,,,,,,,,,,,,,,,,,,,,,"Queens","11105","36","055","4015601","4007990018","01","22","12301","QN72","40.775689","-73.902584"
"FORGE CONTRACTING CORP.","Sub-Contractor","437 Faile Street",,"Bronx","NEW YORK","10474","USA","Pablo","Lopez","Officer","Owner",,,,,,,,,,,,,,,,,,,,,,"Bronx","10474","84","077","2006896","2027720050","02","17","93","BX27","40.809372","-73.885148"
"ANDR SERVICES GROUP INC.","Sub-Contractor","36-27 31st STreet","Suite 5","LIC","NEW YORK","11106","USA","Marcelo","Andrade","Owner","President",,,,,,,,,,,,,,,,,,,,,,"Queens","11106","30","079","4007893","4006000016","01","26","51","QN68","40.756037","-73.930182"
"SUNKEEPER SOLAR LLC","Sub-Contractor","639 Marlborough Rd",,"Brooklyn","NEW YORK","11230","USA","Jamin","Bennett","Owner","owner",,"BRET","HEILIG","Officer","VP OPERATIONS",,"BRET","HEILIG","Officer","VP OF OPERATIONS",,"Jamin","Bennett","Officer","Vice President",,,,,,,"Brooklyn","11230","42","037","3121230","3052370078","14","45","460","BK42","40.633971","-73.963081"
"BRAVO STONE & TILE, LLC","Sub-Contractor","4101 1st Avenue",,"Brooklyn","NEW YORK","11232","USA","Ari","Weber","Both","President",,"Ari","Weber","Owner","owner",,"Kevin","Stewart","Both",,,"Ari","Weber","Both",,,,,,,,"Brooklyn","11232","51","056","3010631","3007160001","07","38","2","BK32","40.655380","-74.013976"
"STERILEMED, LLC","Sub-Contractor","77 Tarrytown Road","Suite 1-SE","White Plains","NEW YORK","10607","USA","Aly","Luiso","Owner",,,,,,,,,,,,,,,,,,,,,,,"Out of NYC",,,,,,,,,,,
"ZATOS PLUMBING","Sub-Contractor","277 Broadway","Suite 507","New York","NEW YORK","10007","USA","Marianne","Stratis","Officer","Associates",,"Marianne","Stratis","Officer","VP",,,,,,,,,,,,,,,,,"Manhattan","10007","66","007","1001635","1001490033","01","01","21","MN24","40.714349","-74.006172"
"NUNEZ INSULATION LLC","Sub-Contractor","36 Mill Plain Road","Suite 305","Danbury","CONNECTICUT","6811","USA","Eli","Nunez Vargas","Officer","Owner",,,,,,,,,,,,,,,,,,,,,,"Out of NYC",,,,,,,,,,,
"ATLAS CONSTRUCTION OF NEW YORK, INC.","Sub-Contractor","59-21 56 Street",,"Maspeth","NEW YORK","11378","USA","Fotios","Demopoulos","Officer","President",,,,,,,,,,,,,,,,,,,,,,"Queens","11378","37","041","4544438","4026310005","05","30","535","QN30","40.716934","-73.912236"
"J&R SURFACES, INC.","Sub-Contractor","129 E. 4th St.",,"Lakewood","NEW YORK","8701","USA","Joshua","Herz","Owner","Owner",,"Joshua","Herz","Officer","President",,"Joshua","Herz","Owner","President",,,,,,,,,,,,"Out of NYC",,,,,,,,,,,
"EMPIRE FIRE STOPPING LLC","Sub-Contractor","124 Remington Pl",,"New Rochelle","NEW YORK","10801","USA","John","Henry","Owner","president",,,,,,,,,,,,,,,,,,,,,,"Out of NYC",,,,,,,,,,,
"NEW YORK HOIST, LLC","Sub-Contractor","180 Meister Blvd",,"Freeport","NEW YORK","12401","USA","Dave","Auringer","Officer","COO","Chief Operating Officer","Thomas","Auringer","Both","Member",,"Thomas","Auringer","Owner","Managing Member",,"Dave","Auringer","Owner","Chief Operating Officer",,"Thomas","Auringer","Officer","Managing Member",,"Out of NYC",,,,,,,,,,,
"GLASS LINK L.L.C.","Sub-Contractor","1 Bridge Street","Suite 20","Irvington","NEW YORK","10533","USA","Ariel","Paula","Owner","owner",,,,,,,,,,,,,,,,,,,,,,"Out of NYC",,,,,,,,,,,
"MANHATTAN CONCRETE LLC","Sub-Contractor","511 Canal Street","6th Floor","New York","NEW YORK","10013","USA","Niall","Gillespie","Owner","COO",,,,,,,,,,,,,,,,,,,,,,"Manhattan","10013","66","068","1010287","1005940008","02","03","37","MN24","40.724425","-74.008915"
"EC CONTRACTING INC","Sub-Contractor","25 BANFI PLAZA WEST",,"FARMINGDALE","NEW YORK","11735","USA","EDWARD","CRIMMINS","Both","PRESIDENT","Chief Executive Officer","EDWARD","CRIMMINS","Owner","PRESIDENT",,,,,,,,,,,,,,,,,"Out of NYC",,,,,,,,,,,
"NATIONS ROOF OF NEW YORK, LLC","Sub-Contractor","255 Lake Avenue",,"Yonkers","NEW YORK","10701","USA","Ann","Bremen","Both",,,,,,,,,,,,,,,,,,,,,,,"Out of NYC",,,,,,,,,,,
"E HANSEN CORP","Sub-Contractor","300 North Ohioville Road",,"New Paltz","NEW YORK","12561","USA","Erik","Hansen","Officer","President",,,,,,,,,,,,,,,,,,,,,,"Out of NYC",,,,,,,,,,,
"WS SOUTH CONSTRUCTION INC","Sub-Contractor","18-12 Center Street",,"Ridgewood","NEW YORK","11385","USA","Carlos","Alarcon","Both","Vice President",,,,,,,,,,,,,,,,,,,,,,"Queens",,,,,,,,,,,
