"provider_id","provider_name","hq_address_1","hq_address_2","hq_borough","hq_city","hq_state","hq_zip","provider_ein","provider_website","latitude","longitude","community_board","council_district","census_tract","bin","bbl","nta"
"438","JBI INTERNATIONAL INC",,,,,,,,,,,,,,,,
"31","CAMBA INC","1720 Church Avenue",,,"Brooklyn","NY","11226",,,,,,,,,,
"1","MAKE THE ROAD NEW YORK","301 Grove Street",,"Brooklyn","Brooklyn","NY","11237",,,"40.698448","-73.915629","304","37","433","3075926","3033170041","Bushwick North"
"2","NEW YORK URBAN LEAGUE INC",,,,,,,,,,,,,,,,
"3","SCO FAMILY OF SERVICES",,,,,,,,,,,,,,,,
"4","JEWISH HOME LIFECARE, MANHATTAN",,,,,,,,,,,,,,,,
"5","HARTLEY HOUSE, INC.",,,,,,,,,,,,,,,,
"6","THE CHILD CENTER OF NY INC",,,,,,,,,,,,,,,,
"7","ONE STOP RICHMOND HILL COMMUNITY CENTER, INC",,,,,,,,,,,,,,,,
"8","HAMILTON MADISON HOUSE INC",,,,,,,,,,,,,,,,
"9","CENTER FOR ALTERNATIVE SENTENCING AND EMPLOYMENT SERVICES IN","151 Lawrence Street","3rd Floor","Brooklyn","Brooklyn","NY","11201","132668080","www.cases.org","40.691506","-73.986297","302","33","11","3000404","3001520006","DUMBO-Vinegar Hill-Downtown Brooklyn-Boerum Hill"
"10","SANCTUARY FOR FAMILIES INC","PO Box 1406, Wall Street Station",,"Manhattan","New York","NY","10268","13-3193119",,,,,,,,,
"11","PROJECT RENEWAL INC",,,,,,,,,,,,,,,,
"12","DORCHESTER SENIOR CITIZEN CENTER INC",,,,,,,,,,,,,,,,
"13","ASTOR SERVICES FOR CHILDREN & FAMILIES",,,,,,,,,,,,,,,,
"14","SOUTH BRONX OVERALL ECONOMIC DEVELOPMENT CORPORATION",,,,,,,,,,,,,,,,
"15","THE BRIDGE INC",,,,,,,,,,,,,,,,
"16","YMCA OF GREATER NEW YORK",,,,,,,,,,,,,,,,
"17","NEW YORK ASIAN WOMENS CENTER INC","32 BROADWAY","10th Floor","Manhattan","New York","NY","10004","13-3286250","https://www.iamwomankind.org/","40.706045","-74.013096","101","1","9","1078979","1000220017","Battery Park City-Lower Manhattan"
"18","EDITH & CARL MARKS JEWISH COMMUNITY HOUSE OF BENSONHURST INC",,,,,,,,,,,,,,,,
"19","CYPRESS HILLS FULTON ST SENIOR CITIZENS CTR INC",,,,,,,,,,,,,,,,
"20","BEREAN COMMUNITY & FAMILY LIFE CENTER INC",,,,,,,,,,,,,,,,
"21","NEW YORK LEGAL ASSISTANCE GROUP  INC","7 Hanover Square",,"Manhattan","New York","NY","10004",,,"40.70447","-74.009406","101","1","9","1000855","1000300019","Battery Park City-Lower Manhattan"
"22","THE 84TH PRECINCT COMMUNITY COUNCIL CORP",,,,,,,,,,,,,,,,
"23","Health Essential Association",,,,,,,,,,,,,,,,
"24","USA MALI CHARITABLE ASSOCIATION OF NEW YORK",,,,,,,,,,,,,,,,
"25","BELLA ABZUG LEADERSHIP INSTITUTE INC",,,,,,,,,,,,,,,,
"26","ASIAN AMERICAN COALITION FOR CHILDREN AND FAMILIES INC",,,,,,,,,,,,,,,,
"27","RIDGEWOOD PROPERTY OWNERS AND CIVIC ASSOCIATION INC",,,,,,,,,,,,,,,,
"28","SELFHELP COMMUNITY SERVICES, INC.","520 8th Avenue","5th Fl","Manhattan","New York","NY","10018","13-1624178","www.selfhelp.net","40.753612","-73.992417","105","3","109","1083624","1007860001","Midtown-Midtown South"
"29","WILDCAT SERVICE CORPORATION","633 3RD AVENUE","6th Floor",,"New York","NY","10017","132725423",,,,,,,,,
"30","THE LEGAL AID SOCIETY","199 Water Street",,"Manhattan","New York","NY","10038","13-5562265","n/a","40.70727","-74.004314","101","1","1502","1001162","1000747501","Battery Park City-Lower Manhattan"
"158","ILLUMINA, INC",,,,,,,,,,,,,,,,
"32","FEDERATION OF PROTESTANT WELFARE AGENCIES INC",,,,,,,,,,,,,,,,
"33","Chinese American Social Services Center Inc",,,,,,,,,,,,,,,,
"34","WEST SIDE CENTER FOR COMMUNITY LIFE INC",,,,,,,,,,,,,,,,
"35","HARLEM DOWLING-WEST SIDE CTR FOR CHILDREN & FAMILY SERVICES",,,,,,,,,,,,,,,,
"36","TEACHERS COLLEGE",,,,,,,,,,,,,,,,
"37","SAMUEL FIELD YM & YWHA INC",,,,,,,,,,,,,,,,
"38","HENRY STREET SETTLEMENT",,,,,,,,,,,,,,,,
"39","AGAPE COMMUNITY SERVICES CORPO RATION",,,,,,,,,,,,,,,,
"40","BRONXWORKS INC","60 East Tremont Avenue",,"Bronx","Bronx","NY","10453",,,"40.851063","-73.908004","205","14","23301","2007915","2028280020","Mount Hope"
"41","THE INSTITUTE FOR FAMILY HEALTH INC",,,,,,,,,,,,,,,,
"42","NON TRADITIONAL EMPLOYMENT FOR WOMEN",,,,,,,,,,,,,,,,
"43","ASTORIA QUEENS SHAREING & CAREING INC",,,,,,,,,,,,,,,,
"44","FOOD BANK FOR NEW YORK CITY","39 Broadway","10th Floor","Manhattan","New York","NY","10006","13-3179546","www.foodbanknyc.org","40.706251","-74.012952","101","1","13","1000803","1000200004","Battery Park City-Lower Manhattan"
"45","RIVERDALE SENIOR SERVICES INC",,,,,,,,,,,,,,,,
"46","SEPHARDIC COMMUNITY  YOUTH CENTER INC",,,,,,,,,,,,,,,,
"47","FRIENDS OF THE HIGH LINE INC",,,,,,,,,,,,,,,,
"48","GIVING ALTERNATIVE LEARNERS UPLIFTING OPPORTUNITIES INC",,,,,,,,,,,,,,,,
"49","LOWER EASTSIDE GIRLS CLUB OF NY",,,,,,,,,,,,,,,,
"50","SEEDS IN THE MIDDLE INC",,,,,,,,,,,,,,,,
"51","HARLEM JUNIOR TENNIS AND EDUCATION PROGRAM INC",,,,,,,,,,,,,,,,
"52","A BETTER JAMAICA INC",,,,,,,,,,,,,,,,
"53","GIRLS WHO CODE INC",,,,,,,,,,,,,,,,
"54","RIVERSTONE SENIOR LIFE SERVICES INC",,,,,,,,,,,,,,,,
"55","PROJECT LEAD, INC.",,,,,,,,,,,,,,,,
"56","Queens Jewish Community Council inc",,,,,,,,,,,,,,,,
"57","BETANCES HEALTH CENTER",,,,,,,,,,,,,,,,
"58","THE HORTICULTURAL SOCIETY OF NEW YORK",,,,,,,,,,,,,,,,
"59","JUNIOR ACHIEVEMENT OF NEW YORK INC",,,,,,,,,,,,,,,,
"60","THE CENTER FOR ANTI-VIOLENCE EDUCATION INC",,,,,,,,,,,,,,,,
"61","CARMEL RICHMOND NURSING HOME, INC.",,,,,,,,,,,,,,,,
"62","BERGEN BASIN COMMUNITY DEVELOPMENT CORPORATION",,,,,,,,,,,,,,,,
"63","ON YOUR MARK, INC",,,,,,,,,,,,,,,,
"64","NEW YORK CITY GAY AND LESBIAN ANTI-VIOLENCE PROJECT INC","116 Nassau Street","3rd Floor","Manhattan","New York","NY","10038","13-3149200","www.avp.org","40.710844","-74.006998","101","1","1501","1079094","1000920024","Battery Park City-Lower Manhattan"
"65","HANAC INC",,,,,,,,,,,,,,,,
"66","FIRST FAITH BAPTIST CHURCH",,,,,,,,,,,,,,,,
"67","KOREAN COMMUNITY SERVICES OF METROPOLITAN NEW YORK INC",,,,,,,,,,,,,,,,
"68","COALITION FOR HISPANIC FAMILY SERVICES",,,,,,,,,,,,,,,,
"69","JAPANESE AMERICAN SOCIAL SERVICES",,,,,,,,,,,,,,,,
"70","BROOKLYN COMMUNITY PRIDE CENTER INC",,,,,,,,,,,,,,,,
"71","CHARLES B. WANG COMMUNITY HEALTH CENTER, INC",,,,,,,,,,,,,,,,
"72","Brooklyn Legal Services Corporation A","260 Broadway",,"Brooklyn","Brooklyn","NY","11211",,,"40.708935","-73.959386","301","33","525","3059650","3021400021","North Side-South Side"
"73","COMMUNITY CENTER OF THE ROCKAWAY PENINSULA  INC",,,,,,,,,,,,,,,,
"74","SADIE NASH LEADERSHIP PROJECT INC",,,,,,,,,,,,,,,,
"75","TRANSITIONAL SERVICES FOR NEW YORK, INC","10-16 162 Street",,"Queens","Whitestone","NY","11357","23-7376074","www.tsi.org","40.792241","-73.799889","407","19","991","4104035","4045790001","Whitestone"
"76","THE FORTUNE SOCIETY INC","29-76 Northern Blvd",,"Queens","Long Island City","NY","11101","132645436","fortunesociety.org","40.750433","-73.935323","401","26","171","4003410","4002390049","Hunters Point-Sunnyside-West Maspeth"
"77","BE PROUD INC",,,,,,,,,,,,,,,,
"78","CITY GROWERS INC",,,,,,,,,,,,,,,,
"79","CENTER FOR COMPREHENSIVE HEALTH PRACTICE INC",,,,,,,,,,,,,,,,
"80","CHINESE AMERICAN PLANNING COUNCIL INC",,,,,,,,,,,,,,,,
"81","ARAB AMERICAN ASSOCIATION OF NY INC",,,,,,,,,,,,,,,,
"82","THE JEWISH ASSOCIATION FOR SERVICES FOR THE AGED","247 W 37 Street","9th Floor","Manhattan","New York","NY","10018","13-1624178","www.jasa.org","40.753475","-73.990594","105","3","109","1014454","1007870011","Midtown-Midtown South"
"83","New York United Jewish Association,Inc.",,,,,,,,,,,,,,,,
"84","JEWISH COMMUNITY COUNCIL OF PELHAM PARKWAY INC",,,,,,,,,,,,,,,,
"85","NEW YORK CITY PARENTS OF LESBIANS AND GAY MEN INC",,,,,,,,,,,,,,,,
"86","THE POINT COMMUNITY DEVELOP- MENT CORP",,,,,,,,,,,,,,,,
"87","Lenny's Lighthouse, Inc.",,,,,,,,,,,,,,,,
"88","MT. MORIAH A.M.E. CHURCH",,,,,,,,,,,,,,,,
"89","NATIONAL COMMITTEE FOR FURTHERANCE OF JEWISH ED",,,,,,,,,,,,,,,,
"90","The Rhapsody Players INC",,,,,,,,,,,,,,,,
"91","LENOX HILL NEIGHBORHOOD HOUSE INC.",,,,,,,,,,,,,,,,
"92","NEIGHBORHOOD COALITION FOR SHELTER INC",,,,,,,,,,,,,,,,
"93","GETTING OUT AND STAYING OUT INC","75 E 116th St",,"Manhattan","New York","NY","10029","061711370",,"40.799656","-73.944034","111","8","184","1074189","1016220020","East Harlem North"
"94","BORO PARK JEWISH COMMUNITY COUNCIL INC",,,,,,,,,,,,,,,,
"95","SERVICES NOW FOR ADULT PERSONS INC",,,,,,,,,,,,,,,,
"96","LEGAL INFORMATION FOR FAMILIES TODAY","32 Court Street",,"Brooklyn",,"NY","11201",,,"40.693014","-73.990758","302","33","9","3002248","3002550044","Brooklyn Heights-Cobble Hill"
"98","METROPOLITAN NEW YORK COORDINATING COUNCIL ON JEWISH POVERTY","77 Water Street 7th Floor",,"Manhattan","New York","NY","10005","13-2738818",,"40.704275","-74.008681","101","1","7","1000863","1000330001","Battery Park City-Lower Manhattan"
"99","GOOD SHEPHERD SERVICES","305 SEVENTH AVE 9TH FL",,"Manhattan","New York","NY","10001","135598710","goodshepherds.org","40.746817","-73.993655","105","3","95","1015060","1008037502","Midtown-Midtown South"
"100","HUDSON RIVER PARK TRUST",,,,,,,,,,,,,,,,
"101","THE YWCA OF BROOKLYN INC",,,,,,,,,,,,,,,,
"102","THE INTERFAITH CENTER OF NEW YORK, INC.",,,,,,,,,,,,,,,,
"103","WORKFORCE PROFESSIONALS TRAINING INSTITUTE",,,,,,,,,,,,,,,,
"104","STRYCKER'S BAY NEIGHBORHOOD COUNCIL INC",,,,,,,,,,,,,,,,
"105","NEW ALTERNATIVES FOR CHILDREN INC",,,,,,,,,,,,,,,,
"106","SUNSET PARK HEALTH COUNCIL INC",,,,,,,,,,,,,,,,
"107","THE OSBORNE ASSOCIATION, INC","809 Westchester Ave",,"Bronx","Bronx","NY","10455","135563028",,"40.819143","-73.902661","201","17","77","2004795","2026660041","Melrose South-Mott Haven North"
"108","CHRISTOPHER ROSE COMMUNITY EMPOWERMENT CAMPAIGN CRCEC",,,,,,,,,,,,,,,,
"109","THE LESLIE-LOHMAN MUSEUM OF GAY AND LESBIAN ART",,,,,,,,,,,,,,,,
"110","ST VINCENT'S SERVICES INC",,,,,,,,,,,,,,,,
"111","VIETNAM VETERANS OF AMERICA CHAPTER 32 QUEENS NEW YORK INC",,,,,,,,,,,,,,,,
"112","GENERATION CITIZEN INC",,,,,,,,,,,,,,,,
"113","FOREST HILLS CHAMBER OF COMMERCE OF QUEENS INC",,,,,,,,,,,,,,,,
"114","BLOOMINGDALE SCHOOL OF MUSIC",,,,,,,,,,,,,,,,
"115","SESAME FLYERS INTERNATIONAL INC",,,,,,,,,,,,,,,,
"116","CONTINENTAL CASUALTY COMPANY",,,,,,,,,,,,,,,,
"117","Kings County Tennis League",,,,,,,,,,,,,,,,
"118","GREATER NEW YORK COUNCILS BOY SCOUTS OF AMERICA",,,,,,,,,,,,,,,,
"119","GRANDMAS LOVE INC",,,,,,,,,,,,,,,,
"120","DOCTOR THEODORE A ATLAS FOUNDATION",,,,,,,,,,,,,,,,
"121","NEWTOWN HISTORICAL SOCIETY",,,,,,,,,,,,,,,,
"122","FLUSHING JEWISH COMMUNITY COUNCIL INC",,,,,,,,,,,,,,,,
"123","THE ROMAN CATHOLIC CHURCH OF ST. MEL",,,,,,,,,,,,,,,,
"124","INWOOD COMMUNITY SERVICES INC.",,,,,,,,,,,,,,,,
"125","INSTITUTE FOR COMMUNITY LIVING, INC.",,,,,,,,,,,,,,,,
"126","ROOSEVELT ISLAND DISABLED ASSO CIATION",,,,,,,,,,,,,,,,
"127","HIGHLAND PARK COMMUNITY DEVELOPMENT CORP.",,,,,,,,,,,,,,,,
"128","GILDA'S CLUB OF NYC, INC.,",,,,,,,,,,,,,,,,
"129","EAC INC EDUCATION AND ASSISTANCE CORP",,,,,,,,,,,,,,,,
"130","URBAN HEALTH PLAN INC",,,,,,,,,,,,,,,,
"131","BIOBUS INC",,,,,,,,,,,,,,,,
"132","LATINAS ON THE VERGE OF EXCELLENCE LOVE INC",,,,,,,,,,,,,,,,
"133","BOYS & GIRLS CLUB OF METRO QUEENS, INC","110-04 Atlantic Avenue",,"Queens","Richmond Hill","NY","11419",,,"40.691903","-73.835613","409","28","118","4197430","4093960001","Richmond Hill"
"134","CHILDREN'S ARTS & SCIENCE WORKSHOPS INC",,,,,,,,,,,,,,,,
"135","UNITED TASK FORCE INC",,,,,,,,,,,,,,,,
"136","RECREATIONAL INNERCITY SPORTS & EDUCATION INC.",,,,,,,,,,,,,,,,
"137","109th Precinct Community Council",,,,,,,,,,,,,,,,
"138","KIDS CREATIVE 404 INC",,,,,,,,,,,,,,,,
"139","AMUDIM COMMUNITY RESOURCES INC",,,,,,,,,,,,,,,,
"140","SOUTH ASIAN COUNCIL FOR SOCIAL SERVICES",,,,,,,,,,,,,,,,
"141","BENSONHURST COUNCIL OF JEW- ISH ORGANIZATION INC",,,,,,,,,,,,,,,,
"142","FIRST CHINESE PRESBYTERIAN COMM. AFFAIRS HOME ATTENDANT CORP","30 Broad St","6 Floor","Manhattan","New York","NY","10004","133011752",,"40.70618","-74.01125","101","1","9","1000819","1000240029","Battery Park City-Lower Manhattan"
"143","BINA STROKE & BRAIN INJURY ASSISTANCE INC",,,,,,,,,,,,,,,,
"144","Wesley Parrott Youth Programs Inc",,,,,,,,,,,,,,,,
"145","SUNNYSIDE COMMUNITY SERVICES INC",,,,,,,,,,,,,,,,
"146","NEW YORK CARES, INC.",,,,,,,,,,,,,,,,
"147","NYC VERRAZANO 10-13 ASSOCIATION INC",,,,,,,,,,,,,,,,
"148","HOME HEALTH MANAGEMENT SERVICES INC","424 East 147 Street","4 Floor","Bronx","Bronx","NY","10455","133020559",,"40.814344","-73.917762","201","8","43","2000506","2022910012","Mott Haven-Port Morris"
"149","LESBIAN AND GAY COMMUNITY SERVICE CENTER INC",,,,,,,,,,,,,,,,
"150","AFRICAN SERVICES COMMITTEE, INC",,,,,,,,,,,,,,,,
"151","Brooklyn Center for Quality Life",,,,,,,,,,,,,,,,
"152","FUND FOR THE CITY OF NEW YORK, INC.","121 Avenue of the Americas, 6th Floor",,"Manhattan","New York","NY","10013","132612524","www.fcny.org","40.723903","-74.00469","102","3","37","1083493","1004777501","SoHo-TriBeCa-Civic Center-Little Italy"
"153","Summer on the Hill",,,,,,,,,,,,,,,,
"154","FEDERATION OF ORGANIZATIONS FOR THE NEW YORK STATE MENTALLY",,,,,,,,,,,,,,,,
"155","ASSOCIATION OF COMMUNITY EMPLOYMENT PROGRAMS FOR THEHOMELESS",,,,,,,,,,,,,,,,
"156","THE YOUNG AIRMANS ASSOCIATION",,,,,,,,,,,,,,,,
"157","SAFE HORIZON INC","2 Lafayette Street",,,"New York","NY","10007",,,,,,,,,,
"159","ASSOCIATION TO BENEFIT CHILDREN",,,,,,,,,,,,,,,,
"160","ADAPTIVE DESIGN ASSOCIATION INC",,,,,,,,,,,,,,,,
"161","NYC AUTISM CHARTER SCHOOLS",,,,,,,,,,,,,,,,
"162","MONTEFIORE MEDICAL CENTER",,,,,,,,,,,,,,,,
"163","RIVERDALE NEIGHBORHOOD HOUSE INC",,,,,,,,,,,,,,,,
"164","Harlem Needle Arts, Inc.",,,,,,,,,,,,,,,,
"165","UNITED JEWISH ORGANIZATIONS OF WILLIAMSBURG, INC",,,,,,,,,,,,,,,,
"166","PESACH TIKVAH HOPE DEVELOPMENT INC",,,,,,,,,,,,,,,,
"167","SERVICE PROGRAM FOR OLDER PEOPLE INC",,,,,,,,,,,,,,,,
"168","AND-HOF ANIMALS SANCTUARY FOR FARM ANIMALS INC",,,,,,,,,,,,,,,,
"169","LOWER EAST SIDE CONSERVANCY",,,,,,,,,,,,,,,,
"170","WHERE TO TURN INC",,,,,,,,,,,,,,,,
"171","COMUNILIFE INC",,,,,,,,,,,,,,,,
"172","NOTRE DAME SCHOOL OF MANHATTAN",,,,,,,,,,,,,,,,
"173","CENTER FOR THE INTEGRATION AND ADVANCEMENT OF NEW AMERICANS",,,,,,,,,,,,,,,,
"174","OPPORTUNITIES FOR A BETTER TOMORROW INC",,,,,,,,,,,,,,,,
"175","NEW YORK COMMITTEE FOR OCCUPATIONAL SAFETY AND HEALTH INC",,,,,,,,,,,,,,,,
"176","Van Cortlandt Titans Youth Football Program Inc",,,,,,,,,,,,,,,,
"177","ZIMMER CLUB YOUTH CONSERVATION PROGRAM OF STATEN ISLAND INC",,,,,,,,,,,,,,,,
"178","CARE FOR SPECIAL NEEDS CHILDREN FOUNDATION INC",,,,,,,,,,,,,,,,
"179","COUNCIL OF JEWISH ORGANIZATIONS OF FLATBUSH INC",,,,,,,,,,,,,,,,
"180","HETRICK-MARTIN INSTITUTE INC",,,,,,,,,,,,,,,,
"181","ALLEY POND ENVIRONMENTAL CENTER INC",,,,,,,,,,,,,,,,
"182","DAVIDSON COMMUNITY CENTER INC.",,,,,,,,,,,,,,,,
"183","ACE AMERICAN INSURANCE CO.",,,,,,,,,,,,,,,,
"184","KINGSBRIDGE HEIGHTS COMMUNITY CENTER INC",,,,,,,,,,,,,,,,
"185","AMERICAN-ITALIAN CANCER FOUNDATION",,,,,,,,,,,,,,,,
"186","ST JOHNS BREAD & LIFE PROGRAM INC",,,,,,,,,,,,,,,,
"187","CONCOURSE VILLAGE INC SPECIAL ADULTS",,,,,,,,,,,,,,,,
"188","POWERMYLEARNING INC",,,,,,,,,,,,,,,,
"189","CONNECT, INC.",,,,,,,,,,,,,,,,
"190","GODDARD RIVERSIDE COMMUNITY CENTER","593 Columbus Avenue",,"Manhattan","New York","NY","10024",,,"40.788212","-73.970904","107","6","173","1079511","1012020001","Upper West Side"
"191","WORKING IN SUPPORT OF EDUCATION",,,,,,,,,,,,,,,,
"192","NYSARC INC NEW YORK CITY CHAPTER",,,,,,,,,,,,,,,,
"193","CHHAYA COMMUNITY DEVELOPMENT CORP",,,,,,,,,,,,,,,,
"194","BONNIE BOYS CLUB INC.",,,,,,,,,,,,,,,,
"195","EAST FLATBUSH VILLAGE INC",,,,,,,,,,,,,,,,
"196","STATEN ISLAND YOUTH SOCCER LEAGUE INC",,,,,,,,,,,,,,,,
"197","RISEBORO COMMUNITY PARTNERSHIP INC","565 Bushwick Avenue",,"Brooklyn","Brooklyn","NY","11206","112453853","www.riseboro.org","40.699023","-73.935359","304","34","391","3071908","3031510012","Bushwick South"
"198","MANHATTAN LEGAL SERVICES",,,,,,,,,,,,,,,,
"199","IlluminArt Productions",,,,,,,,,,,,,,,,
"200","WOMEN FOR AFGHAN WOMEN INC",,,,,,,,,,,,,,,,
"201","THE CHILDREN'S VILLAGE","One Echo Hills",,,"Dobbs Ferry","NY","10522","131739945",,,,,,,,,
"202","RIVERDALE COMMUNITY CENTER, INC.",,,,,,,,,,,,,,,,
"203","HEARTSHARE HUMAN SERVICES OF NEW YORK",,,,,,,,,,,,,,,,
"204","THE YALDEINU SCHOOL",,,,,,,,,,,,,,,,
"205","JEWISH INSTITUTE OF QUEENS",,,,,,,,,,,,,,,,
"206","ROCKAWAY HOME ATTENDANT SERVICES INC",,,,,,,,,,,,,,,,
"207","URBAN JUSTICE CENTER","40 Rector Street","9th floor","Manhattan","New York","NY","10006","13-3442022","www.urbanjustice.org","40.708356","-74.014814","101","1","13","1088750","1000557501","Battery Park City-Lower Manhattan"
"208","CARIBBEAN WOMENS HEALTH ASSOCIATION INC",,,,,,,,,,,,,,,,
"209","COMMUNITY HEALTH ACTION OF STATEN ISLAND, INC.",,,,,,,,,,,,,,,,
"210","WENDY HILLIARD FOUNDATION",,,,,,,,,,,,,,,,
"211","MID- BRONX SENIOR CITIZENS COUNCIL INC",,,,,,,,,,,,,,,,
"212","RABBI ISRAEL MEYER HACOHEN RABBINICAL SEMINARY OF AMERICA",,,,,,,,,,,,,,,,
"213","HOMECREST COMMUNITY SERVICES INC",,,,,,,,,,,,,,,,
"214","HARTFORD INSURANCE",,,,,,,,,,,,,,,,
"215","Dancing Dreams",,,,,,,,,,,,,,,,
"216","NEW YORK SCORES",,,,,,,,,,,,,,,,
"217","CHURCH OF THE HOLY APOSTLES",,,,,,,,,,,,,,,,
"218","CATHOLIC CHARITIES NEIGHBORHOOD SERVICES INC",,,,,,,,,,,,,,,,
"219","Two Bridges Neighborhood Council, Inc.",,,,,,,,,,,,,,,,
"220","THE NEIGHBORHOOD SELF-HELP BY OLDER PERSONS PROJECT INC",,,,,,,,,,,,,,,,
"221","URBAN RESOURCE INSTITUTE","75 Broad Street","Suite 505","Manhattan","New York","NY","10004","11-2561648","www.urinyc.org","40.704541","-74.011552","101","1","9","1000849","1000290070","Battery Park City-Lower Manhattan"
"222","SBH COMMUNITY SERVICE NETWORK INC",,,,,,,,,,,,,,,,
"223","BEDFORD STUYVESANT NEW BEGINNINGS CHARTER SCHOOL",,,,,,,,,,,,,,,,
"224","CORO NEW YORK LEADERSHIP CEN- TER",,,,,,,,,,,,,,,,
"225","NAZARETH HOUSING, INC",,,,,,,,,,,,,,,,
"226","THE CRENULATED COMPANY LTD",,,,,,,,,,,,,,,,
"227","SHOREFRONT YM-YWHA OF BRIGHTON MANHATTAN BEACH INC",,,,,,,,,,,,,,,,
"228","OHEL CHILDREN'S HOME AND FAMILY SERVICES INC.",,,,,,,,,,,,,,,,
"229","ATLANTIC THEATER CO",,,,,,,,,,,,,,,,
"230","East New York Restoration Local Development Corp",,,,,,,,,,,,,,,,
"231","ESIS INC",,,,,,,,,,,,,,,,
"232","GRAHAM-WINDHAM",,,,,,,,,,,,,,,,
"233","THE COALITION FOR BEHAVIORAL HEALTH INC",,,,,,,,,,,,,,,,
"234","FRESH YOUTH INITIATIVES INC",,,,,,,,,,,,,,,,
"235","SOUTHSIDE UNITED HOUSING DEVELOPMENT FUND CORPORATION",,,,,,,,,,,,,,,,
"236","CROWN HEIGHTS YOUTH COLLECTIVE, INC.",,,,,,,,,,,,,,,,
"237","TURNING POINT BROOKLYN INC",,,,,,,,,,,,,,,,
"239","THE GREATER RIDGEWOOD RESTORATION CORPORATION",,,,,,,,,,,,,,,,
"240","CAMELOT OF STATEN ISLAND, INC",,,,,,,,,,,,,,,,
"241","EMERALD ISLE IMMIGRATION CENTER INC","59-26 Woodside Avenue",,"Queens","Woodside","NY","11377",,,"40.745293","-73.905216","402","26","249","4031221","4013310054","Woodside"
"242","BIG BROTHERS BIG SISTERS OF NEW YORK CITY INC",,,,,,,,,,,,,,,,
"243","LITTLE SISTERS OF THE ASSUMPTION FAM HEALTH SER",,,,,,,,,,,,,,,,
"244","NEW YORK CITY ALLIANCE AGAINST SEXUAL ASSAULT",,,,,,,,,,,,,,,,
"245","SERVICES AND ADVOCACY FOR GAY LESBIAN BISEXUAL AND TRANSGEND",,,,,,,,,,,,,,,,
"246","TURNING POINT FOR WOMEN AND FAMILIES",,,,,,,,,,,,,,,,
"247","MASA-MEXED INC",,,,,,,,,,,,,,,,
"248","RAMAPO FOR CHILDREN INC",,,,,,,,,,,,,,,,
"249","VERA INSTITUTE OF JUSTICE, INC",,,,,,,,,,,,,,,,
"250","RESOURCES FOR CHILDREN SPECIAL NEEDS INC",,,,,,,,,,,,,,,,
"251","HEALTHCARE INDUSTRY GRANT CORP",,,,,,,,,,,,,,,,
"252","ASSOCIATION OF THE BAR OF THE CITY OF NEW YORK FUND INC",,,,,,,,,,,,,,,,
"253","RENAISSANCE YOUTH CENTER",,,,,,,,,,,,,,,,
"254","CHURCHES UNITED FOR FAIR HOUSING INC",,,,,,,,,,,,,,,,
"255","SEPTEMBER 11 FAMILY GROUP",,,,,,,,,,,,,,,,
"256","FEDERATION OF ITALIAN-AMERICAN ORGANIZATIONS OF BROOKLYN LTD",,,,,,,,,,,,,,,,
"257","GIRLS WRITE NOW INC",,,,,,,,,,,,,,,,
"258","GUYANESE GIRLS ROCK FOUNDATION INC",,,,,,,,,,,,,,,,
"259","NEIGHBORS ALLIED FOR GOOD GROWTH INC",,,,,,,,,,,,,,,,
"260","NEW YORK POPS INC",,,,,,,,,,,,,,,,
"261","PUBLIC UTILITY LAW PROJECT OF NEW YORK INC",,,,,,,,,,,,,,,,
"262","MAKE MUSIC NEW YORK INC",,,,,,,,,,,,,,,,
"263","DANCES FOR A VARIABLE POPULATION",,,,,,,,,,,,,,,,
"264","BROADWAY MALL ASSOCIATION INC",,,,,,,,,,,,,,,,
"265","NORTHERN MANHATTAN IMPROVEMENT CORPORATION",,,,,,,,,,,,,,,,
"266","ACMH, INC",,,,,,,,,,,,,,,,
"267","CATHOLIC HEALTH CARE SYSTEM",,,,,,,,,,,,,,,,
"268","RIVERDALE MENTAL HEALTH ASSOCIATION INC",,,,,,,,,,,,,,,,
"269","ST. JOHN'S UNIVERSITY",,,,,,,,,,,,,,,,
"270","BioFire Diagnostics, LLC",,,,,,,,,,,,,,,,
"271","ELITE LEARNERS INC",,,,,,,,,,,,,,,,
"272","CHESS-IN-THE-SCHOOLS INC",,,,,,,,,,,,,,,,
"273","YOUNG DANCERS IN REPERTORY INC",,,,,,,,,,,,,,,,
"274","ASIAN AMERICAN FEDERATION INC",,,,,,,,,,,,,,,,
"275","CEC STUYVESANT COVE INC",,,,,,,,,,,,,,,,
"276","LIBERIAN CULTURAL ASSOCIATION INC",,,,,,,,,,,,,,,,
"277","HELEN KELLER SERVICES",,,,,,,,,,,,,,,,
"278","C C M S",,,,,,,,,,,,,,,,
"279","Hub-Third Ave Merchants District Management Association Inc",,,,,,,,,,,,,,,,
"280","EL PUENTE DE WILLIAMSBURG INC",,,,,,,,,,,,,,,,
"281","PETER CARDELLA SENIOR CITIZEN CENTER INC.",,,,,,,,,,,,,,,,
"282","YOUTH SERVICE OPPORTUNITIES PROJECT INC",,,,,,,,,,,,,,,,
"283","NEW YORK CITY STREET TREE CONSORTIUM INC",,,,,,,,,,,,,,,,
"284","ST EPHREM YOUTH PROGRAM INC",,,,,,,,,,,,,,,,
"285","SHALOM TASK FORCE",,,,,,,,,,,,,,,,
"286","THE SAMARITANS OF NEW YORK INC",,,,,,,,,,,,,,,,
"287","BAY RIDGE CENTER, INC",,,,,,,,,,,,,,,,
"288","Richmond County Board of Advocates for Mental Health",,,,,,,,,,,,,,,,
"289","YOUNG ADULT INSTITUTE INC",,,,,,,,,,,,,,,,
"290","JEWISH COMMUNITY COUNCIL OF THE ROCKAWAY PENINSULA INC",,,,,,,,,,,,,,,,
"291","POLONIANS ORGANIZED TO MINISTER TO OUR COMMUNITY, INC",,,,,,,,,,,,,,,,
"292","WOODSIDE ON THE MOVE, INC.",,,,,,,,,,,,,,,,
"293","CHRIST DISCIPLES INTERNATIONAL MINISTRIES",,,,,,,,,,,,,,,,
"294","BROOKLYN DEFENDER SERVICES","177 Livingston Street",,"Brooklyn","Brooklyn","NY","11201",,,"40.690019","-73.986701","302","33","37","3391746","3001567501","DUMBO-Vinegar Hill-Downtown Brooklyn-Boerum Hill"
"295","FORDHAM UNIVERSITY",,,,,,,,,,,,,,,,
"296","BRONX JEWISH COMMUNITY COUNCIL INC",,,,,,,,,,,,,,,,
"297","Destination Tomorrow Inc",,,,,,,,,,,,,,,,
"298","SHARE SELF HELP FOR WOMEN WITH BREAST OR OVARIAN CANCER INC",,,,,,,,,,,,,,,,
"299","ENTERTAINERS FOR EDUCATION ALLIANCE INC",,,,,,,,,,,,,,,,
"300","DWARF-GIRAFFE ATHLETIC LEAGUE OF WHITESTONE INC",,,,,,,,,,,,,,,,
"301","ITALIAN SENIOR CITIZENS INC",,,,,,,,,,,,,,,,
"302","JEWISH COMMUNITY CENTER OF STATEN ISLAND INC",,,,,,,,,,,,,,,,
"303","Community Software Solutions, Inc.",,,,,,,,,,,,,,,,
"304","AMITY LITTLE LEAGUE, INC.",,,,,,,,,,,,,,,,
"305","Heights-Hill Mental Health Svc SBPC Community Advisory Board",,,,,,,,,,,,,,,,
"306","VOCAL EASE INC",,,,,,,,,,,,,,,,
"307","THE NEW YORK IMMIGRATION COALITION INC",,,,,,,,,,,,,,,,
"308","QSAC INC",,,,,,,,,,,,,,,,
"309","VISITING NEIGHBORS, INC.",,,,,,,,,,,,,,,,
"310","SHIELD OF DAVID INC",,,,,,,,,,,,,,,,
"311","THE EDUCATIONAL ALLIANCE INC",,,,,,,,,,,,,,,,
"312","RENAISSANCE TECHNICAL INSTITUTE INC","173 East 112th Street",,"Manhattan","New York","NY","10029",,,"40.795653","-73.942449","111","8","182","1089897","1016400021","East Harlem North"
"313","ONOS FOOTPRINTS INC",,,,,,,,,,,,,,,,
"314","VISION URBANA, INC.",,,,,,,,,,,,,,,,
"315","LANTERN COMMUNITY SERVICES INC",,,,,,,,,,,,,,,,
"316","ROMAN CATHOLIC CHURCH OF ST. MARGARET",,,,,,,,,,,,,,,,
"317","ALLIED VETERANS MEMORIAL COMMITTEE OF RIDGEWOOD AND GLENDALE",,,,,,,,,,,,,,,,
"318","NEW YORK CITY H2O INC",,,,,,,,,,,,,,,,
"319","THE BOYS CLUB OF NEW YORK INC",,,,,,,,,,,,,,,,
"320","CATHOLIC MIGRATION SERVICES INC",,,,,,,,,,,,,,,,
"321","MARBLE HILL NURSERY SCHOOL",,,,,,,,,,,,,,,,
"322","CHEKPEDS INC",,,,,,,,,,,,,,,,
"323","OUR LADY OF THE MIRACULOUS MEDAL ROMAN CATHOLIC CHURCH",,,,,,,,,,,,,,,,
"324","NEW YORK EDGE INC",,,,,,,,,,,,,,,,
"325","REACH OUT AND READ OF GREATER NEW YORK INC",,,,,,,,,,,,,,,,
"326","HARLEM EDUCATIONAL ACTIVITIES FUND INC",,,,,,,,,,,,,,,,
"327","BK ROT Inc",,,,,,,,,,,,,,,,
"328","BANGLADESHI AMERICAN COMMUNITY DEVELOPMENT & YOUTH SERVICES",,,,,,,,,,,,,,,,
"329","THE GREATER RIDGEWOOD YOUTH COUNCIL INC",,,,,,,,,,,,,,,,
"330","BOBBI AND THE STRAYS, INC.",,,,,,,,,,,,,,,,
"331","JACOB A RIIS NEIGHBORHOOD SETTLEMENT",,,,,,,,,,,,,,,,
"332","The Union Grove Baptist Church",,,,,,,,,,,,,,,,
"333","KOREAN FAMILY COUNSELING AND RESEARCH CENTER INC",,,,,,,,,,,,,,,,
"334","UNITED CHINESE ASSOCIATION OF BROOKLYN INC",,,,,,,,,,,,,,,,
"335","EAST SIDE HOUSE INC",,,,,,,,,,,,,,,,
"336","PER SCHOLAS INCORPORATED",,,,,,,,,,,,,,,,
"337","STREB INC",,,,,,,,,,,,,,,,
"338","STATEN ISLAND ECONOMIC DEVELOPMENT CORPORATION",,,,,,,,,,,,,,,,
"339","BOOM HEALTH",,,,,,,,,,,,,,,,
"340","WOODYCREST CENTER FOR HUMAN DEVELOPMENT, INC.",,,,,,,,,,,,,,,,
"341","THE ARMORY FOUNDATION",,,,,,,,,,,,,,,,
"342","BAILEY HOUSE, INC",,,,,,,,,,,,,,,,
"343","HOME ATTENDANT VENDOR AGENCY INC",,,,,,,,,,,,,,,,
"344","REACHING-OUT COMMUNITY SERVICE INC",,,,,,,,,,,,,,,,
"345","PART OF THE SOLUTION",,,,,,,,,,,,,,,,
"346","HARVEST HOME FARMERS MARKET INC",,,,,,,,,,,,,,,,
"347","YOUNG MENS AND YOUNG WOMENS HEBREW ASSOCIATION OF THE BRONX",,,,,,,,,,,,,,,,
"348","BCT BROOKLYN CHILDRENS THEATRE INC",,,,,,,,,,,,,,,,
"349","HISPANIC FEDERATION INC",,,,,,,,,,,,,,,,
"350","Guyana Cultural Association of New York Inc.",,,,,,,,,,,,,,,,
"351","WILD BIRD FUND INC",,,,,,,,,,,,,,,,
"352","NEW ECONOMY PROJECT INC",,,,,,,,,,,,,,,,
"353","JAMAICA SERVICE PROGRAM FOR OLDER ADULTS INC",,,,,,,,,,,,,,,,
"354","Long Island Gay and Lesbian Youth, Inc.",,,,,,,,,,,,,,,,
"355","MOSHOLU MONTEFIORE COMMUNITY CENTER INC",,,,,,,,,,,,,,,,
"356","JEWISH CHILD CARE ASSOCIATION OF NEW YORK",,,,,,,,,,,,,,,,
"357","BROOKLYN CHINESE-AMERICAN ASSOCIATION INC",,,,,,,,,,,,,,,,
"358","THE CAMPAIGN AGAINST HUNGER INC",,,,,,,,,,,,,,,,
"359","PROJECT HOPE-THE NEW DIRECTION INC",,,,,,,,,,,,,,,,
"360","SOUTHSIDE COMMUNITY MISSION INC",,,,,,,,,,,,,,,,
"361","NIA COMMUNITY SERVICES NETWORK INC",,,,,,,,,,,,,,,,
"362","DREAM DARE TO REVITALIZE EDUCATION THRU ARTS & MEDIATION",,,,,,,,,,,,,,,,
"363","MIRABAL SISTERS CULTURAL AND COMMUNITY CENTER INC",,,,,,,,,,,,,,,,
"364","REACH FOR THE STARS LEARNING CENTER",,,,,,,,,,,,,,,,
"365","UNIVERSITY SETTLEMENT SOCIETY OF NEW YORK",,,,,,,,,,,,,,,,
"366","GREATER WOODHAVEN DEVELOP CORPORATION",,,,,,,,,,,,,,,,
"367","WOMENS HOUSING & ECONOMIC DEVELOPMENT CORP",,,,,,,,,,,,,,,,
"368","EAST RIVER DEVELOPMENT ALLIANCE, INC.",,,"Queens",,"NY",,,,,,,,,,,
"369","LEARNING THROUGH AN EXPANDED ARTS PROGRAM INC",,,,,,,,,,,,,,,,
"370","NEW YORK HARBOR FOUNDATION INC",,,,,,,,,,,,,,,,
"371","NORTHSIDE CENTER FOR CHILD DEVELOPMENT INC",,,,,,,,,,,,,,,,
"372","ST. VINCENT DE PAUL RESIDENCE",,,,,,,,,,,,,,,,
"373","COUNCIL OF BELMONT ORGANIZATIONS INC",,,,,,,,,,,,,,,,
"374","Chinese-American Sunshine House, Inc.",,,,,,,,,,,,,,,,
"375","UNION OF ORTHODOX JEWISH CONGREGATION OF AMERICA",,,,,,,,,,,,,,,,
"376","CENTER FOR THE WOMEN OF NEW YORK",,,,,,,,,,,,,,,,
"377","ST PAULS EVANGELICAL LUTHERAN CHURCH",,,,,,,,,,,,,,,,
"378","NORTHERN MANHATTAN COALITION FOR IMMIGRANTS RIGHTS",,,,,,,,,,,,,,,,
"379","BATTALION PENTECOSTAL ASSEMBLY",,,,,,,,,,,,,,,,
"380","ARAB-AMERICAN FAMILY SUPPORT CENTER INC",,,,,,,,,,,,,,,,
"381","MY TIME INC",,,,,,,,,,,,,,,,
"382","ANIMAL CARE AND CONTROL OF NEW YORK CITY, INC",,,,,,,,,,,,,,,,
"383","Ditmas park youth group",,,,,,,,,,,,,,,,
"384","AIDS SERVICE CENTER OF LOWER MANHATTAN INC",,,,,,,,,,,,,,,,
"385","Amida Care Inc.",,,,,,,,,,,,,,,,
"386","GLOBAL KIDS INC",,,,,,,,,,,,,,,,
"387","CHABAD OF QUEENS COLLEGE INC",,,,,,,,,,,,,,,,
"388","THE HUDSON GUILD",,,,,,,,,,,,,,,,
"389","ZMI Foundation, Inc.",,,,,,,,,,,,,,,,
"390","BNAI BRITH HILLEL FOUNDATION INC AT QUEENS COLLEGE",,,,,,,,,,,,,,,,
"391","FAMILY LIFE ACADEMY CHARTER SCHOOL",,,,,,,,,,,,,,,,
"392","NEW IMMIGRANT COMMUNITY EMPOWERMENT INC",,,,,,,,,,,,,,,,
"393","APNA BROOKLYN COMMUNITY CENTER INC",,,,,,,,,,,,,,,,
"394","United Military Veterans of Kings County, Inc.",,,,,,,,,,,,,,,,
"395","VOLUNTEERS OF AMERICA GREATER NEW YORK INC",,,,,,,,,,,,,,,,
"396","AMERICAN ITALIAN COALITION OF ORGANIZATIONS INC AMICO",,,,,,,,,,,,,,,,
"397","THE MENTAL HEALTH ASSOCIATION OF NEW YORK CITY INC",,,,,,,,,,,,,,,,
"398","ROCHDALE VILLAGE SOCIAL SERVICES INC",,,,,,,,,,,,,,,,
"399","BROADWAY HOUSING COMMUNITIES INC",,,,,,,,,,,,,,,,
"400","161ST STREET MERCHANTS ASSOCIATION INC",,,,,,,,,,,,,,,,
"401","THE SALVATION ARMY",,,,,,,,,,,,,,,,
"402","Emergency Children's Help Organization, Inc.",,,,,,,,,,,,,,,,
"403","LA CASA DE LA HERENCIA CULTURAL PUERTORRIQUENA INC",,,,,,,,,,,,,,,,
"404","BROOKLYN BALLERS SPORTS YOUTH & EDUCATIONAL CORP",,,,,,,,,,,,,,,,
"405","UNITED COMMUNITY CENTERS INC","613 NEW LOTS AVE",,"Brooklyn","Brooklyn","NY","11207","111950787","ucceny.com","40.664728","-73.886561","305","42","1124","3090717","3040890025","East New York"
"406","THE KOREAN AMERICAN FAMILY SERVICE CENTER INC",,,,,,,,,,,,,,,,
"407","PROJECT HOPE CHARITIES INC",,,,,,,,,,,,,,,,
"408","YOU GOTTA BELIEVE! The Older Child Adoption & Permanency Mov",,,,,,,,,,,,,,,,
"409","JEWISH COMMUNITY COUNCIL OF GREATER CONEY ISLAND INC","3001 WEST 37TH STREET",,"Brooklyn","Brooklyn","NY","11224","112665181","www.jccgci.org","40.573177","-74.002509","313","47","340","3189617","3070650001","Seagate-Coney Island"
"410","MOBILIZATION FOR JUSTICE INC",,,,,,,,,,,,,,,,
"411","JEWISH CHILDRENS MUSEUM",,,,,,,,,,,,,,,,
"412","MINKWON CENTER FOR COMMUNITY ACTION, INC",,,,,,,,,,,,,,,,
"413","THE YOUNG WOMENS CHRISTIAN ASSOCIATION OF QUEENS",,,,,,,,,,,,,,,,
"414","ROCKING THE BOAT INC",,,,,,,,,,,,,,,,
"415","ARIVA INC",,,,,,,,,,,,,,,,
"416","DRAG QUEEN STORY HOUR NYC LTD",,,,,,,,,,,,,,,,
"417","JEWISH BOARD OF FAMILY AND CHILDREN'S SERVICES INC",,,,,,,,,,,,,,,,
"418","BROOKLYN BUREAU OF COMMUNITY SERVICE","151 LAWRENCE STREET","4th Floor","Brooklyn","Brooklyn","NY","11201","111630780",,"40.691506","-73.986297","302","33","11","3000404","3001520006","DUMBO-Vinegar Hill-Downtown Brooklyn-Boerum Hill"
"419","PHIPPS NEIGHBORHOODS INC","902 BROADWAY 13TH FL",,,"New York","NY","10010","132707665","WWW.PHIPPSNY.ORG",,,,,,,,
"420","DRAMA CLUB INC",,,,,,,,,,,,,,,,
"421","MOTHERS ALIGNED SAVING KIDS, INC. / MASK",,,,,,,,,,,,,,,,
"422","FAILTE CARE CORPORATION NEW YORK IRISH CENTER",,,,,,,,,,,,,,,,
"423","FRIENDS OF HUDSON RIVER PARK INC",,,,,,,,,,,,,,,,
"424","CENTRAL AMERICAN LEGAL ASSISTANCE","240 Hooper Street",,"Brooklyn","Brooklyn","NY","11211",,,"40.705758","-73.955828","301","33","529","3379706","3022070002","Williamsburg"
"425","WASHINGTON HEIGHTS INWOOD PRESERVATION AND RESTORATION CORP",,,,,,,,,,,,,,,,
"426","JUDAH INTERNATIONAL CHRISTIAN CENTER INC",,,,,,,,,,,,,,,,
"427","MORE GARDENS! FUND",,,,,,,,,,,,,,,,
"428","FAMILY LIFE DEVELOPMENT CENTER , INC.",,,,,,,,,,,,,,,,
"429","TADA ! THEATRE AND DANCE ALLIANCE, INC.",,,,,,,,,,,,,,,,
"430","QKINGDOM MINISTRIES INC",,,,,,,,,,,,,,,,
"431","UNIVERSITY OF NOTRE DAME ALUM- NI CLUB OF STATEN ISLAND",,,,,,,,,,,,,,,,
"432","MEKIMI",,,,,,,,,,,,,,,,
"433","FAMILY PRESERVATION SERVICES OF NEW YORK CORPORATION",,,,,,,,,,,,,,,,
"434","INTERFAITH MEDICAL CENTER",,,,,,,,,,,,,,,,
"435","DOROT, INC.",,,,,,,,,,,,,,,,
"436","PENCIL INC",,,,,,,,,,,,,,,,
"437","STONEWALL COMMUNITY DEVELOPMENT CORPORATION",,,,,,,,,,,,,,,,
"439","MERCY CENTER INC",,,,,,,,,,,,,,,,
"440","IMMIGRANT JUSTICE CORPS INC",,,,,,,,,,,,,,,,
"441","HOUSING CONSERVATION COORDINATORS INC",,,,,,,,,,,,,,,,
"442","LSNYBRONX  CORPORATION LEGAL SERVICES NYCBRONX",,,,,,,,,,,,,,,,
"443","YOUNG MENS AND WOMENS HEBREW ASSO WASHINGTON HEIGHTS INWOOD",,,,,,,,,,,,,,,,
"444","GRAND STREET SETTLEMENT INC",,,,,,,,,,,,,,,,
"445","TEMPLE UNIVERSITY-OF THE COMMONWEALTH SYSTEM OF HIGHER EDUCA",,,,,,,,,,,,,,,,
"446","LEGAL SERVICES NYC","40 Worth Street","Suite 606","Brooklyn","New York","NY","10013","13-2600199",,,,,,,,,
"447","SCHOOL SETTLEMENT ASSOC INC",,,,,,,,,,,,,,,,
"448","THE DOOR-A CENTER OF ALTERNATIVES INC","121 Avenue of the Americas",,"Manhattan","New York","NY","10013",,,"40.723903","-74.00469","102","3","37","1083493","1004777501","SoHo-TriBeCa-Civic Center-Little Italy"
"449","JEWISH COMMUNITY CENTER IN MANHATTAN",,,,,,,,,,,,,,,,
"450","Mid Island Little League Inc",,,,,,,,,,,,,,,,
"451","COALITION OF INSTITUTIONALIZED AGED AND DISABLED",,,,,,,,,,,,,,,,
"452","SENIORS HELPING SENIORS INC",,,,,,,,,,,,,,,,
"453","BROOKLYN NEIGHBORHOOD IMPROVEMENT ASSOCIATION",,,,,,,,,,,,,,,,
"454","STATE OF NEW YORK",,,,,,,,,,,,,,,,
"455","ROSEDALE JETS FOOTBALL ASSOCIATION",,,,,,,,,,,,,,,,
"456","MERRILL PARK CIVIC ASSOCIATION OF SPRINGFIELD GARDENS INC",,,,,,,,,,,,,,,,
"457","THE GRACE FOUNDATION OF NEW YORK",,,,,,,,,,,,,,,,
"458","ATLAS DIY CORPORATION",,,,,,,,,,,,,,,,
"459","NEW YORK RESTORATION PROJECT",,,,,,,,,,,,,,,,
"460","Timbers Legacy Inc",,,,,,,,,,,,,,,,
"461","ST. NICKS ALLIANCE CORP.",,,,,,,,,,,,,,,,
"462","BRIDGE STREET DEVELOPMENT CORPORATION",,,,,,,,,,,,,,,,
"463","CENTER FOR URBAN COMMUNITY SERVICES INC",,,,,,,,,,,,,,,,
"464","COMMUNITY SERVICE SOCIETY OF NEW YORK",,,,,,,,,,,,,,,,
"465","ASIAN AMERICANS FOR EQUALITY INC",,,,,,,,,,,,,,,,
"466","QUEENS COMMUNITY HOUSE, INC.","108-25 62nd Drive",,"Queens","Forest Hills","NY","11375",,,"40.73591","-73.850212","406","29","745","4432108","4021590002","Forest Hills"
"467","GIRL VOW INC",,,,,,,,,,,,,,,,
"468","FIFTH AVENUE COMMITTEE, INC.",,,,,,,,,,,,,,,,
"469","LINCOLN HOUSE OUTREACH, INC",,,,,,,,,,,,,,,,
"470","ATLANTIC AVENUE ASSOCIATION LOCAL DEVELOPMENT CORPORATION",,,,,,,,,,,,,,,,
"471","SAFE FOUNDATION INC",,,,,,,,,,,,,,,,
"472","CHINATOWN MANPOWER PROJECT INC.",,,,,,,,,,,,,,,,
"473","BOTTOMLESS CLOSET",,,,,,,,,,,,,,,,
"474","association of east european jewry corp",,,,,,,,,,,,,,,,
"475","COMMUNITIES OF MASPETH-ELM- HURST TOGETHER INC",,,,,,,,,,,,,,,,
"476","JOB PATH INC",,,,,,,,,,,,,,,,
"477","COALITION FOR THE HOMELESS INC",,,,,,,,,,,,,,,,
"478","KWATNY FOUNDATION INC",,,,,,,,,,,,,,,,
"479","ASPIRA OF NEW YORK INC",,,,,,,,,,,,,,,,
"480","FRIENDS OF GANTRY PLAZA STATE PARK INC",,,,,,,,,,,,,,,,
"481","HER JUSTICE INC",,,,,,,,,,,,,,,,
"482","IMAGINE FOUNDATION, INC",,,,,,,,,,,,,,,,
"483","ALZHEIMERS DISEASE AND RELATED DISORDERS NEW YORK CITY INC",,,,,,,,,,,,,,,,
"484","BNOS MALKA ACADEMY",,,,,,,,,,,,,,,,
"485","BRIGHTON BALLET THEATER CO INC",,,,,,,,,,,,,,,,
"486","ST KEVIN'S ROMAN CATHOLIC CHURCH 4346",,,,,,,,,,,,,,,,
"487","THE NEW YORK FOUNDLING HOSPITAL",,,,,,,,,,,,,,,,
"488","THE NEW YORK PUBLIC LIBRARY ASTOR LENOX AND TILDEN FOUNDATIO",,,,,,,,,,,,,,,,
"489","TERENCE CARDINAL COOKE HEALTH CARE CENTER",,,,,,,,,,,,,,,,
"490","INDOCHINA SINO- AMERICAN SENIOR CITIZEN CENTER INC",,,,,,,,,,,,,,,,
"491","CHARLES A. WALBURG MULTI- SERVICE ORGANIZATION INC.",,,,,,,,,,,,,,,,
"492","POLISH AND SLAVIC CENTER, INC.",,,,,,,,,,,,,,,,
"493","INSTITUTE FOR THE PUERTO RICAN HISPANIC ELDERLY INC",,,,,,,,,,,,,,,,
"494","SEAMEN'S SOCIETY FOR CHILDREN AND FAMILIES","50 Bay Street",,"Staten Island","Staten Island","NY","10301","13-5563010","www.seamenssociety.org","40.640901","-74.075766","501","49","3","5000034","5000050099","West New Brighton-New Brighton-St. George"
"495","POSITIVE EXPOSURE PRODUCTION INC",,,,,,,,,,,,,,,,
"496","GAY MENS HEALTH CRISIS INC",,,,,,,,,,,,,,,,
"497","CENTRAL ASTORIA LOCAL DEVELOPMENT COALITION INCORPORATED",,,,,,,,,,,,,,,,
"498","Quest Youth Organization, Inc.",,,,,,,,,,,,,,,,
"499","FLATBUSH DEVELOPMENT CORPORATION",,,,,,,,,,,,,,,,
"500","ITALIAN AMERICAN CIVIL RIGHTS LEAGUE CANARSIE INC",,,,,,,,,,,,,,,,
"501","NEIGHBORHOOD HOUSING SERVICES OF BROOKLYN BEDFORD-STUYVESANT",,,,,,,,,,,,,,,,
"502","THE BROTHERHOOD/SISTER SOL, INC.","140 Hamilton Pl",,"Manhattan","New York","NY","10031",,,"40.824275","-73.948624","109","7","229","1061887","1020750026","Hamilton Heights"
"503","THE CHILDRENS AID SOCIETY","711 3rd Ave","Room 300","Manhattan","New York","NY","10017","135562191","www.childrensaidsociety.org","40.752374","-73.973266","106","4","90","1037568","1013180001","Turtle Bay-East Midtown"
"504","MASPETH TOWN HALL, INC.",,,,,,,,,,,,,,,,
"505","MAZii Learning Center Inc",,,,,,,,,,,,,,,,
"506","Sapna NYC Inc.",,,,,,,,,,,,,,,,
"507","CATHOLIC CHARITIES COMMUNITY SERVICES ARCHDIOCESE OF NY","1011 FIRST AVENUE",,"Manhattan","New York","NY","10022",,,"40.757271","-73.963692","106","5","108","1039972","1013480023","Turtle Bay-East Midtown"
"508","CENTER FOR COMMUNITY ALTERNATIVES INC.","115 East Jefferson Street","Suite 3000","Not in NYC","Syracuse","NY","13202","161395992","www.communityalternatives.org",,,,,,,,
"509","CHINESE-AMERICAN PLANNING COUNCIL INC",,,,,,,,,,,,,,,,
"510","SAMARITAN DAYTOP VILLAGE INC",,,,,,,,,,,,,,,,
"511","CROWN HEIGHTS NORTH ASSOCIATION, INC.",,,,,,,,,,,,,,,,
"512","PROJECT HOSPITALITY INC",,,,,,,,,,,,,,,,
"513","NATIONAL SOCIETY FOR HEBREW DAY SCHOOLS",,,,,,,,,,,,,,,,
"514","COMMUNITY MEDIATION SERVICES, INC.","89-64 163rd Street",,"Queens","Jamaica","NY","11432","112663007","www.mediatenyc.org","40.70664","-73.798033","412","24","44601","4208888","4097610080","Jamaica"
"515","GREATER FLUSHING COMMUNITY COUNCIL INC",,,,,,,,,,,,,,,,
"516","HAITIAN CENTERS COUNCIL INC",,,,,,,,,,,,,,,,
"517","EVERYONE READING INC",,,,,,,,,,,,,,,,
"518","BROOKLYN ARTS EXCHANGE",,,,,,,,,,,,,,,,
"519","HIGHBRIDGE ISLAMIC CENTER INC",,,,,,,,,,,,,,,,
"520","NEW YORK MEMORY CENTER, INC.",,,,,,,,,,,,,,,,
"521","THE FATHERS HEART MINISTRIES",,,,,,,,,,,,,,,,
"522","UNITED JEWISH COUNCIL OF THE EAST SIDE INC",,,,,,,,,,,,,,,,
"523","Gunhill Basketball Association, Inc.",,,,,,,,,,,,,,,,
"524","BERGEN BEACH YOUTH ORGANIZ- ATION INC",,,,,,,,,,,,,,,,
"525","GEORGE WALKER JR COMMUNITY COALITION INC THE",,,,,,,,,,,,,,,,
"526","CYPRESS HILLS LOCAL DEVELOPMENT CORP. INC.",,,,,,,,,,,,,,,,
"527","STATEN ISLAND AID FOR RETARDED CHILDREN INC",,,,,,,,,,,,,,,,
"528","NORTHERN MANHATTAN IMPROVEMENT CORP","8 Clinton Place",,"Bronx","Bronx","NY","10453",,,"40.856526","-73.905437","205","14","251","2116591","2031950083","University Heights-Morris Heights"
"529","STANLEY M ISAACS NEIGHBORHOOD CENTER INC",,,,,,,,,,,,,,,,
"530","ARC XVI FT WASHINGTON INC",,,,,,,,,,,,,,,,
"531","COUNCIL OF SENIOR CENTERS AND SERVICES OF NYC INC",,,,,,,,,,,,,,,,
"532","SEPHARDIC MULTI-SERVICES SENIOR CITIZEN CENTER, INC.",,,,,,,,,,,,,,,,
"533","RESEARCH FOUNDATION OF THE CITY UNIVERSITY OF NEW YORK",,,,,,,,,,,,,,,,
"534","INDIA HOME INC",,,,,,,,,,,,,,,,
"535","THE ANSOB CENTER FOR REFUGEES, INC.",,,,,,,,,,,,,,,,
"536","PUERTO RICAN FAMILY INSTITUTE INC",,,,,,,,,,,,,,,,
"537","BOWERY RESIDENTS' COMMITTEE, INC.",,,,,,,,,,,,,,,,
"538","ST GABRIELS EPISCOPAL CHURCH",,,,,,,,,,,,,,,,
"539","YOUNG MENS AND YOUNG WOMENS HEBREW ASSOCIATION OF BORO PAR",,,,,,,,,,,,,,,,
"541","CODYCARES FOR KIDS INC",,,,,,,,,,,,,,,,
"542","THE TREVOR PROJECT INC",,,,,,,,,,,,,,,,
"543","CITIZEN SCHOOLS INC",,,,,,,,,,,,,,,,
"544","YOUNG ISRAEL PROGRAMS INC",,,,,,,,,,,,,,,,
"545","CATHOLIC CHARITIES OF STATEN ISLAND INC",,,,,,,,,,,,,,,,
"546","CROWN HEIGHTS PRESERVATION COMMITTEE CORP.",,,,,,,,,,,,,,,,
"547","ALLEN AME CHURCH",,,,,,,,,,,,,,,,
"548","CANAAN BAPTIST CHURCH OF CHRIST",,,,,,,,,,,,,,,,
"549","REGIONAL AID FOR INTERIM NEEDS INC",,,,,,,,,,,,,,,,
"550","RIDGEWOOD OLDER ADULT CENTER & SERVICES INC",,,,,,,,,,,,,,,,
"551","WASHINGTON HEIGHT'S COMMUNITY SERVICES CORPORATION",,,,,,,,,,,,,,,,
"552","FLATBUSH SHOMRIM SAFETY PATROL NC.",,,,,,,,,,,,,,,,
"553","CHAI LIFELINE INC",,,,,,,,,,,,,,,,
"554","FORT GREENE COUNCIL, INC",,,,,,,,,,,,,,,,
"555","BROOKLYN SECTION NATIONAL COUNCIL OF JEWISH WOMEN INC",,,,,,,,,,,,,,,,
"556","KIPS BAY BOYS AND GIRLS CLUB INC",,,,,,,,,,,,,,,,
"557","WEST SIDE FEDERATION FOR SENIOR AND SUPPORTIVE HOUSING INC",,,,,,,,,,,,,,,,
"558","BRONX HOUSE INC",,,,,,,,,,,,,,,,
"559","COTHOA LUNCHEON CLUB INC",,,,,,,,,,,,,,,,
"560","UNION SETTLEMENT ASSOCIATION INC","237 East 104th Street",,"Manhattan","New York","NY","10029","131632530","unionsettlement.org","40.789687","-73.944267","111","8","170","1080671","1016540011","East Harlem South"
"561","THE SPANISH SPEAKING ELDERLY COUNCIL-RAICES INC",,,,,,,,,,,,,,,,
"562","I CHALLENGE MYSELF INC.",,,,,,,,,,,,,,,,
"563","ALPHA PHI ALPHA SENIOR CITIZENS CENTER",,,,,,,,,,,,,,,,
"564","SENIOR CITIZENS LEAGUE OF FLATBUSH, INC.",,,,,,,,,,,,,,,,
"565","L WHITE CONSULTING LLC",,,,,,,,,,,,,,,,
"566","STATEN ISLAND URBAN CENTER  INC",,,,,,,,,,,,,,,,
"567","THE FLOATING HOSPITAL INC",,,,,,,,,,,,,,,,
"568","FLUSHING DAY CARE CENTER, INC.",,,,,,,,,,,,,,,,
"569","RADICAL HEALTH INC",,,,,,,,,,,,,,,,
"570","HELP SOCIAL SERVICE CORPORATION","115 EAST 13 STREET",,"Manhattan","New York","NY","10003","13-3678724","helpusa.org","40.733304","-73.989316","103","2","42","1084305","1005590055","East Village"
"571","UNDER 21",,,,,,,,,,,,,,,,
"642","SUNNYSIDE HOME CARE PROJECT",,,,,,,,,,,,,,,,
"572","EDWIN GOULD SERVICES FOR CHILDREN & FAMILIES","151 LAWRENCE STREET",,"Brooklyn","BROOKLYN","NY","11201","13-5675643","www.risingground.org","40.691506","-73.986297","302","33","11","3000404","3001520006","DUMBO-Vinegar Hill-Downtown Brooklyn-Boerum Hill"
"573","HEIGHTS AND HILLS, INC",,,,,,,,,,,,,,,,
"574","AGUDATH ISRAEL OF AMERICA COMMUNITY SERVICES INC",,,,,,,,,,,,,,,,
"575","COMMUNITY HOME CARE REFERRAL SERVICE INC.",,,,,,,,,,,,,,,,
"576","STEIN SENIOR CENTER, INC.",,,,,,,,,,,,,,,,
"577","NORTHEAST BRONX SENIOR CITIZENS INC",,,,,,,,,,,,,,,,
"578","PRESBYTERIAN SENIOR SERVICES",,,,,,,,,,,,,,,,
"579","WAYSIDE OUT-REACH DEVELOPMENT INC",,,,,,,,,,,,,,,,
"580","Big Duck Studio",,,,,,,,,,,,,,,,
"581","FIND AID FOR THE AGED INC",,,,,,,,,,,,,,,,
"582","ENCORE COMMUNITY SERVICES",,,,,,,,,,,,,,,,
"583","BROOKS SENIOR CENTER",,,,,,,,,,,,,,,,
"584","Queens World Film Initiative, Inc.",,,,,,,,,,,,,,,,
"585","GREENWICH HOUSE INC",,,,,,,,,,,,,,,,
"586","STATEN ISLAND COMMUNITY SERVICES FRIENDSHIP CLUBS INC",,,,,,,,,,,,,,,,
"587","CHILD DEVELOPMENT CENTER OF THE MOSHOLU-MONTEFIORE COMM CTR",,,,,,,,,,,,,,,,
"588","NEW YORK CENTER FOR INTERPERSONAL DEVELOPMENT INC","130 Stuyvesant Place","5th Floor","Staten Island","Staten Island","NY","10301","237085239",,"40.642907","-74.076889","501","49","3","5000085","5000080070","West New Brighton-New Brighton-St. George"
"589","EAST HARLEM COUNCIL FOR HUMAN SERVICES INC",,,,,,,,,,,,,,,,
"590","SEBCO DEVELOPMENT INC",,,,,,,,,,,,,,,,
"591","NEW YORK FOUNDATION FOR SENIOR CITIZENS, INC.",,,,,,,,,,,,,,,,
"592","DIASORIN INC",,,,,,,,,,,,,,,,
"593","CENTRAL HARLEM SENIOR CITIZEN'S CENTERS, INC.",,,,,,,,,,,,,,,,
"595","HANDS IN 4 YOUTH INC",,,,,,,,,,,,,,,,
"596","SOUTH BRONX CONCERNED CITIZENS INC",,,,,,,,,,,,,,,,
"597","BROOKLYN PITBULLS YOUTH FOOTBALL INC.",,,,,,,,,,,,,,,,
"598","PARTNERSHIP WITH CHILDREN, INC.",,,,,,,,,,,,,,,,
"599","BANK STREET COLLEGE OF EDUCATION",,,,,,,,,,,,,,,,
"600","BJHI INC",,,,,,,,,,,,,,,,
"601","UNITED SENIOR CITIZENS OF SUNSET PARK INC",,,,,,,,,,,,,,,,
"602","COMMUNITY AGENCY FOR SENIOR CITIZENS INC",,,,,,,,,,,,,,,,
"603","SERIOUS FUN AFTER SCHOOL INC",,,,,,,,,,,,,,,,
"604","SPECIAL PATHOGENS LABORATORY LLC",,,,,,,,,,,,,,,,
"605","EMLab P&K LLC",,,,,,,,,,,,,,,,
"606","DIRECTIONS FOR OUR YOUTH INC",,,,,,,,,,,,,,,,
"607","POLICE ATHLETIC LEAGUE INC",,,,,,,,,,,,,,,,
"608","CORONA CONGREGATIONAL CHURCH",,,,,,,,,,,,,,,,
"609","ASSOCIATION OF BLACK SOCIAL WORKERS",,,,,,,,,,,,,,,,
"610","CARTER BURDEN NETWORK INC",,,,,,,,,,,,,,,,
"611","MANHATTAN YOUTH RECREATION AND RESOURCES INC",,,,,,,,,,,,,,,,
"612","WILLIAM HODSON COMMUNITY CENTER INC",,,,,,,,,,,,,,,,
"613","HOPE OF ISRAEL SENIOR CITIZENS CENTER INC",,,,,,,,,,,,,,,,
"614","IMANI HOUSE, INC.",,,,,,,,,,,,,,,,
"615","THE LOUKOUMI MAKE A DIFFERENCE FOUNDATION INC",,,,,,,,,,,,,,,,
"616","IMMIGRATION EQUALITY","40 Exchange Pl",,"Manhattan","New York","NY","10004",,,"40.705939","-74.010283","101","1","9","1000825","1000250027","Battery Park City-Lower Manhattan"
"617","BANANA KELLY COMMUNITY IMPROVEMENT ASSOCIATION INC",,,,,,,,,,,,,,,,
"618","BROOKLYN LEGAL SERVICES INC","260 Broadway",,"Brooklyn","Brooklyn","NY","11211",,,"40.708935","-73.959386","301","33","525","3059650","3021400021","North Side-South Side"
"619","ELMCOR YOUTH & ADULT ACTIVITIES INC",,,,,,,,,,,,,,,,
"620","SURVEYMONKEY INC",,,,,,,,,,,,,,,,
"621","AMERICAN BROTHERHOOD FOR THE RUSSIAN DISABLED, INC.",,,,,,,,,,,,,,,,
"622","ST NICKS ALLIANCE HOME CARE CORP",,,,,,,,,,,,,,,,
"623","FUTURES AND OPTIONS INC.",,,,,,,,,,,,,,,,
"624","ECLINICALWORKS, LLC",,,,,,,,,,,,,,,,
"625","CONCRETE SAFARIS INC",,,,,,,,,,,,,,,,
"626","BIOPOOL US INC TRINITY BIOTECH DISTRIBUTI",,,,,,,,,,,,,,,,
"627","BRIDGING ACCESS TO CARE INC",,,,,,,,,,,,,,,,
"628","BROOKLYN ON FUN ASSOCIATION USA INC",,,,,,,,,,,,,,,,
"629","DB GRANT ASSOCIATES INC",,,,,,,,,,,,,,,,
"630","THE MARAMONT CORPORATION",,,,,,,,,,,,,,,,
"631","BEDFORD PARK-MULTI-SERVICE CENTER FOR SENIOR CITIZENS INC",,,,,,,,,,,,,,,,
"632","THE PUERTO RICAN ORGANIZATION TO MOTIVATE, ENLIGHTEN AND SER",,,,,,,,,,,,,,,,
"633","SOUTHERN QUEENS PARK ASSOC. INC.",,,,,,,,,,,,,,,,
"634","REACHING ACROSS THE WORLD MINISTRIES INC",,,,,,,,,,,,,,,,
"636","ASCEND LEARNING, INC",,,,,,,,,,,,,,,,
"637","UNITED ACTIVITIES UNLIMITED UAU",,,,,,,,,,,,,,,,
"638","NATIONAL ALLIANCE ON MENTAL ILLNESS OF NEW YORK CITY INC",,,,,,,,,,,,,,,,
"639","Westhab, Inc.",,,,,,,,,,,,,,,,
"640","WOMEN IN NEED, INC.",,,,,,,,,,,,,,,,
"641","ROCKAWAY WATERFRONT ALLIANCE",,,,,,,,,,,,,,,,
"924","BRONXCARE HEALTH SYSTEM",,,,,,,,,,,,,,,,
"643","INFINITY EDUCATIONAL PROGRAMS INC",,,,,,,,,,,,,,,,
"645","BEDFORD STUYVESANT RESTORATION CORP",,,,,,,,,,,,,,,,
"646","COMMUNITY ACCESS INC",,,,,,,,,,,,,,,,
"647","NEIGHBORHOOD INITIATIVES DEVELOPMENT CORPORATION",,,,,,,,,,,,,,,,
"648","NORTH FORK HELICOPTERS LTD",,,,,,,,,,,,,,,,
"649","SCAN-HARBOR INC","345 E 102ND ST, SUITE 301",,"Manhattan","New York","NY","10029","132912963","www.scanny.org","40.787394","-73.942709","111","8","164","1086440","1016747501","East Harlem South"
"650","SCAN NEW YORK VOLUNTEER PARENT AIDES ASSOCIATION INC.",,,,,,,,,,,,,,,,
"651","YOUNG ATHLETES INC",,,,,,,,,,,,,,,,
"652","EL BARRIOS OPERATION FIGHTBACK INC",,,,,,,,,,,,,,,,
"653","SIMPSON STREET DEVELOPMENT ASSOCIATION INC",,,,,,,,,,,,,,,,
"654","ROADS TO SUCCESS INC",,,,,,,,,,,,,,,,
"655","Girls Incorporated of New York City",,,,,,,,,,,,,,,,
"656","NATIONAL ASSOCIATION ON DRUG ABUSE PROBLEMS (NYS) INC",,,,,,,,,,,,,,,,
"657","THE YOUNG WOMEN'S CHRISTIAN ASSOCIATION OF THE CITY OF NY",,,,,,,,,,,,,,,,
"658","CABS HOME ATTENDANTS SERVICE, INC.",,,,,,,,,,,,,,,,
"659","DAY ONE NEW YORK INC.","PO Box 3220 Church Street Station","Church Street Station","Manhattan","New York","NY","10008","06-1103000","www.dayoneny.org",,,,,,,,
"660","ST JOHNS COMMUNITY HDFC",,,,,,,,,,,,,,,,
"661","NEW YORK CITY MISSION SOCIETY",,,,,,,,,,,,,,,,
"662","COMMUNITY ASSOCIATION OF PROGRESSIVE DOMINICIANS INC",,,,,,,,,,,,,,,,
"663","COMMUNITY LEAGUE OF THE HEIGHTS, INC.",,,,,,,,,,,,,,,,
"664","SOUTH ASIAN YOUTH ACTION SAYA INC","54-05 SEABURY STREET",,"Queens","Elmhurst","NY","11373","133943630","www.saya.org","40.735303","-73.877474","404","25","475","4064688","4028520006","Elmhurst"
"665","TRUSTEES OF COLUMBIA UNIVERSITY IN THE CITY OF NEW YORK",,,,,,,,,,,,,,,,
"666","HAITIAN AMERICANS UNITED FOR PROGRESS INC",,,,,,,,,,,,,,,,
"667","BUSHWICK STUYVESANT HEIGHTS HOME ATTENDANTS INC",,,,,,,,,,,,,,,,
"668","THE STELLA ORTON HOME CARE AGENCY INC","3155 Amboy Road",,"Staten Island","Staten Island","NY","10306","133137595",,"40.564389","-74.131879","503","51","14606","5107641","5044720001","Great Kills"
"669","CITYMEALS-ON-WHEELS",,,,,,,,,,,,,,,,
"670","BROOKLYN COMMUNITY HOUSING & SERVICES,INC.",,,,,,,,,,,,,,,,
"671","RESEARCH FOUNDATION FOR MENTAL HYGIENE, INC.",,,,,,,,,,,,,,,,
"672","QUEENS LEGAL SERVICES CORPORATION","8900 Sutphin Boulevard",,"Queens","Jamaica","NY","11435",,,"40.703702","-73.808746","412","24","240","4206748","4096760007","Jamaica"
"673","SHELTERING ARMS CHILDREN AND FAMILY SERVICES INC","25 Broadway - 18th Fl.",,"Manhattan","New York","NY","10004","133709095","www.shelteringarmsny.org",,,,,,,,
"674","SCHOOL SETTLEMENT HOME ATTENDANT SERVICE CORP","357 Manhattan Ave",,"Brooklyn","Brooklyn","NY","11211","112578076",,"40.716381","-73.946409","301","34","501","3068417","3027480021","East Williamsburg"
"675","NEW YORK JUNIOR TENNIS LEAGUE INC",,,,,,,,,,,,,,,,
"676","UPPER MANHATTAN MENTAL HEALTH CENTER, INC.",,,,,,,,,,,,,,,,
"677","BOYS AND GIRLS HARBOR INC",,,,,,,,,,,,,,,,
"678","HOMES FOR THE HOMELESS INC",,,,,,,,,,,,,,,,
"679","FOUNTAIN HOUSE, INC.",,,,,,,,,,,,,,,,
"680","HARLEM UNITED COMMUNITY AIDS CENTER, INC.",,,,,,,,,,,,,,,,
"681","COLORED GIRLS HUSTLE LLC",,,,,,,,,,,,,,,,
"682","BALTIC STREET AEH, INC",,,,,,,,,,,,,,,,
"683","GOODWILL INDUSTRIES OF GREATER NY & NORTHERN NEW JERSEY INC",,,,,,,,,,,,,,,,
"684","RISING GROUND INC","463 HAWTHORNE AVE",,"Not in NYC","YONKERS","NY","10705","13-1860451","www.RisingGround.org",,,,,,,,
"685","COUNTY OF ROCKLAND",,,,,,,,,,,,,,,,
"686","COMMUNITY HOUSE HOUSING DEVELOPMENT FUND COMPANY INC",,,,,,,,,,,,,,,,
"687","BIRCH FAMILY SERVICES INC.",,,,,,,,,,,,,,,,
"689","VISITING NURSE SERVICE OF NEW YORK HOMECARE II",,,,,,,,,,,,,,,,
"690","QUEENS BOROUGH PUBLIC LIBRARY",,,,,,,,,,,,,,,,
"691","WELLLIFE NETWORK INC.",,,,,,,,,,,,,,,,
"692","GEEL COMMUNITY SERVICES INC",,,,,,,,,,,,,,,,
"693","RENAISSANCE CHARTER SCHOOL",,,,,,,,,,,,,,,,
"694","YESHIVATH KEHILATH YAKOV, INC.",,,,,,,,,,,,,,,,
"695","DREAMYARD PROJECT INC",,,,,,,,,,,,,,,,
"696","NORTH BROOKLYN DEVELOPMENT CORPORATION",,,,,,,,,,,,,,,,
"697","THE DOE FUND INC",,,,,,,,,,,,,,,,
"698","THE JERICHO PROJECT",,,,,,,,,,,,,,,,
"699","CECIL HOUSING DEVELOPMENT FUND",,,,,,,,,,,,,,,,
"700","MUHLENBERG COMMUNITY HOUSING DEVELOPMENT FUND CORPORATION",,,,,,,,,,,,,,,,
"701","SINERGIA INCORPORATED",,,,,,,,,,,,,,,,
"702","COMMUNITY ASSISTANCE RESOURCES & EXTENDED SERVICES INC",,,,,,,,,,,,,,,,
"703","CHILDREN OF PROMISE NYC",,,,,,,,,,,,,,,,
"704","CARDINAL MCCLOSKEY SCHOOL & HOME FOR CHILDREN",,,,,,,,,,,,,,,,
"705","URBAN PATHWAYS INC",,,,,,,,,,,,,,,,
"706","PROVIDENCE HOUSE INC.",,,,,,,,,,,,,,,,
"707","BANDUJO ADVERTISING AND DESIGN, INC",,,,,,,,,,,,,,,,
"708","RED HOOK INITIATIVE INC","767 Hicks St",,"Brooklyn","Brooklyn","NY","11231","203904662","www.rhicenter.org","40.676803","-74.004705","306","38","59","3393808","3005350001","Carroll Gardens-Columbia Street-Red Hook"
"709","POSTGRADUATE CENTER FOR MENTAL HEALTH",,,,,,,,,,,,,,,,
"710","THE EPILEPSY INSTITUTE",,,,,,,,,,,,,,,,
"711","VISIONS/SERVICES FOR THE BLIND AND VISUALLY IMPAIRED",,,,,,,,,,,,,,,,
"712","WEST HARLEM GROUP ASSISTANCE INC",,,,,,,,,,,,,,,,
"713","VOCATIONAL INSTRUCTION PROJECT COMMUNITY SERVICES INC",,,,,,,,,,,,,,,,
"714","PUBLIC PREP CHARTER SCHOOL ACADEMIES",,,,,,,,,,,,,,,,
"715","MORNINGSIDE CTR FOR TEACHING SOCIAL RESPONSIBILITY INC",,,,,,,,,,,,,,,,
"716","1199 SEIU EMPLOYER CHILD CARE CORPORATION",,,,,,,,,,,,,,,,
"717","ROCKAWAY DEVELOPMENT REVITALIZATION CORP","1920 MOTT AVE 2ND FL",,"Queens","Far Rockaway","NY","11691","112575794","www.rdrc.org","40.603898","-73.752247","414","31","103202","4457760","4155590012","Far Rockaway-Bayswater"
"718","PIBLY RESIDENTIAL PROGRAMS, INC.",,,,,,,,,,,,,,,,
"719","BERKSHIRE FARM CENTER & SERVICES FOR YOUTH",,,,,,,,,,,,,,,,
"720","LUTHERAN SOCIAL SERVICES OF METROPOLITAN NEW YORK INC",,,,,,,,,,,,,,,,
"721","THE CENTER FOR ARCHITECTURE INC",,,,,,,,,,,,,,,,
"722","MADISON SQUARE BOYS & GIRLS CLUB INC",,,,,,,,,,,,,,,,
"723","EXPANDED SCHOOLS INC",,,,,,,,,,,,,,,,
"724","LEXINGTON CENTER FOR MENTAL HEALTH SERVICES INC",,,,,,,,,,,,,,,,
"725","ST FRANCIS FRIENDS OF THE POOR INC",,,,,,,,,,,,,,,,
"726","THE MOMENTUM PROJECT INC",,,,,,,,,,,,,,,,
"727","AIDS CENTER OF QUEENS COUNTY INC ADVOCACY CENTER OF QUEENS",,,,,,,,,,,,,,,,
"728","RICHMOND MEDICAL CENTER",,,,,,,,,,,,,,,,
"729","CASITA MARIA INC",,,,,,,,,,,,,,,,
"730","SERVICES FOR THE UNDERSERVED INC",,,,,,,,,,,,,,,,
"731","PRAXIS HOUSING INITIATIVES INC",,,,,,,,,,,,,,,,
"732","MEALS ON WHEELS OF STATEN ISLAND INC",,,,,,,,,,,,,,,,
"733","BEAM CENTER INC",,,,,,,,,,,,,,,,
"735","UNIQUE PEOPLE SERVICES INC.",,,,,,,,,,,,,,,,
"736","WELFARE RESEARCH, INC",,,,,,,,,,,,,,,,
"737","UNITED CEREBRAL PALSY OF NEW YORK CITY INC",,,,,,,,,,,,,,,,
"738","ISABELLA GERIATRIC CENTER INC.",,,,,,,,,,,,,,,,
"739","HEBREW EDUCATIONAL SOCIETY OF BROOKLYN",,,,,,,,,,,,,,,,
"740","LOWER EASTSIDE SERVICE CENTER INC",,,,,,,,,,,,,,,,
"741","ST. JOSEPH'S HOSPITAL",,,,,,,,,,,,,,,,
"742","BREAKING GROUND HOUSING DEVELOPMENT FUND CORPORATION",,,,,,,,,,,,,,,,
"743","ST LUKE'S-ROOSEVELT HOSPITAL CENTER",,,,,,,,,,,,,,,,
"744","COMMUNITY RESOURCE EXCHANGE INC",,,,,,,,,,,,,,,,
"745","PEERPLACE NETWORKS LLC",,,,,,,,,,,,,,,,
"746","SINGLE PARENT RESOURCE CENTER INC",,,,,,,,,,,,,,,,
"748","RECREATION ROOMS AND SETTLEMENT INC",,,,,,,,,,,,,,,,
"749","A.F. PAREDES & CO.",,,,,,,,,,,,,,,,
"750","XINCON HOME-HEALTHCARE SERVICES INC.",,,,,,,,,,,,,,,,
"751","HOUR CHILDREN, INC",,,,,,,,,,,,,,,,
"753","UNIVERSITY BEHAVIORAL ASSOCIATES,INC.",,,,,,,,,,,,,,,,
"754","NEW YORK AND PRESBYTERIAN HOSPITAL",,,,,,,,,,,,,,,,
"755","RESEARCH TRIANGLE INSTITUTE",,,,,,,,,,,,,,,,
"756","PADILLA & COMPANY LLP",,,,,,,,,,,,,,,,
"757","CENTERLIGHT HEALTH SYSTEM INC",,,,,,,,,,,,,,,,
"759","WESTCHESTER COUNTY",,,,,,,,,,,,,,,,
"761","CHINESE-AMERICAN PLANNING COUNCIL HOME ATTENDANT PROGRAM INC","1 York St.","2 Floor","Manhattan","New York","NY","10013","133203211",,"40.721085","-74.005754","101","1","33","1002736","1002127503","SoHo-TriBeCa-Civic Center-Little Italy"
"762","ARBOR E&T LLC","9901 Linn Station Road",,"Bronx","Louisville","KY","40223",,"https://www.rescare.com/",,,,,,,,
"763","POMONOK HOME SERVICES INC","61-34 188 St","Suite 219","Queens","Fresh Meadows","NY","11365","112694987",,"40.739732","-73.786165","408","23","1347","4439481","4070750001","Fresh Meadows-Utopia"
"765","HARLEM RBI INCORPORATED",,,,,,,,,,,,,,,,
"766","CAMBA LEGAL SERVICES","1720 Church Avenue",,"Brooklyn","Brooklyn","NY","11226",,,"40.649339","-73.963307","314","40","512","3341487","3050970085","Flatbush"
"767","CORE SERVICES GROUP, INC.",,,,,,,,,,,,,,,,
"768","NEIGHBORHOOD ASSOCIATION FOR INTER-CULTURAL AFFAIRS INC","1075 Grand Concourse",,"Bronx","Bronx","NY","10452",,,"40.831448","-73.920162","204","16","195","2002889","2024720011","West Concourse"
"769","THE PARTNERSHIP FOR THE HOMELESS INC",,,,,,,,,,,,,,,,
"770","CLINTON HOUSING DEVELOPMENT COMPANY INC",,,,,,,,,,,,,,,,
"771","MAXIMUS HUMAN SERVICES, INC.",,,,,,,,,,,,,,,,
"772","Brienzas Educare",,,,,,,,,,,,,,,,
"773","THE BRONX DEFENDERS","360 East 161st Street",,"Bronx","Bronx","NY","10451",,,"40.824456","-73.914732","203","17","141","2116642","2024077501","Morrisania-Melrose"
"774","HOME CARE SERV FOR INDEPENDENT LIVING INC.","2044 Ocean Ave","Suite B4","Brooklyn","Brooklyn","NY","11230","112516716",,"40.612086","-73.953826","314","48","546","3182045","3067660036","Midwood"
"775","Voces Latinas Corp.",,,,,,,,,,,,,,,,
"776","ALI FORNEY CENTER",,,,,,,,,,,,,,,,
"777","SAUTI YETU CENTER FOR AFRICAN WOMEN INC",,,,,,,,,,,,,,,,
"778","STRIVE INTERNATIONAL INC",,,,,,,,,,,,,,,,
"856","FRIENDS OF CROWN HEIGHTS EDUCATIONAL CENTERS INC",,,,,,,,,,,,,,,,
"779","WHITE GLOVE COMMUNITY CARE INC","89 Bartlett St",,"Brooklyn","Brooklyn","NY","11206","113270257",,"40.702105","-73.944975","301","33","507","3424167","3022707501","Bedford"
"780","SOUTHEAST BRONX NEIGHBORHOOD CENTERS INC",,,,,,,,,,,,,,,,
"781","PLANNED PARENTHOOD OF NYC INC",,,,,,,,,,,,,,,,
"782","PUBLIC HEALTH SOLUTIONS",,,,,,,,,,,,,,,,
"783","CENTER FOR EMPLOYMENT OPPORTUNITIES INC","50 Broadway","Suite 1604","Manhattan","New York","NY","10004","133843322","http://www.ceoworks.org","40.706449","-74.012761","101","1","9","1000813","1000220024","Battery Park City-Lower Manhattan"
"784","THE HOPE PROGRAM INC",,,,,,,,,,,,,,,,
"785","ODYSSEY HOUSE INC",,,,,,,,,,,,,,,,
"786","WEST SIDE FEDERATION FOR SR & SUPPORTIVE HOUSING INC",,,,,,,,,,,,,,,,
"787","RAJ SOMAS",,,,,,,,,,,,,,,,
"788","THE ARTS CONNECTION INC",,,,,,,,,,,,,,,,
"789","ST. MARY'S HDFC",,,,,,,,,,,,,,,,
"790","THE SECOND HENRY STREET HDFC",,,,,,,,,,,,,,,,
"791","ENSIGN ENGINEERING PC",,,,,,,,,,,,,,,,
"792","HAMASPIK OF ROCKLAND COUNTY INC",,,,,,,,,,,,,,,,
"793","NEW VENTURES CHARTER SCHOOL",,,,,,,,,,,,,,,,
"794","ARGUS COMMUNITY INC",,,,,,,,,,,,,,,,
"795","WEST BRONX HOUSING AND NEIGHBORHOOD RESOURCE CENTER INC",,,,,,,,,,,,,,,,
"796","NEW YORK UNIVERSITY",,,,,,,,,,,,,,,,
"797","African Refuge Inc",,,,,,,,,,,,,,,,
"798","QED INC",,,,,,,,,,,,,,,,
"799","HARLEM COMMONWEALTH COUNCIL INC.","361 West 125th Street",,"Manhattan","New York","NY","10027","136271908","https://harlemcommonwealth.org","40.810952","-73.953005","109","9","20901","1059308","1019520009","Morningside Heights"
"800","GEN-PROBE SALES & SERVICE INC",,,,,,,,,,,,,,,,
"801","BEER HAGOLAH INSTITUTES INC",,,,,,,,,,,,,,,,
"802","COMPULINK TECHNOLOGIES INC",,,,,,,,,,,,,,,,
"803","IMMIGRANT SOCIAL SERVICES INC",,,,,,,,,,,,,,,,
"804","PKA TECHNOLOGIES, INC",,,,,,,,,,,,,,,,
"805","WEST 28TH STREET CORP",,,,,,,,,,,,,,,,
"806","BREAKING GROUND II HOUSING DEVELOPMENT FUND CORPORATION",,,,,,,,,,,,,,,,
"807","INNOVATIVE CUSTOMER SOLUTIONS",,,,,,,,,,,,,,,,
"808","GEEL COMMUNITY UNION AVENUE HDFC",,,,,,,,,,,,,,,,
"809","WOODSTOCK HDFC FOR SENIOR CITIZENS",,,,,,,,,,,,,,,,
"810","URBAN STRATEGIES INC",,,,,,,,,,,,,,,,
"811","CONSCIENTIOUS MUSICAL REVUES",,,,,,,,,,,,,,,,
"812","EAST HARLEM TUTORIAL PROGRAM INC",,,,,,,,,,,,,,,,
"813","ACCENTCARE OF NEW YORK INC","27 Main St.",,"Not in NYC","Yorker","NY","10701","731628974",,,,,,,,,
"814","Bridge Builders Community Partnership, Inc.",,,,,,,,,,,,,,,,
"815","MEDCO CONSULTANTS, INC",,,,,,,,,,,,,,,,
"816","Hunts Point Alliance for Children",,,,,,,,,,,,,,,,
"818","BROOKLYN CHILDRENS MUSEUM CORP",,,,,,,,,,,,,,,,
"819","FORDHAM BEDFORD COMMUNITY SERVICES, INC.",,,,,,,,,,,,,,,,
"820","THERACARE NURSES REGISTRY LLC",,,,,,,,,,,,,,,,
"821","LONG ISLAND JEWISH MEDICAL CENTER",,,,,,,,,,,,,,,,
"822","THE MOUNT SINAI HOSPITAL",,,,,,,,,,,,,,,,
"823","P2L PATHWAYS TO LEADERSHIP INC.",,,,,,,,,,,,,,,,
"824","HARLEM CHILDRENS ZONE INC",,,,,,,,,,,,,,,,
"826","WEILL MEDICAL COLLEGE OF CORNELL UNIVERSITY",,,,,,,,,,,,,,,,
"827","YMS MANAGEMENT ASSOCIATES INC",,,,,,,,,,,,,,,,
"828","ECUMENICAL COMMUNITY DEVELOPMENT ORGANIZATION",,,,,,,,,,,,,,,,
"829","BROOKLYN PROSPECT CHARTER SCHOOL",,,,,,,,,,,,,,,,
"830","SHOREFRONT JEWISH COMMUNITY COUNCIL INC",,,,,,,,,,,,,,,,
"831","DIVAS FOR SOCIAL JUSTICE INC.",,,,,,,,,,,,,,,,
"833","Apex for Youth Inc",,,,,,,,,,,,,,,,
"834","LITERACY ASSISTANCE CENTER",,,,,,,,,,,,,,,,
"835","OLDER ADULTS TECHNOLOGY SERVICES INC",,,,,,,,,,,,,,,,
"837","After-School All-Stars",,,,,,,,,,,,,,,,
"838","GIRLS EDUCATIONAL & MENTORING SERVICES",,,,,,,,,,,,,,,,
"839","CENTRAL BROOKLYN ECONOMIC DEVELOPMENT CORP",,,,,,,,,,,,,,,,
"840","CLAREMONT NEIGHBORHOOD CENTERS INC",,,,,,,,,,,,,,,,
"841","COUNCIL OF PEOPLES ORGANIZATION INC",,,,,,,,,,,,,,,,
"843","JEWISH COMMUNITY COUNCIL OF CANARSIE",,,,,,,,,,,,,,,,
"844","EPISCOPAL HEALTH SERVICES INC",,,,,,,,,,,,,,,,
"845","MCCLANAHAN ASSOCIATES INC",,,,,,,,,,,,,,,,
"846","JOHN SNOW,INC",,,,,,,,,,,,,,,,
"847","THE COMMITTEE FOR HISPANIC CHILDREN AND FAMILIES INC",,,,,,,,,,,,,,,,
"848","AL-MADINAH SCHOOL INC.",,,,,,,,,,,,,,,,
"849","InnovateEDU Inc.",,,,,,,,,,,,,,,,
"851","COMMUNITY PARTNERSHIP CHARTER SCHOOL EDUCATION CORPORATION",,,,,,,,,,,,,,,,
"852","IMEINU INC",,,,,,,,,,,,,,,,
"853","MORRIS HGTS HLTH CTR",,,,,,,,,,,,,,,,
"854","COUNSELING IN SCHOOLS INC",,,,,,,,,,,,,,,,
"855","THE B.E.L.L. FOUNDATION, INC.",,,,,,,,,,,,,,,,
"857","NY TIBETAN SERVICE CENTER, INC.",,,,,,,,,,,,,,,,
"858","CENTERS FOR DISEASE CONTROL",,,,,,,,,,,,,,,,
"859","BLACK SPECTRUM THEATER COMPANY INC",,,,,,,,,,,,,,,,
"860","CROWN HEIGHTS JEWISH COMMUNITY COUNCIL INC",,,,,,,,,,,,,,,,
"861","THE NOEL POINTER FOUNDATION INC.",,,,,,,,,,,,,,,,
"862","Together We Are",,,,,,,,,,,,,,,,
"863","HOUSING AND FAMILY SERVICES OF GREATER NEW YORK INC",,,,,,,,,,,,,,,,
"864","THE YOUNG WOMENS CHRISTIAN ASSOCIATION OF THE CITY OF NEW YO",,,,,,,,,,,,,,,,
"865","HUMAN SERVICES COUNCIL OF NEW YORK",,,,,,,,,,,,,,,,
"866","MARTIN DE PORRES GROUP HOMES",,,,,,,,,,,,,,,,
"867","PURELEMENTS AN EVOLUTION IN DANCE INC",,,,,,,,,,,,,,,,
"868","SI BEHAVIORAL NETWORK INC",,,,,,,,,,,,,,,,
"869","COMMON GROUND MANAGEMENT CORP",,,,,,,,,,,,,,,,
"870","TEAM FIRST INC.",,,,,,,,,,,,,,,,
"871","WESTON UNITED COMMUNITY RENEWAL INC.",,,,,,,,,,,,,,,,
"872","PALLADIA, INC.","305 Seventh Avenue",,"Manhattan","New York","NY","10001","23-7089380","www.sus.org","40.746817","-73.993655","105","3","95","1015060","1008037502","Midtown-Midtown South"
"873","ART START INC",,,,,,,,,,,,,,,,
"874","KINGS BAY YM -YWHA INC",,,,,,,,,,,,,,,,
"875","MENTAL HEALTH PROVIDERS OF WESTERN QUEENS INC",,,,,,,,,,,,,,,,
"876","BETH ISRAEL MEDICAL CENTER",,,,,,,,,,,,,,,,
"877","HISPANIC AIDS FORUM, INC.",,,,,,,,,,,,,,,,
"878","WEST END RESIDENCES HDFC, INC.",,,,,,,,,,,,,,,,
"879","VIOLENCE INTERVENTION PROGRAM INC","P.O. Box 1161",,"Bronx","New York","NY","10035","13-3540337","www.vipmujeres.org",,,,,,,,
"880","KIPP ACADEMY CHARTER SCHOOL",,,,,,,,,,,,,,,,
"881","ST DOMINICS FAMILY SERVICES",,,,,,,,,,,,,,,,
"882","AMETHYST HOUSE INC.",,,,,,,,,,,,,,,,
"883","FUND FOR PUBLIC HEALTH IN NEW YORK INC",,,,,,,,,,,,,,,,
"884","BARRIER FREE LIVING INC","637 EAST 138 STREET","Basement","Bronx","Bronx","NY","10454","13-3059155","www.bflnyc.org","40.805828","-73.915128","201","8","2702","2119743","2025510040","Mott Haven-Port Morris"
"885","FEDCAP REHABILITATION SERVICES INC","633 Third Ave, 6th Fl",,,"New York","NY","10017","135645879","www.fedcap.org",,,,,,,,
"886","XPOSURE FOUNDATION INC.",,,,,,,,,,,,,,,,
"887","ICAHN SCHOOL OF MEDICINE AT MOUNT SINAI",,,,,,,,,,,,,,,,
"888","82ND STREET ACADEMICS",,,,,,,,,,,,,,,,
"889","CENTRAL QUEENS YM & YWHA INC",,,,,,,,,,,,,,,,
"890","PLAY STUDY WIN INC.",,,,,,,,,,,,,,,,
"891","ADDY SYSTEMS LLC",,,,,,,,,,,,,,,,
"892","CITY YEAR INC",,,,,,,,,,,,,,,,
"893","NEW YORK COUNTY HEALTH SERVICES REVIEW ORGANIZATIONS INC","199 Water St","27 Floor","Manhattan","New York","NY","10038","237379635",,"40.70727","-74.004314","101","1","1502","1001162","1000747501","Battery Park City-Lower Manhattan"
"894","Harriman Summer Camp, S-11 Inc",,,,,,,,,,,,,,,,
"895","AMERICAN INSTITUTES FOR RESEARCH IN THE BEHAVIORAL SCIENCES",,,,,,,,,,,,,,,,
"896","TOBY PROJECT INC",,,,,,,,,,,,,,,,
"897","BROWNSVILLE COMMUNITY DEVELOPMENT CORPORATION",,,,,,,,,,,,,,,,
"898","VARIETY BOYS AND GIRLS CLUB OF QUEENS INC",,,,,,,,,,,,,,,,
"899","FARMERS MARKET FEDERATION OF NY",,,,,,,,,,,,,,,,
"900","AMERICAN SOCIETY FOR THE PREVENTION OF CRUELTY TO ANIMALS",,,,,,,,,,,,,,,,
"901","VILLAGE CENTER FOR CARE","120 Broadway","Suite 2840","Manhattan","New York","NY","10271","13-2911059","www.facebook.com/villagecareny","40.708546","-74.011041","101","1","7","1001026","1000477501","Battery Park City-Lower Manhattan"
"902","STATEN ISLAND UNIVERSITY HOSPITAL",,,,,,,,,,,,,,,,
"903","NURSE FAMILY PARTNERSHIP",,,,,,,,,,,,,,,,
"904","ACACIA NETWORK HOUSING INC",,,,,,,,,,,,,,,,
"905","COMMUNITY HEALTHCARE NETWORK, INC.",,,,,,,,,,,,,,,,
"906","DIASPORA COMMUNITY SERVICES INC",,,,,,,,,,,,,,,,
"907","Brooklyn Plaza Medical Center, Inc.",,,,,,,,,,,,,,,,
"908","NEW YORK CITY HEALTH AND HOSP",,,,,,,,,,,,,,,,
"909","PARTNERSHIP FOR AFTER SCHOOL EDUCATION",,,,,,,,,,,,,,,,
"910","WILLIAM F RYAN COMMUNITY CENTER INC",,,,,,,,,,,,,,,,
"911","AFRICAN AMERICAN PLANNING COMMISSION INC","PO Box 330-707",,"Brooklyn","Brooklyn","NY","11233","11-3305070",,,,,,,,,
"912","RESEARCH FOUNDATION OF THE STATE UNIVERSITY OF NEW YORK",,,,,,,,,,,,,,,,
"913","RFRS RADIOLOGY PC RADIOLOGY FILM READING",,,,,,,,,,,,,,,,
"914","SUS-URGENT HOUSING PROGRAMS INC",,,,,,,,,,,,,,,,
"915","RYAN/CHELSEA-CLINTON CHC",,,,,,,,,,,,,,,,
"916","JAMAICA HOSPITAL MEDICAL CENTER",,,,,,,,,,,,,,,,
"918","OPUS DANCE THEATRE & COMMUNITY SERVICES, INC.",,,,,,,,,,,,,,,,
"919","INTERBOROUGH DEVELOPMENTAL & CONSULTATION  CENTER, INC.",,,,,,,,,,,,,,,,
"920","FRIENDS OF ISLAND ACADEMY INC","127 West 127th Street, Suite 127",,,"New York","NY","10027","133576756","friendsny.org",,,,,,,,
"921","ABT ASSOCIATES INC",,,,,,,,,,,,,,,,
"922","ECKERD YOUTH ALTERNATIVES INC",,,,,,,,,,,,,,,,
"923","SUPPORT CENTER FOR NONPROFIT MANAGEMENT INC",,,,,,,,,,,,,,,,
"925","FISCAL MANAGEMENT ASSOC, LLC",,,,,,,,,,,,,,,,
"926","FACES NY, INC.",,,,,,,,,,,,,,,,
"927","PEOPLE CARE INC.",,,,,,,,,,,,,,,,
"928","NEW YORK FOUNDATION FOR SENIOR CITIZENS HOME ATTENDANT SVC","11 park Ave","Suite 1416","Manhattan","New York","NY","10007","133083582",,"40.747378","-73.98111","106","2","72","1018515","1008900003","Murray Hill-Kips Bay"
"929","PERSONAL - TOUCH HOME CARE OF N.Y., INC.",,,,,,,,,,,,,,,,
"930","IRIS HOUSE: A CENTER FOR WOMEN LIVING WITH HIV, INC.",,,,,,,,,,,,,,,,
"931","GALLAGHER & CO. ADJUSTERS INC.",,,,,,,,,,,,,,,,
"932","FORESTDALE INC",,,,,,,,,,,,,,,,
"933","MORNINGSIDE RETIREMENT AND HEALTH SERVICES INC",,,,,,,,,,,,,,,,
"934","HEALTH RESEARCH INC",,,,,,,,,,,,,,,,
"935","NEW YORK FOUNDATION FOR SENIOR CITIZENS GUARDIAN SERVICES IN","11 Park Place","Suite 1116","Manhattan","New York","NY","10007","13-3501671","www.nyfsc.org","40.712828","-74.008296","101","1","21","1001399","1001240004","SoHo-TriBeCa-Civic Center-Little Italy"
"936","PENN SOUTH SOCIAL SERVICES INC",,,,,,,,,,,,,,,,
"937","GOTHAM PER DIEM INC",,,,,,,,,,,,,,,,
"938","HOUSING WORKS INC",,,,,,,,,,,,,,,,
"939","RIVERSIDE LANGUAGE PROGRAM INC",,,,,,,,,,,,,,,,
"940","VENTURE HOUSE INC",,,,,,,,,,,,,,,,
"941","RICHMOND HOME NEED SERVICES INC",,,,,,,,,,,,,,,,
"942","ALLEN WOMEN'S RESOURCE CENTER LTD","PO Box 340316",,"Queens","11434","NY","11434","11-2822398","awrcny.org",,,,,,,,
"943","EDEN II SCHOOL FOR AUTISTIC CHILDREN INC",,,,,,,,,,,,,,,,
"944","SPRING CREEK SENIOR PARTNERS, INC",,,,,,,,,,,,,,,,
"945","ASSOCIATION FOR NEUROGICALLY IMPAIRED BRAIN INJURED CHILDREN",,,,,,,,,,,,,,,,
"946","UNIVERSITY CONSULTATION AND TREATMENT CENTER FOR MENTAL HYGI",,,,,,,,,,,,,,,,
"947","EDUCATIONAL DATA SYSTEMS INC","15300 Commerce Drive North","Ste 200",,"Dearborn","MI","48120",,"https://www.edsisolutions.com/",,,,,,,,
"948","THE GUILD FOR EXCEPTIONAL CHILDREN INC",,,,,,,,,,,,,,,,
"950","COLUMBA SERVICES,  INC.",,,,,,,,,,,,,,,,
"951","CITYBRIDGE LLC",,,,,,,,,,,,,,,,
"952","EMPLOYMENT PROGRAM FOR RECOVERED ALCOHOLICS, INC",,,,,,,,,,,,,,,,
"953","THE CENTER FOR FAMILY SUPPORT, INC.",,,,,,,,,,,,,,,,
"954","CLINTON HOUSING DEVELOPMENT CO INC",,,,,,,,,,,,,,,,
"955","RUTGERS THE STATE UNIVERSITY OF NEW JERSEY",,,,,,,,,,,,,,,,
"956","AMERICA WORKS OF NEW YORK INC",,,,,,,,,,,,,,,,
"957","FREEDOM HOUSE FOR PEOPLE WITH DISABLILITIES, INC.",,,,,,,,,,,,,,,,
"958","Food First Family Project Inc",,,,,,,,,,,,,,,,
"959","COMPREHENSIVE YOUTH  DEVELOPMENT INC",,,,,,,,,,,,,,,,
"961","EMERGENCY SKILLS INC",,,,,,,,,,,,,,,,
"962","AMERICAN ITALIAN COALITION OF ORGANIZATIONS",,,,,,,,,,,,,,,,
"963","CONVENT AVENUE BAPTIST CHURCH",,,,,,,,,,,,,,,,
"965","ST JOHN/ST MATTHEW EMMANUEL LUTHERAN CHURCH Y",,,,,,,,,,,,,,,,
"967","NORTHWELL HEALTH LABORATORIES",,,,,,,,,,,,,,,,
"970","WOMEN'S PRISON ASSOCIATION & HOME INC",,,,,,,,,,,,,,,,
"973","EPILEPSY INSTITUTE",,,,,,,,,,,,,,,,
"974","EAST HARLEM COUNCIL FOR COMM IMPROVEMENT INC",,,,,,,,,,,,,,,,
"975","NEW YORK ROAD RUNNERS, INC.",,,,,,,,,,,,,,,,
"976","GOWANUS CANAL CONSERVANCY INC",,,,,,,,,,,,,,,,
"977","BROOKLYN KINGS COUNTY HISPANIC CHAMBER OF COMMERCE",,,,,,,,,,,,,,,,
"978","WNET",,,,,,,,,,,,,,,,
"979","QUEENS ECONOMIC DEVELOPMENT CORPORATION",,,,,,,,,,,,,,,,
"980","WESTCHESTER SQUARE DISTRICT MANAGEMENT ASSOCIATION INC",,,,,,,,,,,,,,,,
"982","Faith At Work Christian Church",,,,,,,,,,,,,,,,
"984","TEACHERS AND WRITERS COLLABORATIVE",,,,,,,,,,,,,,,,
"985","VOCAL VILLAGE INC",,,,,,,,,,,,,,,,
"987","ASTORIA PERFORMING ARTS CENTER INC",,,,,,,,,,,,,,,,
"988","HSS SCREENING AND EARLY DETECTION INC.",,,,,,,,,,,,,,,,
"989","GERRITSEN BEACH CARES INC",,,,,,,,,,,,,,,,
"990","SAKHI FOR SOUTH ASIAN WOMEN",,,,,,,,,,,,,,,,
"991","Tell Every Amazing Lady About Ovarian Cancer Louisa M McGre",,,,,,,,,,,,,,,,
"1002","Accion East, Inc.",,,,,,,,,,,,,,,,
"1016","CHINATOWN DISTRICT MANAGEMENT ASSOCIATION INC",,,,,,,,,,,,,,,,
"1022","NEW YORK SUN WORKS INC.",,,,,,,,,,,,,,,,
"1026","LEGAL MOMENTUM",,,,,,,,,,,,,,,,
"1028","INTERNATIONAL LANGUAGE SERVICES INC",,,,,,,,,,,,,,,,
"1030","THE NEW BRONX CHAMBER OF COMMERCE, INC.",,,,,,,,,,,,,,,,
"1031","BROOKLYN ARTS COUNCIL INC",,,,,,,,,,,,,,,,
"1038","MOSHOLU PRESERVATION CORP",,,,,,,,,,,,,,,,
"1044","BIG APPLE GREETER INC",,,,,,,,,,,,,,,,
"1052","EVERGREEN INC - YOUR NORTH BROOKLYN BUSINESS EXCHANGE",,,,,,,,,,,,,,,,
"1053","SUNNYSIDE DISTRICT MANAGEMENT ASSOCIATION INC",,,,,,,,,,,,,,,,
"1061","BELMONT DISTRICT MANAGEMENT ASSOCIATION INC",,,,,,,,,,,,,,,,
"1065","CHURCH AVE DMA",,,,,,,,,,,,,,,,
"1074","ALVIN AILEY DANCE FOUNDATION INC.",,,,,,,,,,,,,,,,
"1083","CARNEGIE HILL NEIGHBORS INC",,,,,,,,,,,,,,,,
"1088","WEST BRIGHTON COMMUNITY LOCAL DEVELOPMENT CORP",,,,,,,,,,,,,,,,
"1091","PUBLICOLOR INC",,,,,,,,,,,,,,,,
"1092","HARLEM BUSINESS ALLIANCE INC",,,,,,,,,,,,,,,,
"1099","CENTRAL FULTON STREET DISTRICT MANAGEMENT ASSOCIATION INC",,,,,,,,,,,,,,,,
"1100","VOLUNTEERS OF LEGAL SERVICE INC.",,,,,,,,,,,,,,,,
"1101","BROOKLYN ACADEMY OF MUSIC",,,,,,,,,,,,,,,,
"1104","ALLEN AME NEIGHBORHOOD PRESERVATION & DEVELOPMENT CORP",,,,,,,,,,,,,,,,
"1107","FOURTH ARTS BLOCK, INC.",,,,,,,,,,,,,,,,
"1108","NEW YORK WOMENS CHAMBER OF COMMERCE INC",,,,,,,,,,,,,,,,
"1109","UPPER WEST STRATEGIES LLC",,,,,,,,,,,,,,,,
"1111","20/20 VISION FOR SCHOOLS INC.",,,,,,,,,,,,,,,,
"1113","GROUNDSWELL COMMUNITY MURAL PROJECT INC.",,,,,,,,,,,,,,,,
"1117","STATEN ISLAND NFP ASSOCIATION INC",,,,,,,,,,,,,,,,
"1120","PURSUIT TRANSFORMATION COMPANY INC",,,,,,,,,,,,,,,,
"1124","BRIC ARTS MEDIA BKLYN, INC.",,,,,,,,,,,,,,,,
"1132","COUNCIL ON THE ENVIRONMENT INC",,,,,,,,,,,,,,,,
"1139","YOUTH REFERRAL & PLACEMENT UNIT INC",,,,,,,,,,,,,,,,
"1141","CITY UNIVERSITY OF NEW YORK SENIOR COLLEGES",,,,,,,,,,,,,,,,
"1146","HARLEM PARK TO PARK",,,,,,,,,,,,,,,,
"1147","WOODHAVEN DISTRICT MANAGEMENT ASSOCIATION INC",,,,,,,,,,,,,,,,
"1148","PRATT AREA COMMUNITY COUNCIL INC",,,,,,,,,,,,,,,,
"1152","FIFTH AVE ASSOCIATION BID",,,,,,,,,,,,,,,,
"1153","FLATBUSH AVE DMA",,,,,,,,,,,,,,,,
"1154","ROW NEW YORK INC",,,,,,,,,,,,,,,,
"1156","PITKIN AVENUE DISTRICT MANAGEMENT ASSOCIATION INC",,,,,,,,,,,,,,,,
