"site_id","planned_kiosk_type","installation_status_","ppt_id","legacy_id","borough","council_district","cb","final_submission_a_","gf_permit_appl_id","gf_doitt_submitted_to_cb_a","gf_cb_comment_period_ends_a","street_address","cross_street_1","cross_street_2","ixn_code","postcode","zoningnumb","longitude","latitude","greenfield_in_bid_location","bid","historic_district","historic_district_name","neighborhood_tabulation_area_nta","bin","bbl","census_tract","location_1"
"BX-07-GF22659","LINK5G_NonAd","PreCx",,,"Bronx","11","207","2022-10-28T00:00:00.000","81286","2023-01-04T00:00:00.000",,"3349 WEBSTER AVENUE","Parkside Pl","E GUN HILL ROAD","W","10467","C4-4","-73.8719758","40.8777564","No",,"0",,"Norwood",,"2033550121","BX-429.02","(40.8777564, -73.8719758)"
"BK-16-150013","LINK1.0","Installed",,,"Brooklyn","42","316","2022-01-28T00:00:00.000","90172","2022-04-08T00:00:00.000",,"455 DUMONT AVENUE","JUNIUS STREET","POWELL STREET","N","11212","M1-1","-73.902027","40.6652259","No",,"0",,"Brownsville","3084427","3037800044","BK-910","(40.6652259, -73.902027)"
"MN-03-123344","LINK5G_Ad","Live","123344","9092","Manhattan","1","103","2022-04-01T00:00:00.000",,,,"357 GRAND STREET","GRAND STREET","HESTER STREET","E","10002","C1-5","-73.9891563","40.7164842","No",,"0",,"Chinatown","1004034","1003100020","1001600","(40.7164842, -73.9891563)"
"BX-05-GF22626","LINK5G_Ad","PreCx",,,"Bronx","15","205","2022-11-17T00:00:00.000","90444","2023-01-04T00:00:00.000",,"363 EAST 180 STREET","E 180TH STREET","E 181ST STREET","W","10457","C2-4","-73.8983959","40.8520713","No",,"0",,"Mount Hope",,"2031430132","BX-379","(40.8520713, -73.8983959)"
"QU-12-124571","LINK5G_Ad","Live","124571","SC90851","Queens","27","412","2021-10-08T00:00:00.000",,,,"94-20 SUTPHIN BOULEVARD","95th Avenue","94th Avenue","E","11435","C6-3","-73.806622","40.698501","No",,"0",,"Jamaica","4213959","4099930025","4020800","(40.698501, -73.806622)"
"QU-12-123702","LINK5G_Ad","Live","123702","15000","Queens","27","412","2021-10-08T00:00:00.000",,,,"197-48 JAMAICA AVENUE","Carpenter Avenue","Woodhull Avenue","S","11423","C2-2","-73.7613347","40.7133328","No",,"0",,"Hollis","4231551","4108240011","4050000","(40.7133328, -73.7613347)"
"BK-01-125285","LINK5G_Ad","PreCx","125285","LINK-013131","Brooklyn","33","301","2022-09-23T00:00:00.000","90300","2023-01-04T00:00:00.000",,"640 MANHATTAN AVENUE","BEDFORD AVENUE","NASSAU AVENUE","E","11222","C2-4","-73.9509138","40.7241352","No",,"0",,"Greenpoint","3066103","3026470038","3056900","(40.7241352, -73.9509138)"
"BX-02-152007","LINK5G_Ad","Live","152007",,"Bronx","17","202","2021-11-30T00:00:00.000","90098","2022-02-11T00:00:00.000",,"888 Westchester Avenue","WESTCHESTER AVENUE","DAWSON STREET","W","10459","C1-4","-73.8989841","40.8208057","No",,"0",,"Longwood",,"2026960030","BX-87","(40.8208057, -73.8989841)"
"MN-12-120804","LINK5G_Ad","PreCx","120804","LINK-011457","Manhattan","10","112","2022-09-23T00:00:00.000","90312","2022-10-18T00:00:00.000",,"4188 BROADWAY","W 178 STREET","W 177 STREET","E","10033","C4-4","-73.9376337","40.8482081","No",,"0",,"Washington Heights South","1085811","1021450027","1026300","(40.8482081, -73.9376337)"
"QU-06-GF44814","LINK5G_NonAd","Planning",,,"Queens","29","406","2022-08-09T00:00:00.000","90228","2023-01-04T00:00:00.000",,"2 RUSSELL PLACE","Slocum Crescent","Childrens Lane","S","11375","R3-2","-73.8429278","40.716004","No",,"0",,"Forest Hills","4078312","4032700001","qu-723","(40.716004, -73.8429278)"
"QU-12-GF44584","LINK5G_Ad","Planning",,,"Queens","24","412","2022-09-23T00:00:00.000","90092",,,"139-01 JAMAICA AVENUE","139 STREET","144 STREET","S","11435","C2-4","-73.8129772","40.7026563","No",,"0",,"Briarwood-Jamaica Hills",,"4096730001","214","(40.7026563, -73.8129772)"
"QU-14-123776","LINK5G_Ad","PreCx","123776","SC90610","Queens","31","414","2021-10-08T00:00:00.000",,,,"2-29 BEACH 20TH STREET","Beach 20th Street","Fernside Place","S","11691","C1-2","-73.7544593","40.5972167","No",,"0",,"Far Rockaway-Bayswater","4301264","4157800075","4099801","(40.5972167, -73.7544593)"
"BK-01-GF34906","LINK5G_NonAd","Planning",,,"Brooklyn","33","301","2022-08-09T00:00:00.000","90319","2023-01-04T00:00:00.000",,"419 KENT AVENUE","SOUTH 8TH STREET","BROADWAY","E","11249","C4-3","-73.9684532","40.7101476","No",,"0",,"North Side-South Side","3059494","3021290001","bk-549","(40.7101476, -73.9684532)"
"BX-09-GF22757","LINK5G_Ad","Planning",,,"Bronx","18","209","2022-08-09T00:00:00.000","90205","2022-10-17T00:00:00.000",,"1400 EAST AVENUE","METROPOLITAN AVENUE","PARKCHESTER ROAD","N","10462","C4-2","-73.8601547","40.8355094","No",,"0",,"Parkchester","2096680","2039377501","bx-212","(40.8355094, -73.8601547)"
"QU-12-124531","LINK5G_Ad","Live","124531","LINK-012097","Queens","28","412","2021-10-08T00:00:00.000",,,,"152-21 ROCKAWAY BOULEVARD","Rockaway Boulevard","153rd Street","N","11436","C2-3","-73.7845002","40.6716896","No","Greater JFK","0",,"Baisley Park","4262729","4121040022","4078800","(40.6716896, -73.7845002)"
"QU-12-156461","LINK5G_Ad","Live",,,"Queens","27","412","2021-10-08T00:00:00.000","90096","2021-11-22T00:00:00.000","2022-01-24T00:00:00.000","204-01 HOLLIS AVENUE","HOLLIS AVENUE","109TH AVENUE","E","11412","C2-3","-73.753916","40.7068698","No",,"0",,"Hollis",,"4109070030","508","(40.7068698, -73.753916)"
"QU-03-132963","LINK5G_Ad","Installed","132963","85084","Queens","25","403","2022-03-08T00:00:00.000",,,,"76-23 37 AVENUE","76 STREET","77 STREET","N","11372","C1-3","-73.889197","40.7492916","No",,"0",,"Jackson Heights","4029578","4012760037","4028700","(40.7492916, -73.889197)"
"BK-02-126901","LINK5G_Ad","PreCx","126901","14142","Brooklyn","33","302","2022-09-23T00:00:00.000","78209","2022-10-18T00:00:00.000","2022-12-18T00:00:00.000","172 MONTAGUE STREET","MONTAGUE STREET","REMSEN STREET","E","11201","C5-2A","-73.992442","40.6941177","Yes","Montague Street","0",,"Brooklyn Heights-Cobble Hill","3002103","3002507501","3000900","(40.6941177, -73.992442)"
"BK-09-155704","LINK5G_Ad","Installed",,,"Brooklyn","35","309","2021-08-31T00:00:00.000","90036","2021-09-23T00:00:00.000","2021-11-22T00:00:00.000","1671 BEDFORD AVENUE","BEDFORD AVENUE","SULLIVAN PLACE","S","11225","C2-3","-73.9566925","40.6656564","No",,"0",,"Crown Heights South","3034360","3013040018","323","(40.6656564, -73.9566925)"
"MN-03-123448","LINK5G_Ad","Live","123448","10058","Manhattan","1","103","2022-04-01T00:00:00.000",,,,"94 BAYARD STREET","BAYARD STREET","CANAL STREET","W","10013","C6-1","-73.9993002","40.7160332","Yes","Chinatown","0",,"Chinatown","1002380","1001990027","1002900","(40.7160332, -73.9993002)"
"MN-08-119916","LINK5G_Ad","PreCx","119916","9361","Manhattan","4","108","2022-08-09T00:00:00.000","71860","2022-11-18T00:00:00.000",,"1190 MADISON AVENUE","EAST 87TH STREET","EAST 88TH STREET","W","10128","C1-5","-73.9583376","40.7816695","No",,"0",,"Upper East Side-Carnegie Hill","1046915","1440090014","1015002","(40.7816695, -73.9583376)"
"MN-12-145312","LINK5G_Ad","PreCx","145312","82036","Manhattan","10","112","2022-09-23T00:00:00.000","90314","2023-01-04T00:00:00.000",,"2145 AMSTERDAM AVENUE","W 166 STREET","W 167 STREET","East","10032","C2-4","-73.9375973","40.8387572","No",,"0",,"Washington Heights South","1062967","1021110083","1025100","(40.8387572, -73.9375973)"
"QU-02-124974","LINK1.0","Installed","124974","LINK-011561","Queens","26","402","2022-03-08T00:00:00.000",,,,"48-20 SKILLMAN AVENUE","49 STREET","48 STREET","S","11104","C1-3","-73.9154447","40.7462024","No",,"0",,"Hunters Point-Sunnyside-West Maspeth","4001199","4001350030","4025301","(40.7462024, -73.9154447)"
"BK-06-GF34900","LINK5G_NonAd","PreCx",,,"Brooklyn","38","306","2022-08-09T00:00:00.000","90409","2023-01-04T00:00:00.000",,"106 FERRIS STREET","COFFEY STREET","VAN DYKE STREET","W","11231","M2-1","-74.0170529","40.6780643","No",,"0",,"Carroll Gardens-Columbia Street-Red Hook","3008783","3005950052","bk-53","(40.6780643, -74.0170529)"
"BK-04-142063","LINK5G_Ad","Installed","142063","44022","Brooklyn","37","304","2022-05-13T00:00:00.000",,,,"457 KNICKERBOCKER AVENUE","GREENE AVENUE","MYRTLE AVENUE","N","11237","C4-3","-73.9184652","40.6989379","No",,"0",,"Bushwick North","3075418","3033000008","3043100","(40.6989379, -73.9184652)"
"QU-12-GF44699","LINK5G_Ad","PreCx",,,"Queens","27","412","2022-11-17T00:00:00.000","90457","2023-01-04T00:00:00.000",,"94-54 158TH STREET","158TH STREET","157TH STREET","NW","11433","M1-4","-73.7989451","40.699703","No",,"0",,"Jamaica","4598916","4101090031","QU-208","(40.699703, -73.7989451)"
"QU-13-GF44804","LINK5G_NonAd","PreCx",,,"Queens","31","413","2022-08-09T00:00:00.000","90229","2022-11-16T00:00:00.000",,"253-50 149 AVENUE","Weller Ln","253rd ST","S","11422","R3X","-73.734555","40.6529215","No",,"0",,"Rosedale","4290116","4136550001","qu-664","(40.6529215, -73.734555)"
"SI-01-145551","LINK1.0","Ready for Activation","145551","72000","Staten Island","49","501","2021-11-30T00:00:00.000",,,,"45 VICTORY BOULEVARD","VICTORY BOULEVARD","HYATT STREET","SW","10301","M1-1","-74.0771009","40.637984","No",,"0",,"Stapleton-Rosebank","5106796","5004870060","5002100","(40.637984, -74.0771009)"
"BK-05-GF34891","LINK5G_NonAd","PreCx",,,"Brooklyn","42","305","2022-08-09T00:00:00.000","90403","2023-01-04T00:00:00.000",,"350 DEWITT AVENUE","HINSDALE STREET","SNEDIKER AVENUE","S","11207","M1-1","-73.8967941","40.656038","No",,"0",,"East New York","3327060","3038830016","bk-1098","(40.656038, -73.8967941)"
"BK-04-150849","LINK1.0","Ready for Installation",,,"Brooklyn","34","304","2022-01-28T00:00:00.000","90160","2022-04-08T00:00:00.000",,"321 STARR STREET","CYPRESS AVENUE","ST NICHOLAS AVENUE","W","11237","M1-1","-73.9201161","40.7081743","No",,"0",,"Bushwick North","3072636","3031900037","BK-447","(40.7081743, -73.9201161)"
"QU-12-139037","LINK5G_Ad","Ready for Installation","139037","35067","Queens","27","412","2021-10-08T00:00:00.000",,,,"200-01 MURDOCK AVENUE","MURDOCK AVENUE","113TH AVENUE","E","11412","C1-3","-73.7547455","40.7002675","No",,"0",,"St. Albans","4235839","4109940023","4052000","(40.7002675, -73.7547455)"
"BK-09-126563","LINK5G_Ad","Live","126563","LINK-002453","Brooklyn","40","309","2021-08-31T00:00:00.000",,,,"660 FLATBUSH AVENUE","HAWTHORNE STREET","WESTBURY COURT","W","11225","C1-3","-73.9603383","40.6571638","No",,"0",,"Prospect Lefferts Gardens-Wingate","3114641","3050260223","3079802","(40.6571638, -73.9603383)"
"BK-02-GF34909","LINK5G_Ad","PreCx",,,"Brooklyn","35","302","2022-08-09T00:00:00.000","90322",,,"63 FLUSHING AVENUE BUILDING 123","5TH STREET","6TH STREET","S","11205","M3-1","-73.9733303","40.6999877","No",,"0",,"park-cemetery-etc-Brooklyn","3335177","3020310016","bk-543","(40.6999877, -73.9733303)"
"QU-01-GF44797","LINK5G_NonAd","Planning",,,"Queens","26","401","2022-08-09T00:00:00.000","90344","2023-01-04T00:00:00.000",,"40-39 CRESCENT STREET","41st Ave","40th Ave","East","11101","M1-2/R6A","-73.9389695","40.7522977","No",,"0",,"Queensbridge-Ravenswood-Long Island City","4004904","3004060008","qu-33","(40.7522977, -73.9389695)"
"BX-07-119711","LINK5G_Ad","PreCx","119711","LINK-011866","Bronx","11","207","2021-12-21T00:00:00.000",,,,"349 EAST GUN HILL ROAD","DECATUR AVENUE","HULL AVENUE","N","10467","C1-3","-73.8726646","40.8788455","Yes","Jerome-Gun Hill","0",,"Norwood","2018642","2033560164","2043100","(40.8788455, -73.8726646)"
"BX-10-GF22750","LINK5G_Ad","PreCx",,,"Bronx","13","210","2022-08-09T00:00:00.000","90198","2022-11-16T00:00:00.000",,"2521 WESTCHESTER AVENUE","Seabury Ave","Overing Street","N","10461","R6 / C2-4","-73.8440229","40.8391498","No",,"0",,"Van Nest-Morris Park-Westchester Square","2115147","2039800038","bx-200","(40.8391498, -73.8440229)"
"QU-02-GF44786","LINK5G_NonAd","PreCx",,,"Queens","26","402","2022-08-09T00:00:00.000","90417","2023-01-04T00:00:00.000",,"1-59 47TH AVENUE","5th St","Center Blvd","N","11101","M3-1","-73.9556439","40.7460143","No",,"0",,"Hunters Point-Sunnyside-West Maspeth","4534604","4000210040","qu-1","(40.7460143, -73.9556439)"
"MN-08-GF0909","LINK5G_NonAd","Planning",,,"Manhattan","4","108","2022-08-09T00:00:00.000","90248",,,"1105 PARK AVENUE","EAST 89TH STREET","EAST 90TH STREET","E","10128","R10","-73.955539","40.7821354","No",,"0","Park Avenue Historic District","Upper East Side-Carnegie Hill","1048105","1073930001","mn-148.02","(40.7821354, -73.955539)"
"QU-02-158449","LINK1.0","Installed",,,"Queens","26","402","2022-03-08T00:00:00.000","90193","2022-05-13T00:00:00.000",,"52-19 QUEENS BOULEVARD","53rd Street","52nd Street","N","11377","C2-3","-73.912044","40.7426365","No",,"0",,"Hunters Point-Sunnyside-West Maspeth",,,,"(40.7426365, -73.912044)"
"BK-04-109283","LINK5G_Ad","PreCx","109283","74101","Brooklyn","37","304","2022-09-23T00:00:00.000","68632","2023-01-04T00:00:00.000",,"1503 GATES AVENUE","GATES AVENUE","LINDEN STREET","N","11237","C2-3","-73.9133826","40.6985152","No",,"0",,"Bushwick North","3076498","3033360030","3043900","(40.6985152, -73.9133826)"
"BK-06-GF34904","LINK5G_NonAd","PreCx",,,"Brooklyn","38","306","2022-08-09T00:00:00.000","90317","2023-01-04T00:00:00.000",,"130 VAN BRUNT STREET","VAN BRUNT STREET","CONOVER STREET","N","11231","M1-1/R5","-74.0148937","40.6758529","No",,"0",,"Carroll Gardens-Columbia Street-Red Hook","3336674","3005970029","bk-53","(40.6758529, -74.0148937)"
"BX-02-GF22620","LINK5G_NonAd","PreCx",,,"Bronx","17","202","2022-10-28T00:00:00.000","90439","2023-01-04T00:00:00.000",,"576 PROSPECT AVENUE","FOX STREET","SOUTHERN BOULEVARD","E","10455","C1-4","-73.9041112","40.8129428","No",,"0",,"Longwood",,"2026830108","BX-83","(40.8129428, -73.9041112)"
"QU-12-GF44639","LINK5G_Ad","PreCx",,,"Queens","28","412","2022-11-17T00:00:00.000","90455","2023-01-04T00:00:00.000",,"156-12 TUSKEGEE AIRMEN WAY","156TH STREET","157TH STREET","S","11433","C2-4","-73.7984103","40.6975059","No",,"0",,"South Jamaica",,"4101240001","QN-254","(40.6975059, -73.7984103)"
"SI-01-154577","LINK5G_Ad","Installed",,,"Staten Island","49","501","2022-08-09T00:00:00.000",,,,"45 HYATT STREET","ST MARKS PLACE","CENTRAL AVE","N","10301","C4-2","-74.0776909","40.6417686","No",,"0",,"West New Brighton-New Brighton-St. George",,"5000080001","SI-3","(40.6417686, -74.0776909)"
"MN-05-122711","LINK5G_Ad","PreCx","122711","10511","Manhattan","4","105","2022-09-16T00:00:00.000","72698","2022-10-18T00:00:00.000",,"1335 6 AVENUE","WEST 53 STREET","WEST 54 STREET","West","10019","C6-6","-73.9790874","40.7619157","No",,"0",,"Midtown-Midtown South","1034522","1010067502","1010400","(40.7619157, -73.9790874)"
"QU-10-GF44812","LINK5G_NonAd","PreCx",,,"Queens","28","410","2022-08-09T00:00:00.000","90225","2022-11-16T00:00:00.000",,"133-40 131 STREET","135th Ave","133rd Ave","W","11420","R3-2","-73.8079134","40.6682571","No",,"0",,"South Ozone Park","4256188","4117900001","qu-818","(40.6682571, -73.8079134)"
"QU-12-GF44700","LINK5G_Ad","Planning",,,"Queens","28","412","2021-10-08T00:00:00.000",,,,"106-43 157 STREET","107TH AVENUE","TUSKEGEE AIRMEN WAY","East","11433","M1-4","-73.796699","40.6964959","No",,"0",,"South Jamaica","4539293","4101250136","QU-254","(40.6964959, -73.796699)"
"BK-09-156895","LINK5G_Ad","Live",,,"Brooklyn","41","309","2021-08-31T00:00:00.000","90010","2021-09-23T00:00:00.000","2021-11-22T00:00:00.000","386 UTICA AVENUE","CROWN STREET","MONTGOMERY STREET","W","11213","C1-3","-73.9315921","40.6651139","No",,"0",,"Crown Heights South","3000000","3034200004","355","(40.6651139, -73.9315921)"
"SI-01-125525","LINK5G_Ad","Live","125525","12320","Staten Island","49","501","2021-11-30T00:00:00.000",,,,"1161 VICTORY BOULEVARD","CLOVE ROAD","GLENWOOD AVENUE","N","10301","C2-1","-74.1033513","40.6166443","No",,"0",,"Grymes Hill-Clifton-Fox Hills","5015428","5006040010","5004700","(40.6166443, -74.1033513)"
"BK-16-GF34587","LINK5G_NonAd","PreCx",,,"Brooklyn","41","316","2022-11-17T00:00:00.000","90443","2023-01-04T00:00:00.000",,"98 BELMONT AVENUE","MOTHER GASTON BOULEVARD","CHRISTOPHER AVENUE","S","11212","R6","-73.9064478","40.6689514","No",,"0",,"Brownsville",,"3037430001","908","(40.6689514, -73.9064478)"
"QU-12-152196","LINK1.0","Installed",,,"Queens","24","412","2021-10-08T00:00:00.000","90090","2021-10-28T00:00:00.000","2021-12-27T00:00:00.000","160-10 89 AVENUE","89TH AVENUE","90TH AVENUE","W","11432","C4-5X","-73.7999467","40.7062332","No",,"0",,"Jamaica",,"4097580021","446.01","(40.7062332, -73.7999467)"
"BK-04-159328","LINK5G_Ad","Live",,"LINK-021129","Brooklyn","37","304","2021-08-31T00:00:00.000","90093","2021-09-23T00:00:00.000","2021-11-22T00:00:00.000","1493 MYRTLE AVENUE","MYRTLE AVENUE","IRVING AVENUE","E","11237","C2-3","-73.9159378","40.6992378","No",,"0",,"Bushwick North","3398663","3033180008","433","(40.6992378, -73.9159378)"
"QU-06-GF44813","LINK5G_NonAd","Planning",,,"Queens","29","406","2022-08-09T00:00:00.000","90244","2023-01-04T00:00:00.000",,"93-02 69 AVENUE","69th Ave","70th Ave","S","11375","R2","-73.8529012","40.7154214","No",,"0",,"Forest Hills","4076870","4032120001","qu-729","(40.7154214, -73.8529012)"
"MN-11-GF0922","LINK5G_NonAd","Planning",,,"Manhattan","9","111","2022-08-09T00:00:00.000","90260","2022-11-18T00:00:00.000",,"3 MT MORRIS PARK WEST","WEST 120TH STREET","WEST 121ST STREET","E","10027","R7-2","-73.9459282","40.8040174","No",,"0",,"East Harlem North","1090895","1017190001","mn-198","(40.8040174, -73.9459282)"
"QU-01-GF44791","LINK5G_NonAd","PreCx",,,"Queens","26","401","2022-08-09T00:00:00.000","90338","2023-01-04T00:00:00.000",,"41-01 21 STREET","41st Ave","Queens Plaza N","East","11101","M1-5","-73.9424521","40.7538272","No",,"0",,"Queensbridge-Ravenswood-Long Island City","4433415","3004110025","qu-33","(40.7538272, -73.9424521)"
"SI-01-150207","LINK1.0","Installed",,,"Staten Island","49","501","2021-11-30T00:00:00.000","90139","2022-02-11T00:00:00.000",,"255 HYLAN BOULEVARD","HYLAN BOULEVARD","CLIFTON AVENUE","E","10305","C1-1","-74.0708488","40.6120881","No",,"0",,"Stapleton-Rosebank",,"5028530001","SI-8","(40.6120881, -74.0708488)"
"QU-03-GF44818","LINK5G_NonAd","Planning",,,"Queens","22","403","2022-08-09T00:00:00.000","90350","2023-01-04T00:00:00.000",,"75-20 ASTORIA BOULEVARD","24TH AVENUE","ASTORIA BOULEVARD SOUTH","West","11370","M1-1","-73.8917786","40.7644442","No",,"0",,"Jackson Heights","4449317","4010270050","qu-309.04","(40.7644442, -73.8917786)"
"QU-12-128571","LINK5G_Ad","Installed","128571","LINK-014371","Queens","23","412","2021-10-08T00:00:00.000",,,,"204-02 HILLSIDE AVENUE","HILLSIDE AVE","89th AVENUE","E","11423","C1-2","-73.7609725","40.7202061","No",,"0",,"Jamaica Estates-Holliswood","4223608","4104970058","4047800","(40.7202061, -73.7609725)"
"BX-05-GF22641","LINK1.0","Planning",,,"Bronx","14","205","2021-11-30T00:00:00.000","90438",,,"189 WEST BURNSIDE AVENUE","HENNESSY PLACE","LORING PLACE SOUTH","E","10453","C2-4","-73.9152435","40.854196","No",,"0",,"University Heights-Morris Heights",,"2032280005","BX-245.02","(40.854196, -73.9152435)"
"QU-12-123883","LINK5G_Ad","Live","123883","25099","Queens","27","412","2021-10-08T00:00:00.000",,,,"110-30 FARMERS BOULEVARD","110th Road","Ilion Avenue","W","11412","C1-3","-73.7663008","40.7023712","No",,"0",,"St. Albans","4221968","4104360027","4040200","(40.7023712, -73.7663008)"
"BX-09-GF22758","LINK5G_NonAd","Planning",,,"Bronx","18","209","2022-08-09T00:00:00.000","90206","2022-10-17T00:00:00.000",,"2075 SAINT RAYMOND AVENUE","Dead End","Dead End","N","10462","R6 / C2-2","-73.8556717","40.8375763","No",,"0",,"Parkchester","2033973","2039430001","bx-210.02","(40.8375763, -73.8556717)"
"BX-02-144220","LINK5G_Ad","Live","144220","LINK-011666","Bronx","17","202","2021-11-30T00:00:00.000",,,,"783 BECK STREET","BECK STREET","KELLY STREET","W","10459","C1-4","-73.8979885","40.8172651","No",,"0",,"Hunts Point","2100984","2027090001","2008900","(40.8172651, -73.8979885)"
"MN-03-138880","LINK5G_Ad","Ready for Activation","138880","80073","Manhattan","2","103","2022-04-01T00:00:00.000",,,,"32 EAST 1ST STREET","EAST 1 STREET","EAST 2 STREET","E","10003","C6-2A","-73.9906027","40.7243982","No",,"0",,"East Village","1006068","1004420007","1003602","(40.7243982, -73.9906027)"
"QU-12-GF44605","LINK5G_Ad","PreCx",,,"Queens","27","412","2022-11-17T00:00:00.000","90451","2023-01-04T00:00:00.000",,"201-01 LINDEN BOULEVARD","201ST STREET","201 PLACE","N","11412","C1-3","-73.7511642","40.6948201","No",,"0",,"St. Albans",,"4110730010","530","(40.6948201, -73.7511642)"
"BK-12-108912","LINK5G_Ad","Live","108912","74051","Brooklyn","39","312","2021-11-30T00:00:00.000",,,,"4504 FORT HAMILTON PARKWAY","45TH STREET","46TH STREET","W","11219","C2-3","-73.9950117","40.6402437","No",,"0",,"Sunset Park East","3136623","3056140027","3011200","(40.6402437, -73.9950117)"
"QU-07-GF44798","LINK5G_Ad","PreCx",,,"Queens","19","407","2022-08-09T00:00:00.000","90345","2022-11-16T00:00:00.000",,"30-19 122 STREET","122ND STREET","123RD STREET","North","11354","M2-1","-73.8464649","40.7696857","No",,"0",,"College Point","4570021","4043500001","qu-907","(40.7696857, -73.8464649)"
"QU-12-GF44831","LINK5G_NonAd","Ready for Installation",,,"Queens","28","412","2022-08-09T00:00:00.000","90355",,,"161-11 132ND AVENUE","161ST STREET","GUY R BREWER BOULEVARD","N","11434","R6","-73.7778733","40.6747851","No",,"0",,"Springfield Gardens North","4619700","4122770002","qu-294","(40.6747851, -73.7778733)"
"MN-02-GF0921","LINK5G_NonAd","Planning",,,"Manhattan","1","102","2022-08-09T00:00:00.000","90259","2022-10-17T00:00:00.000",,"110 PRINCE STREET","GREENE STREET","WOOSTER STREET","S","10012","M1-5A","-73.999491","40.7250348","No",,"0","SoHo-Cast Iron Historic District","SoHo-TriBeCa-Civic Center-Little Italy","1007645","1005000021","mn-49","(40.7250348, -73.999491)"
"BX-02-153487","LINK5G_Ad","Live","153487",,"Bronx","8","202","2021-11-30T00:00:00.000","90095","2022-02-11T00:00:00.000",,"700 SOUTHERN BOULEVARD","SOUTHERN BOULEVARD","BRUCKNER BOULEVARD","N","10455","C8-3","-73.8988457","40.8134356","No",,"0",,"Longwood",,"2027290001","BX-85","(40.8134356, -73.8988457)"
"MN-03-107137","LINK5G_NonAd","Installed","107137","20285","Manhattan","2","103","2022-04-01T00:00:00.000",,,,"30 CLINTON STREET","EAST HOUSTON STREET","STANTON STREET","E","10002","C1-5","-73.9843396","40.7203916","No",,"0",,"Lower East Side","1088219","1003507502","1002201","(40.7203916, -73.9843396)"
"BX-09-GF22751","LINK5G_NonAd","Planning",,,"Bronx","18","209","2022-08-09T00:00:00.000","90199","2022-10-17T00:00:00.000",,"34 METROPOLITAN OVAL","Metropolitan Ave","BANGLA BAZAAR","S","10462","R6","-73.8589754","40.8376083","No",,"0",,"Parkchester","2096643","2039387501","bx-212","(40.8376083, -73.8589754)"
"QU-12-124000","LINK5G_Ad","Live","124000","15023","Queens","27","412","2021-10-08T00:00:00.000",,,,"198-01 HOLLIS AVENUE","198th Street","199th Street","N","11412","C1-3","-73.7595318","40.7064807","No",,"0",,"Hollis","4234133","4109390001","4050600","(40.7064807, -73.7595318)"
"BK-01-GF34839","LINK5G_Ad","Ready for Installation",,,"Brooklyn","34","301","2022-05-13T00:00:00.000",,,,"135 HAVEMEYER STREET","SOUTH 1ST STREET","SOUTH 2ND STREET","E","11211","C1-3","-73.9571476","40.712112",,,"0",,"North Side-South Side",,,,"(40.712112, -73.9571476)"
"QU-12-154544","LINK1.0","Installed",,,"Queens","27","412","2021-10-08T00:00:00.000","90063","2021-10-28T00:00:00.000","2021-12-27T00:00:00.000","187-07 HENDERSON AVENUE","187TH STREET","188TH STREET","North","11423","M1-1","-73.7705256","40.7079873","No",,"0",,"St. Albans","4220603","4103530085","QU-404","(40.7079873, -73.7705256)"
"QU-14-GF44724","LINK5G_Ad","PreCx",,,"Queens","31","414","2021-10-08T00:00:00.000","90051","2021-10-28T00:00:00.000","2021-12-27T00:00:00.000","1400 BRUNSWICK AVENUE","WHEATLEY AVENUE","MINTON STREET","NW","11691","M1-1","-73.7498878","40.6088994","No",,"0",,"Far Rockaway-Bayswater","4458193","4155290143","QU-1032","(40.6088994, -73.7498878)"
"BK-16-158252","LINK1.0","Installed",,,"Brooklyn","37","316","2021-08-31T00:00:00.000","90028","2021-09-23T00:00:00.000","2021-11-22T00:00:00.000","78 ROCKAWAY AVENUE","SUMPTER STREET","MARION STREET","E","11233","C2-3","-73.9114697","40.6811003","No",,"0",,"Ocean Hill","3041419","3015220070","369","(40.6811003, -73.9114697)"
"QU-03-GF44728","LINK5G_Ad","Ready for Cx",,,"Queens","25","403","2022-03-08T00:00:00.000","90198","2022-05-13T00:00:00.000",,"78-02 NORTHERN BOULEVARD","Northern Boulevard","34th Avenue","W","11372","C1-2","-73.8881803","40.7550681","No",,"0",,"Jackson Heights",,,,"(40.7550681, -73.8881803)"
"QU-14-123770","LINK5G_Ad","PreCx","123770","LINK-013145","Queens","31","414","2021-10-08T00:00:00.000",,,,"34-11 BEACH CHANNEL DRIVE","Beach Channel Drive","Seagrid Boulevard","N","11691","C2-2","-73.766801","40.5964798","No",,"0",,"Hammels-Arverne-Edgemere","4529835","4158070001","4099200","(40.5964798, -73.766801)"
"QU-12-GF44830","LINK5G_NonAd","PreCx",,,"Queens","28","412","2022-08-09T00:00:00.000","90354",,,"156-10 BAISLEY BOULEVARD","156TH STREET","155TH STREET","N","11434","R3X","-73.7818546","40.6728569","No",,"0",,"Springfield Gardens North","4266231","4122610001","qu-294","(40.6728569, -73.7818546)"
"QU-12-118523","LINK5G_Ad","Live","118523","85117","Queens","27","412","2021-10-08T00:00:00.000",,,,"129-21 MERRICK BOULEVARD","Eveleth Road","Zoller Road","N","11434","R5D/C13","-73.7633582","40.6806786","No",,"0",,,"4583759","4124940018","4036600","(40.6806786, -73.7633582)"
"BK-01-GF34907","LINK5G_NonAd","Planning",,,"Brooklyn","33","301","2022-08-09T00:00:00.000","90320","2023-01-04T00:00:00.000",,"26 SOUTH 9TH STREET","KENT AVENUE","WYTHE AVENUE","S","11249","R7A","-73.9682863","40.7091383","No",,"0",,"North Side-South Side","3395346","3021357508","bk-547","(40.7091383, -73.9682863)"
"QU-12-124537","LINK5G_Ad","PreCx",,,"Queens","28","412","2021-10-08T00:00:00.000",,,,"119-1 SUTPHIN BOULEVARD","Sutphin Boulevard","152nd Street","S","11434","CI-3/R5D","-73.7914308","40.6793049",,,"0",,"Baisley Park","4265172","4122100075","288.01","(40.6793049, -73.7914308)"
"BK-11-GF34845","LINK5G_Ad","Planning",,,"Brooklyn","44","311",,,,,"7124 BAY PARKWAY","72ND STREET","71ST STREET","West","11204","C1-3","-73.9855321","40.610041","No",,"0",,,"3158121","3061860047","BK-266","(40.610041, -73.9855321)"
"BX-09-GF22752","LINK5G_Ad","PreCx",,,"Bronx","18","209","2022-08-09T00:00:00.000","90372","2022-10-17T00:00:00.000",,"1530 UNION PORT ROAD","BANGLA BAZAAR","Metropolitan Oval","N","10462","R6 / C2-2","-73.8572265","40.836952","No",,"0",,"Parkchester","2096719","2039437501","bx-210.02","(40.836952, -73.8572265)"
"QU-12-157212","LINK5G_Ad","Installed",,,"Queens","27","412","2021-10-08T00:00:00.000","90079","2021-10-28T00:00:00.000","2021-12-27T00:00:00.000","175-06 HILLSIDE AVENUE","175TH STREET","Hillside Ave","E","11432","C2-4","-73.7876993","40.7116236","No",,"0",,"Jamaica",,"4098340010","QN-462","(40.7116236, -73.7876993)"
"BX-02-145543","LINK5G_Ad","PreCx","145543","LINK-011142","Bronx","17","202","2021-04-06T00:00:00.000",,,,"1089 LEGGETT AVENUE","BARRY STREET","BARRY STREET","N","10474","M1-2","-73.8955799","40.8120993","No",,"0",,"Hunts Point","2094342","2027360021","2009300","(40.8120993, -73.8955799)"
"QU-02-GF44795","LINK5G_NonAd","PreCx",,,"Queens","26","402","2022-08-09T00:00:00.000","90422","2023-01-04T00:00:00.000",,"4202 21 STREET","Queens Plaza S","43rd Ave","West","11101","M1-4","-73.9445042","40.7519755","No",,"0",,"Hunters Point-Sunnyside-West Maspeth","4005272","3004570175","qu-19","(40.7519755, -73.9445042)"
"QU-07-124356","LINK5G_Ad","Live","124356","SC90645","Queens","20","407","2022-03-08T00:00:00.000",,,,"138-02 NORTHERN BOULEVARD","UNION STREET","BOWNE STREET","S","11354","C1-2","-73.8279192","40.7638316","No",,"0",,"Flushing","4113289","4050100020","4086500","(40.7638316, -73.8279192)"
"BX-05-GF22629","LINK5G_Ad","PreCx",,,"Bronx","15","205","2022-11-17T00:00:00.000","90445","2023-01-04T00:00:00.000",,"2225 WEBSTER AVENUE","FORD STREET","E 182ND STREET","W","10457","C1-4","-73.8966296","40.8548186","No",,"0",,"Fordham South",,"2031430167","BX-383.02","(40.8548186, -73.8966296)"
"QU-13-GF44805","LINK5G_NonAd","PreCx",,,"Queens","23","413","2022-08-09T00:00:00.000","90238","2022-11-16T00:00:00.000",,"81-14 257TH STREET","82nd Ave","81st Ave","E","11004","R2A","-73.7133861","40.7406346","No",,"0",,"Glen Oaks-Floral Park-New Hyde Park","4178461","4087310004","qu-1579.02","(40.7406346, -73.7133861)"
"QU-12-151804","LINK5G_Ad","Live",,,"Queens","27","412","2021-10-08T00:00:00.000","90088","2021-10-28T00:00:00.000","2021-12-27T00:00:00.000","180-01 LINDEN BOULEVARD","180TH STREET","NEWBURG STREET","N","11434","C2-2","-73.7665646","40.6923012","No",,"0",,"St. Albans",,"4103150096","424","(40.6923012, -73.7665646)"
"BK-04-157709","LINK5G_Ad","Installed",,,"Brooklyn","37","304","2021-08-31T00:00:00.000","90005","2021-09-23T00:00:00.000","2021-11-22T00:00:00.000","289 CENTRAL AVENUE","BLEECKER STREET","GREENE AVENUE","N","11221","C1-3","-73.9208579","40.695701","No",,"0",,"Bushwick South","3325694","3032970001","419","(40.695701, -73.9208579)"
"BK-05-GF34892","LINK5G_NonAd","PreCx",,,"Brooklyn","42","305","2022-08-09T00:00:00.000","90404","2023-01-04T00:00:00.000",,"303 STANLEY AVENUE","Stanley Ave","Dewitt Ave","E","11207","M1-1","-73.8968261","40.6539504","No",,"0",,"East New York","3086087","3038820055","bk-1098","(40.6539504, -73.8968261)"
"MN-08-GF0912","LINK5G_NonAd","Planning",,,"Manhattan","4","108","2022-08-09T00:00:00.000","90251","2022-11-18T00:00:00.000",,"570 PARK AVENUE","E 63rd St","E 62nd St","W","10065","R10","-73.9682248","40.7653889","No",,"0","Upper East Side Historic District","Upper East Side-Carnegie Hill","1040900","1013770040","mn-114.01","(40.7653889, -73.9682248)"
"QU-13-GF44800","LINK5G_Ad","PreCx",,,"Queens","23","413","2022-08-09T00:00:00.000","90230","2022-11-16T00:00:00.000",,"256-17 HILLSIDE AVENUE","257th ST","256th ST","N","11004","R3-2 / C1-3","-73.7112252","40.736811","No",,"0",,"Glen Oaks-Floral Park-New Hyde Park","4179294","4087680001","qu-1579.02","(40.736811, -73.7112252)"
"BK-16-153189","LINK5G_Ad","Live","153189","LINK-025045","Brooklyn","41","316","2021-08-31T00:00:00.000","90037","2021-09-23T00:00:00.000","2021-11-22T00:00:00.000","18 BELMONT AVENUE","Thatford Ave","ROCKAWAY AVE","W","11212","C4-3","-73.9096658","40.6684808","No",,"0",,"Brownsville","3252309","3035220001","906","(40.6684808, -73.9096658)"
"QU-02-GF44782","LINK5G_NonAd","Planning",,,"Queens","26","402","2022-08-09T00:00:00.000","90413","2023-01-04T00:00:00.000",,"47-40 CENTER BOULEVARD","47th Rd","48th Ave","W","11101","M3-1","-73.9574313","40.7454643","No",,"0",,"Hunters Point-Sunnyside-West Maspeth","4594829","4000190021","qu-1","(40.7454643, -73.9574313)"
"QU-12-159306","LINK5G_Ad","Live",,,"Queens","27","412","2021-10-08T00:00:00.000","90086","2021-10-28T00:00:00.000","2021-12-27T00:00:00.000","107-17 MERRICK BOULEVARD","MERRICK BOULEVARD","169TH STREET","S","11433","C2-4","-73.7880885","40.6997274","No",,"0",,"South Jamaica",,"4102440001","QN-414","(40.6997274, -73.7880885)"
"BK-04-127500","LINK5G_Ad","Live","127500","SC90721","Brooklyn","34","304","2022-01-28T00:00:00.000",,,,"72 WYCKOFF AVENUE","HART STREET","SUYDAM STREET","S","11237","M1-1","-73.9201547","40.7048216","No",,"0",,"Bushwick North","3073257","3032210031","3044500","(40.7048216, -73.9201547)"
"MN-03-123340","LINK5G_Ad","Live","123340","SC90323","Manhattan","2","103","2022-04-01T00:00:00.000",,,,"553 GRAND STREET","MADISON STREET","JACKSON STREET","S","10002","C1-5","-73.9802017","40.7139606","No",,"0",,"Lower East Side","1003219","1002660065","MH-2.02","(40.7139606, -73.9802017)"
"MN-11-GF0929","LINK5G_NonAd","PreCx",,,"Manhattan","8","111","2022-08-09T00:00:00.000","90363","2022-11-18T00:00:00.000",,"420 EAST 111TH STREET","FDR Dr","A NEW STREET","S","10029","R7-2","-73.9357352","40.7918799","No",,"0",,"East Harlem South","1083956","1017010001","mn-162","(40.7918799, -73.9357352)"
"BK-04-GF34582","LINK1.0","PreCx",,,"Brooklyn","34","304","2022-09-23T00:00:00.000","90000","2023-01-04T00:00:00.000",,"797 BROADWAY","BROADWAY","BEAVER STREET","E","11206","C4-3","-73.9402678","40.6999535","No",,"0",,"Bushwick South","3319554","3031320008","389","(40.6999535, -73.9402678)"
"BX-02-GF22617","LINK1.0","Planning",,,"Bronx","17","202","2021-11-30T00:00:00.000",,,,"900 SOUTHERN BOULEVARD","SOUTHERN BOULEVARD","HUNTS POINT AVENUE","E","10459","C2-4","-73.892875","40.8194101","No",,"0",,"Hunts Point",,"2027350001","BX-89","(40.8194101, -73.892875)"
"QU-12-108654","LINK5G_Ad","Live","108654","75033","Queens","24","412","2021-10-08T00:00:00.000",,,,"139-04 HILLSIDE AVENUE","Hillside Avenue","88th Avenue","E","11435","C2-4","-73.8142522","40.7042216","No",,"0",,"Briarwood-Jamaica Hills","4207152","4096980017","4021400","(40.7042216, -73.8142522)"
"QU-12-128104","LINK5G_Ad","Live","128104","75017","Queens","27","412","2021-10-08T00:00:00.000",,,,"116-52 FARMERS BOULEVARD","Linden Boulevard","Dunkirk Drive","W","11412","C1-3","-73.7625217","40.6920908","No",,"0",,"St. Albans","4238205","4110590001","4052800","(40.6920908, -73.7625217)"
"QU-02-GF44787","LINK5G_NonAd","PreCx",,,"Queens","26","402","2022-08-09T00:00:00.000","90334","2023-01-04T00:00:00.000",,"2-40 51 AVENUE","5th St","2nd St","North","11101","M1-4/R6B","-73.9569744","40.7420554","No",,"0",,"Hunters Point-Sunnyside-West Maspeth","4000011","4000157501","qu-1","(40.7420554, -73.9569744)"
"BK-15-143013","LINK5G_Ad","Ready for Installation","143013","34053","Brooklyn","48","315","2022-05-13T00:00:00.000",,,,"2487 CONEY ISLAND AVENUE","AVENUE V","AVENUE U","East","11223","C1-3","-73.9609089","40.5963224","No",,"0",,"Homecrest","3336720","3073430045","3058200","(40.5963224, -73.9609089)"
"BX-05-119612","LINK5G_Ad","Live","119612","LINK-013113","Bronx","14","205","2021-11-30T00:00:00.000",,,,"127 WEST BURNSIDE AVENUE","ANDREWS AVENUE SOUTH","LORING PLACE SOUTH","N","10453","C2-4","-73.9140421","40.8539059","No",,"0",,"University Heights-Morris Heights","2118358","2032160002","2024502","(40.8539059, -73.9140421)"
"SI-01-GF55246","LINK5G_Ad","PreCx",,,"Staten Island","49","501","2022-10-28T00:00:00.000","90431","2023-01-04T00:00:00.000",,"224 RICHMOND TERRACE","NICHOLAS STREET","STUYVESANT PLACE","S","10301","C2-2","-74.0804804","40.6471486","No",,"0",,"West New Brighton-New Brighton-St. George","5000107","5000130060","SI-7","(40.6471486, -74.0804804)"
"SI-01-154026","LINK5G_Ad","Live",,,"Staten Island","49","501","2021-11-30T00:00:00.000","90137","2022-02-11T00:00:00.000",,"1670 VICTORY BOULEVARD","VICTORY BOULEVARD","WINDSOR ROAD","W","10314","C1-1","-74.1192244","40.6131774","No",,"0",,"Westerleigh",,"5007080018","SI-169.01","(40.6131774, -74.1192244)"
"QU-12-GF44667","LINK5G_Ad","PreCx",,,"Queens","27","412","2022-11-17T00:00:00.000","90456","2023-01-04T00:00:00.000",,"168-20 HILLSIDE AVENUE","HILLSIDE AVENUE","88TH AVENUE","W","11432","C2-4","-73.7938513","40.7101577","No",,"0",,"Jamaica",,"4098210011","QN-460","(40.7101577, -73.7938513)"
"QU-07-GF44821","LINK5G_Ad","PreCx",,,"Queens","19","407","2022-08-09T00:00:00.000","90353","2022-11-16T00:00:00.000",,"29-14 122 STREET","122ND STREET","120TH STREET","North","11354","M2-1","-73.8467208","40.7713869","No",,"0",,"College Point","4100714","4043180020","qu-907","(40.7713869, -73.8467208)"
"SI-01-125538","LINK5G_Ad","PreCx","125538","12322","Staten Island","49","501","2021-11-30T00:00:00.000",,,,"425 BAY STREET","CLINTON STREET","BALTIC STREET","SE","10301","M1-1","-74.075901","40.6318356","No",,"0",,"Stapleton-Rosebank","5013178","5004880065","5002100","(40.6318356, -74.075901)"
"MN-08-121978","LINK5G_NonAd","PreCx","121978","9369","Manhattan","4","108","2022-08-09T00:00:00.000","72173","2022-11-18T00:00:00.000",,"688 MADISON AVENUE","E 62 St","E 61 St","W","10065","C5-1","-73.9702189","40.7653757","Yes","Madison Avenue","1","Upper East Side Historic District","Upper East Side-Carnegie Hill","1040861","1013760051","1011401","(40.7653757, -73.9702189)"
"BK-02-126850","LINK5G_Ad","Live","126850","14138","Brooklyn","33","302","2022-03-08T00:00:00.000",,,,"210 LIVINGSTON STREET","HOYT STREET","ELM PLACE","S","11201","C6-4","-73.985594","40.689497","Yes","Court-Livingston-Schermerhorn","0",,"DUMBO-Vinegar Hill-Downtown Brooklyn-Boerum Hill","3000495","3001650001","3003700","(40.689497, -73.985594)"
"QU-02-137493","LINK1.0","Installed","137493","8060","Queens","26","402","2022-03-08T00:00:00.000",,,,"51-05 SKILLMAN AVENUE","51st Street","52nd Street","N","11377","C1-3","-73.9130555","40.7460577","No",,"0",,"Hunters Point-Sunnyside-West Maspeth","4000887","4001280072","QN-169","(40.7460577, -73.9130555)"
"BK-09-153360","LINK5G_Ad","Live","153360",,"Brooklyn","35","309","2021-08-31T00:00:00.000","90041","2021-09-23T00:00:00.000","2021-11-22T00:00:00.000","402 EASTERN PARKWAY","EASTERN PARKWAY","UNION STREET","S","11225","C8-2","-73.955285","40.6697913","No",,"0",,"Crown Heights South","3032886","3012670001","323","(40.6697913, -73.955285)"
"MN-12-120784","LINK5G_NonAd","PreCx","120784","12103","Manhattan","10","112","2022-10-28T00:00:00.000","77947","2023-01-04T00:00:00.000",,"800 WEST 181 STREET","PINEHURST AVENUE","FORT WASHINGTON AVENUE","NE","10033","C1-4","-73.9384373","40.8507504","Yes",,"0",,"Washington Heights South","1064275","1021760104","1026500","(40.8507504, -73.9384373)"
"MN-03-123419","LINK5G_Ad","Ready for Activation","123419","10100","Manhattan","2","103","2022-04-01T00:00:00.000",,,,"191 AVENUE A","EAST 12TH STREET","EAST 11TH STREET","W","10009","C2-5","-73.9814896","40.7290116","No",,"0",,"East Village","1077672","1004390028","MH-34","(40.7290116, -73.9814896)"
"BX-07-119692","LINK1.0","PreCx","119692","13070","Bronx","11","207","2021-08-06T00:00:00.000",,,,"65 EAST GUN HILL ROAD","DEKALB AVENUE","ROCHAMBEAU AVENUE","N","10467","C1-3","-73.8799927","40.8820398","Yes","Jerome-Gun Hill","0",,"Norwood","2017818","2033280135","2043100","(40.8820398, -73.8799927)"
"SI-01-GF55207","LINK5G_NonAd","Planning",,,"Staten Island","49","501",,"90432","2023-01-04T00:00:00.000",,"545 PORT RICHMOND AVENUE","BEEKMAN STREET","WALKER STREET","E","10302","C2-2","-74.1406262","40.629563","No",,"0",,"Port Richmond",,"5010560017","SI-247","(40.629563, -74.1406262)"
"QU-12-138198","LINK5G_Ad","Live","138198","35088","Queens","28","412","2021-10-08T00:00:00.000",,,,"117-04 GUY R BREWER BLVD","Foch Boulevard","118th Avenue","W","11434","C1-3","-73.7830247","40.6841092","No",,"0",,"Baisley Park","4542466","4122400019","4028800","(40.6841092, -73.7830247)"
"BX-10-GF22749","LINK5G_Ad","PreCx",,,"Bronx","18","210","2022-08-09T00:00:00.000","90366","2022-11-16T00:00:00.000",,"2365 WATERBURY AVENUE","Zerega Ave","Havemeyer Ave","N","10462","M1-2","-73.8456956","40.8349727","No",,"0",,"Westchester-Unionport","2103494","2038340070","bx-96","(40.8349727, -73.8456956)"
"QU-08-156954","LINK5G_Ad","Installed",,,"Queens","24","408","2022-03-08T00:00:00.000","90203","2022-05-13T00:00:00.000",,"139-01 QUEENS BOULEVARD","87th Avenue","Hillside Avenue","E","11435","C4-3","-73.8164285","40.7063056","No",,"0",,"Briarwood-Jamaica Hills",,,,"(40.7063056, -73.8164285)"
"BK-16-158935","LINK1.0","Installed",,,"Brooklyn","42","316","2022-01-28T00:00:00.000","90175","2022-04-08T00:00:00.000",,"9829 DITMAS AVENUE","BRISTOL STREET","CHESTER STREET","N","11236","M1-1","-73.9079935","40.6525475","No",,"0",,"Brownsville","3083057","3036420001","BK-922","(40.6525475, -73.9079935)"
"QU-02-GF44783","LINK5G_NonAd","Planning",,,"Queens","26","402","2022-08-09T00:00:00.000","90414","2023-01-04T00:00:00.000",,"45-45 CENTER BOULEVARD (A)","Center Blvd","5th St","S","11109","M3-1","-73.9564349","40.7484385","No",,"0",,"Hunters Point-Sunnyside-West Maspeth","4541713","4000210020","qu-1","(40.7484385, -73.9564349)"
"QU-03-GF44819","LINK5G_NonAd","PreCx",,,"Queens","22","403","2022-08-09T00:00:00.000","90351","2023-01-04T00:00:00.000",,"75-20 ASTORIA BOULEVARD","ASTORIA BOULEVARD SOUTH","25TH AVENUE","E","11370","M1-1","-73.8948328","40.7642912","No",,"0",,"Jackson Heights","4307280","4010270050","qu-309.04","(40.7642912, -73.8948328)"
"BX-05-119607","LINK5G_Ad","Live","119607","LINK-011708","Bronx","14","205","2021-11-30T00:00:00.000",,,,"48 EAST 183 STREET","EAST 182 STREET","WALTON AVE","E","10453","C8-3","-73.9028148","40.8582102","No",,"0",,"Fordham South","2014064","2031860059","2023900","(40.8582102, -73.9028148)"
"MN-12-120835","LINK5G_Ad","PreCx","120835","12120","Manhattan","10","112","2022-09-23T00:00:00.000","90313","2022-10-18T00:00:00.000",,"3849 10 AVENUE","W 206 STREET","W 205 STREET","E","10034","C1-4","-73.9194076","40.8636019","No",,"0",,"Marble Hill-Inwood","1081909","1022020005","1029300","(40.8636019, -73.9194076)"
"BK-02-GF34817","LINK5G_NonAd","Planning",,,"Brooklyn","33","302","2022-05-13T00:00:00.000",,,,"96 3 AVENUE","BERGEN STREET","DEAN STREET","W","11217","C2-4","-73.981965","40.6836081",,,"0",,"DUMBO-Vinegar Hill-Downtown Brooklyn-Boerum Hill",,,,"(40.6836081, -73.981965)"
"MN-02-GF0915","LINK5G_NonAd","PreCx",,,"Manhattan","3","102","2022-08-09T00:00:00.000","90254","2022-10-18T00:00:00.000",,"445 WEST STREET","WEST STREET","WASHINGTON STREET","S","10014","C6-3","-74.009586","40.7369267","No",,"0",,"West Village","1012047","1006390001","mn-79","(40.7369267, -74.009586)"
"BK-06-GF34899","LINK5G_NonAd","PreCx",,,"Brooklyn","38","306","2022-08-09T00:00:00.000","90408","2023-01-04T00:00:00.000",,"184 CONOVER STREET","WOLCOTT STREET","DIKEMAN STREET","W","11231","M2-1","-74.0142949","40.6781059","No",,"0",,"Carroll Gardens-Columbia Street-Red Hook","3008589","3005740023","bk-53","(40.6781059, -74.0142949)"
"MN-03-107770","LINK5G_Ad","PreCx","107770","20275","Manhattan","1","103","2022-09-23T00:00:00.000","90305","2023-01-04T00:00:00.000",,"263 GRAND STREET","FORSYTH STREET","CHRYSTIE STREET","S","10002","C6-1G","-73.9932899","40.7178925","Yes","Lower East Side BID","0",,"Chinatown","1003957","1003020001","MH16","(40.7178925, -73.9932899)"
"BK-16-158025","LINK1.0","Installed",,,"Brooklyn","42","316","2022-01-28T00:00:00.000","90173","2022-04-08T00:00:00.000",,"508 JUNIUS STREET","JUNIUS STREET","POWELL STREET","S","11212","M1-1","-73.9012035","40.6620465","No",,"0",,"Brownsville","3085323","3038310025","BK-918","(40.6620465, -73.9012035)"
"MN-02-GF0914","LINK5G_NonAd","Planning",,,"Manhattan","3","102","2022-08-09T00:00:00.000","90253","2022-10-18T00:00:00.000",,"771 GREENWICH STREET","BETHUNE STREET","BANK STREET","E","10014","C1-6","-74.0064375","40.7368473","No",,"0","Greenwich Village Historic District","West Village","1011368","1006240001","mn-79","(40.7368473, -74.0064375)"
"QU-12-123858","LINK5G_Ad","Live","123858","65000","Queens","27","412","2021-10-08T00:00:00.000",,,,"115-01 FARMERS BOULEVARD","115th Avenue","115th Road","S","11412","C2-3","-73.7612345","40.6959752","No",,"0",,"St. Albans","4237303","4110320001","4052600","(40.6959752, -73.7612345)"
"BX-05-GF22639","LINK5G_Ad","PreCx",,,"Bronx","14","205","2022-11-17T00:00:00.000","90448","2023-01-04T00:00:00.000",,"132 FEATHERBED LANE","PIMPTON AVENUE","NELSON AVENUE","S","10452","C1-4","-73.9204016","40.8461538","No",,"0",,"University Heights-Morris Heights",,"2028740091","BX-213.01","(40.8461538, -73.9204016)"
"QU-12-124001","LINK5G_Ad","Live","124001","SC90619","Queens","27","412","2021-10-08T00:00:00.000",,,,"201-08 HOLLIS AVENUE","Hollis Avenue","111th Avenue","E","11412","C1-3","-73.7563366","40.706075","No",,"0",,"Hollis","4234180","4109400109","4050800","(40.706075, -73.7563366)"
"BK-01-GF34852","LINK5G_Ad","Planning",,,"Brooklyn","33","301","2022-05-13T00:00:00.000",,,,"432 BROADWAY","BROADWAY","HARRISON AVENUE","E","11211","C8-2","-73.9529817","40.7065604","No",,"0",,,"3060469","3022140016","BK-529","(40.7065604, -73.9529817)"
"QU-12-154602","LINK5G_Ad","Installed",,,"Queens","27","412","2021-10-08T00:00:00.000","90070","2021-10-28T00:00:00.000","2021-12-27T00:00:00.000","169-28 HILLSIDE AVENUE","HILLSIDE AVENUE","88th AVENUE","W","11432","C2-4","-73.7919904","40.7108963","No",,"0",,"Jamaica","4310519","4098250021","QU-460","(40.7108963, -73.7919904)"
"QU-03-155735","LINK5G_Ad","Installed",,"LINK-020945","Queens","25","403","2022-03-08T00:00:00.000","90200","2022-05-13T00:00:00.000",,"87-10 NORTHERN BOULEVARD","Northern Boulevard","34th Avenue","W","11372","C1-2","-73.8798207","40.7559636","No",,"0",,"Jackson Heights",,"4014350001",,"(40.7559636, -73.8798207)"
"QU-14-GF44685","LINK5G_Ad","PreCx",,,"Queens","31","414","2022-11-17T00:00:00.000","90458","2023-01-04T00:00:00.000",,"71-02 BEACH CHANNEL DRIVE","AMSTEL BOULEVARD","BEACH 72 STREET","West","11692","C8-1","-73.7998812","40.5923583","No",,"0",,"Hammels-Arverne-Edgemere",,"4160760001","QU-954","(40.5923583, -73.7998812)"
"QU-13-GF44801","LINK5G_Ad","PreCx",,,"Queens","23","413","2022-08-09T00:00:00.000","90231","2022-11-16T00:00:00.000",,"260-03 HILLSIDE AVENUE","260th ST","261st ST","N","11004","R3-2 / C1-3","-73.7081442","40.737472","No",,"0",,"Glen Oaks-Floral Park-New Hyde Park","4179429","4087720156","qu-1579.02","(40.737472, -73.7081442)"
"MN-12-120591","LINK5G_Ad","PreCx","120591","LINK-011330","Manhattan","10","112","2022-09-23T00:00:00.000","90311","2022-10-18T00:00:00.000",,"2178 AMSTERDAM AVENUE","W 168 STREET","W 167 STREET","W","10032","C2-4","-73.9371103","40.8397902","No",,"0",,"Washington Heights South","1000000","1021230094","1024900","(40.8397902, -73.9371103)"
"BK-04-GF34578","LINK5G_NonAd","PreCx",,,"Brooklyn","34","304","2022-10-28T00:00:00.000","90437","2023-01-04T00:00:00.000",,"908 FLUSHING AVENUE","FLUSHING AVENUE","MONTIETH STREET","W","11206","C2-4","-73.9353242","40.7021363","No",,"0",,"Bushwick South",,"3031390021","391","(40.7021363, -73.9353242)"
"BK-04-GF34693","LINK5G_Ad","PreCx",,,"Brooklyn","34","304","2022-11-17T00:00:00.000","90442","2023-01-04T00:00:00.000",,"586 HART STREET","EVERGREEN AVENUE","MYRTLE AVENUE","S","11221","C2-3","-73.9286668","40.6972342","No",,"0",,"Bushwick South","3814523","3032270007","BK-423","(40.6972342, -73.9286668)"
"MN-03-138887","LINK5G_Ad","Ready for PreCx","138887","80061","Manhattan","2","103","2023-02-10T00:00:00.000",,,,"57 AVENUE A","EAST 4 STREET","EAST 3 STREET","E","10009","C2-5","-73.985023","40.7241667","No",,"0",,"East Village","1005761","1003990008","1003200","(40.7241667, -73.985023)"
"QU-12-154374","LINK5G_Ad","Live",,,"Queens","28","412","2021-10-08T00:00:00.000","90080","2021-10-28T00:00:00.000","2021-12-27T00:00:00.000","153-21 ROCKAWAY BOULEVARD","ROCKAWAY BOULEVARD","135TH AVENUE","S","11434","C2-2","-73.7829113","40.6701549","Yes","Greater JFK","0",,"Springfield Gardens North",,"4122920001","QN-294","(40.6701549, -73.7829113)"
"BK-06-GF34903","LINK5G_NonAd","PreCx",,,"Brooklyn","38","306","2022-08-09T00:00:00.000","90316","2023-01-04T00:00:00.000",,"84 BEARD STREET","BEARD STREET","VAN DYKE STREET","E","11231","M1-2","-74.0136956","40.6741868","No",,"0",,"Carroll Gardens-Columbia Street-Red Hook","3008860","3006050001","bk-53","(40.6741868, -74.0136956)"
"MN-08-GF0925","LINK5G_NonAd","Planning",,,"Manhattan","4","108","2022-08-09T00:00:00.000","90360","2022-11-16T00:00:00.000",,"1283 YORK AVENUE","EAST 68TH STREET","EAST 69TH STREET",,"10065","R10","-73.955641","40.7644346","No",,"0",,"Lenox Hill-Roosevelt Island","1090254","1014630021","mn-116","(40.7644346, -73.955641)"
"QU-12-GF44594","LINK5G_Ad","PreCx",,,"Queens","27","412","2022-11-17T00:00:00.000","90450","2023-01-04T00:00:00.000",,"187-17 JAMAICA AVENUE","187 Place","188 St","N","11423","C2-4","-73.7716169","40.7104541","No",,"0",,"Jamaica",,"4099090001","480","(40.7104541, -73.7716169)"
"BK-14-GF34846","LINK5G_Ad","Planning",,,"Brooklyn","40","314","2022-05-13T00:00:00.000",,,,"510 OCEAN AVENUE","OCEAN AVENUE","ST PAULS PLACE","North","11226","C2-4","-73.9612236","40.6501159","Yes","Church Avenue BID","0",,,"3116542","3050800068","BK-508.01","(40.6501159, -73.9612236)"
"QU-01-GF44792","LINK5G_Ad","Planning",,,"Queens","26","401","2022-08-09T00:00:00.000","90339",,,"22-09 QUEENS PLAZA NORTH","Queens Plaza N","41st Ave","East","11101","M1-5","-73.9425724","40.7521201","Yes","Long Island City","0",,"Queensbridge-Ravenswood-Long Island City","4004978","3004120001","qu-33","(40.7521201, -73.9425724)"
"QU-13-115284","LINK5G_Ad","PreCx","115284","75028","Queens","31","413","2022-08-09T00:00:00.000","19633","2022-11-16T00:00:00.000",,"138-89 FRANCIS LEWIS BOULEVARD","Francis Lewis Blvd","138th Ave","E","11422","C1-3","-73.7366105","40.6668975","No",,"0",,"Rosedale","4284715","4132560010","4063800","(40.6668975, -73.7366105)"
"BK-03-144136","LINK5G_Ad","Live","144136","LINK-002343","Brooklyn","41","303","2022-05-13T00:00:00.000",,,,"1986 FULTON STREET","FULTON STREET","HERKIMER STREET","E","11233","C2-4","-73.9189999","40.6785723","No",,"0",,"Ocean Hill","3042094","3015490001","3030100","(40.6785723, -73.9189999)"
"MN-03-139615","LINK5G_Ad","PreCx","139615","LINK-012562","Manhattan","2","103","2022-09-23T00:00:00.000","90310","2023-01-04T00:00:00.000",,"23 3 AVENUE","ASTOR PLACE","STUYVESANT STREET","E","10003","C6-3","-73.9896901","40.7296398","Yes","Village Alliance BID","0",,"East Village","1089443","1004640001","MH-42","(40.7296398, -73.9896901)"
"MN-12-GF0873","LINK5G_NonAd","PreCx",,,"Manhattan","10","112","2022-08-09T00:00:00.000","90245","2022-10-18T00:00:00.000",,"689 FT WASHINGTON AVENUE","CABRINI BOULEVARD","FORT WASINGTON AVENUE","N","10040","R7-2","-73.9363867","40.8573541","No",,"0",,"Washington Heights North","1064372","1021790500","MH-273","(40.8573541, -73.9363867)"
"QU-02-GF44781","LINK5G_Ad","Planning",,,"Queens","26","402","2022-08-09T00:00:00.000","90412","2023-01-04T00:00:00.000",,"1-50 50 AVENUE","51ST AVENUE","50TH AVENUE","East","11101","R10 / C2-5","-73.9596154","40.7432517","No",,"0",,"Hunters Point-Sunnyside-West Maspeth","4541370","4000067502","qu-1","(40.7432517, -73.9596154)"
"BK-04-127501","LINK5G_Ad","Live","127501","14173","Brooklyn","37","304","2022-01-28T00:00:00.000",,,,"160 WYCKOFF AVENUE","HARMAN STREET","HIMROD STREET","S","11237","C1-3","-73.9164953","40.7025384","No",,"0",,"Bushwick North","3074548","3032700038","3044300","(40.7025384, -73.9164953)"
"BK-06-GF34902","LINK5G_NonAd","PreCx",,,"Brooklyn","38","306","2022-08-09T00:00:00.000","90315","2023-01-04T00:00:00.000",,"44 FERRIS STREET","SULLIVAN STREET","WOLCOTT STREET","W","11231","M2-1","-74.0151821","40.6796566","No",,"0",,"Carroll Gardens-Columbia Street-Red Hook","3008522","3005140001","bk-53","(40.6796566, -74.0151821)"
"QU-12-GF44695","LINK5G_Ad","Planning",,,"Queens","24","412","2022-09-23T00:00:00.000","90430","2022-11-17T00:00:00.000",,"145-04 JAMAICA AVENUE","145 STREET","146 STREET","South","11435","C2-4","-73.8098486","40.7019047","No",,"0",,"Jamaica","4206733","4099850010","QU-240","(40.7019047, -73.8098486)"
"QU-12-GF44717","LINK1.0","Planning",,,"Queens","24","412","2022-09-23T00:00:00.000","90441","2022-11-17T00:00:00.000",,"139-19 ARCHER AVENUE","143 STREET","139 STREET","N","11435","C4-4","-73.8107489","40.6996044","No",,"0",,"Jamaica","4213862","4099840017","QU-212","(40.6996044, -73.8107489)"
"BK-10-GF34914","LINK5G_NonAd","Ready for PreCx",,,"Brooklyn","43","310","2023-04-06T00:00:00.000",,,,"ACROSS STREET FROM 7551 SHORE ROAD","77th ST","78th ST","E","11209","PARK","-74.0379322","40.6321138","No",,"0",,"Bay Ridge","3149582","3059560018","bk-44","(40.6321138, -74.0379322)"
"BX-09-GF22753","LINK5G_NonAd","Planning",,,"Bronx","18","209","2022-08-09T00:00:00.000","90201","2022-10-17T00:00:00.000",,"28 METROPOLITAN OVAL","Maple Dr","Dead End","S","10462","R6","-73.857137","40.8382702","No",,"0",,"Parkchester","2096698","2039430001","bx-210.02","(40.8382702, -73.857137)"
"QU-12-GF44606","LINK5G_Ad","PreCx",,,"Queens","27","412","2022-11-17T00:00:00.000","90452","2023-01-04T00:00:00.000",,"194-03 LINDEN BOULEVARD","194TH STREET","195TH STREET","N","11412","C2-3","-73.7575684","40.6930526","No",,"0",,"St. Albans",,"4110660010","528","(40.6930526, -73.7575684)"
"QU-03-152384","LINK5G_Ad","Installed",,"LINK-020892","Queens","25","403","2022-03-08T00:00:00.000","90196","2022-05-13T00:00:00.000",,"69-02 NORTHERN BOULEVARD","70th Street","69th Street","S","11377","C2-2","-73.8966827","40.7542666","No",,"0",,"Jackson Heights",,,,"(40.7542666, -73.8966827)"
"QU-12-144852","LINK5G_Ad","PreCx","144852","15181","Queens","24","412","2021-10-08T00:00:00.000",,,,"88-40 SUTPHIN BOULEVARD","88 AVENUE","89 AVENUE","W","11435","C4-4A","-73.80893942","40.70394634","Yes","Sutphin Boulevard","0",,"Jamaica","4207011","4096880017","4023800","(40.70394634, -73.80893942)"
"BK-04-153264","LINK1.0","Installed",,,"Brooklyn","34","304","2022-01-28T00:00:00.000","90161","2022-04-08T00:00:00.000",,"427 TROUTMAN STREET","ST NICHOLAS AVENUE","WYCKOFF AVENUE","W","11237","M1-1","-73.9219553","40.7075395","No",,"0",,"Bushwick North","3072422","3031770025","BK-447","(40.7075395, -73.9219553)"
"BK-16-155305","LINK1.0","Installed",,,"Brooklyn","42","316","2022-01-28T00:00:00.000","90174","2022-04-08T00:00:00.000",,"130 NEW LOTS AVENUE","JUNIUS STREET","POWELL STREET","S","11212","M1-1","-73.9003482","40.6585361","No",,"0",,"Brownsville","3421599","3038630039","BK-920","(40.6585361, -73.9003482)"
"BK-02-143595","LINK5G_Ad","Live","143595","SC90727","Brooklyn","35","302","2022-03-08T00:00:00.000",,,,"403 MYRTLE AVENUE","MYRTLE AVENUE","PARK AVENUE","E","11205","C2-4","-73.9697882","40.6933089","Yes","Myrtle Avenue Brooklyn Partnership?","0",,"Fort Greene","3054298","2018870102","BK-187","(40.6933089, -73.9697882)"
"BK-09-153835","LINK5G_Ad","Live","153835",,"Brooklyn","41","309","2021-08-31T00:00:00.000","90022","2021-09-23T00:00:00.000","2021-11-22T00:00:00.000","506 UTICA AVENUE","RUTLAND ROAD","MIDWOOD ST","W","11203","C8-2","-73.9314656","40.660758","No",,"0",,"Prospect Lefferts Gardens-Wingate","3099204","3045900038","880","(40.660758, -73.9314656)"
"QU-14-GF44823","LINK5G_NonAd","Planning",,,"Queens","32","414","2022-08-09T00:00:00.000",,,,"205 BEACH 147 STREET","BEACH 149TH STREET","BEACH 148TH STREET","North","11694","R1-2","-73.8626958","40.5700406","No",,"0",,"Breezy Point-Belle Harbor-Rockaway Park-Broad Channel","4306926","4163120024","QU-922","(40.5700406, -73.8626958)"
"MN-03-134173","LINK5G_Ad","Live","134173","1255","Manhattan","1","103","2022-04-01T00:00:00.000",,,,"165 EAST BROADWAY","RUTGERS STREET","CANAL STREET","S","10002","C1-5","-73.9899828","40.7139997","No",,"0",,"Lower East Side","1003627","1002840028","1000600","(40.7139997, -73.9899828)"
"BK-07-GF34911","LINK5G_NonAd","PreCx",,,"Brooklyn","38","307","2022-08-09T00:00:00.000","90324","2023-01-04T00:00:00.000",,"117 42ND STREET","1ST AVENUE","2ND AVENUE","N","11232","M3-1","-74.014243","40.6548288","No",,"0",,"Sunset Park West","3337139","3007160001","bk-2","(40.6548288, -74.014243)"
"QU-12-123850","LINK5G_Ad","Live","123850","LINK-011879","Queens","27","412","2021-10-08T00:00:00.000",,,,"113-50 FARMERS BOULEVARD","MURDOCK AVENUE","113TH ROAD","W","11412","C2-3","-73.7624764","40.698178","No",,"0",,"St. Albans","4235653","4109880001","4052600","(40.698178, -73.7624764)"
"QU-01-GF44793","LINK5G_NonAd","PreCx",,,"Queens","26","401","2022-08-09T00:00:00.000","90340","2023-01-04T00:00:00.000",,"22-09 41 AVENUE","41st Ave","Queens Plaza N","West","11101","M1-5","-73.9407694","40.7529803","No",,"0",,"Queensbridge-Ravenswood-Long Island City","4004979","3004120025","qu-33","(40.7529803, -73.9407694)"
"BX-02-145603","LINK1.0","PreCx","145603","LINK-013267","Bronx","17","202","2021-11-30T00:00:00.000",,,,"533 HUNTS POINT AVENUE","RANDLE AVENUE","OAK POINT AVENUE","W","10474","M1-2","-73.8830561","40.8117048","No",,"0",,"Hunts Point","2006860","2027690161","2011700","(40.8117048, -73.8830561)"
"MN-08-GF0911","LINK5G_NonAd","Planning",,,"Manhattan","4","108","2022-08-09T00:00:00.000","90250","2022-11-18T00:00:00.000",,"1175 PARK AVENUE","EAST 93RD STREET","EAST 92ND STREET","E","10128","R10","-73.9538511","40.7844426","No",,"0","Expanded Carnegie Hill Historic District","Upper East Side-Carnegie Hill","1048372","1951340069","mn-158.01","(40.7844426, -73.9538511)"
"QU-02-125245","LINK5G_NonAd","PreCx","125245","LINK-011359","Queens","26","402","2022-08-09T00:00:00.000","80768","2023-01-04T00:00:00.000",,"48-09 CENTER BOULEVARD","49 AVENUE","48 AVENUE","E","11101","M3-1","-73.958244","40.7443978","No",,"0",,"Hunters Point-Sunnyside-West Maspeth","4000019","4000170028","4000100","(40.7443978, -73.958244)"
"MN-12-120813","LINK1.0","Installed","120813","LINK-010939","Manhattan","10","112","2022-01-28T00:00:00.000",,,,"3769 10 AVENUE","WEST 202ND STREET","10TH AVENUE","S","10034","R7-2","-73.9210039","40.8611522","No",,"0",,"Marble Hill-Inwood","1080033","1022160001","1029900","(40.8611522, -73.9210039)"
"BX-07-158797","LINK5G_Ad","Ready for Installation",,,"Bronx","15","207","2021-12-21T00:00:00.000","90155","2022-02-11T00:00:00.000",,"2571 WEBSTER AVENUE","E 193RD STREET","E FORDHAM ROAD","NW","10458","C2-4","-73.8903695","40.8625706","No",,"0",,"Belmont",,"2032750108","BX-397","(40.8625706, -73.8903695)"
"QU-07-118847","LINK5G_Ad","PreCx","118847","LINK-027983","Queens","19","407","2022-08-09T00:00:00.000","74213","2022-11-16T00:00:00.000",,"124-15 31 AVENUE","COLLEGE POINT BOULEVARD","123 STREET","North","11354",,"-73.8423018","40.7694409","No",,"0",,,"4605722","4043500050","4092900","(40.7694409, -73.8423018)"
"QU-12-159192","LINK5G_Ad","Installed",,,"Queens","27","412","2021-10-08T00:00:00.000","90062","2021-10-28T00:00:00.000","2021-12-27T00:00:00.000","168-11 DOUGLAS AVENUE","DOUGLAS AVENUE","93rd AVENUE","E","11433","M1-1","-73.7908334","40.7037645","No",,"0",,"Jamaica","4533758","4102170048","QU-444","(40.7037645, -73.7908334)"
"BX-02-100042","LINK5G_Ad","Live","100042","LINK-010396","Bronx","17","202","2021-11-30T00:00:00.000",,,,"1102 LONGFELLOW AVENUE","LONGFELLOW AVENUE","WHITLOCK AVENUE","S","10459","M1-1","-73.8877631","40.8266802","No",,"0",,"Hunts Point","2006291","2027570085","2012102","(40.8266802, -73.8877631)"
"QU-12-114989","LINK1.0","Installed","114989","25088","Queens","27","412","2021-10-08T00:00:00.000",,,,"173-20 JAMAICA AVENUE","175th Street","173rd Street","S","11433","C2-4","-73.7859137","40.7078312","No",,"0",,"Jamaica","4217495","4102120018","4044400","(40.7078312, -73.7859137)"
"BK-16-158880","LINK1.0","Installed",,,"Brooklyn","42","316","2022-01-28T00:00:00.000","90176",,,"12 NEWPORT STREET","NEWPORT STREET","EAST 98TH STREET","West","11212","C1-3","-73.9147377","40.6583526","No",,"0",,"Brownsville","3082397","3036070008","BK-896","(40.6583526, -73.9147377)"
"BK-01-GF34908","LINK5G_NonAd","Planning",,,"Brooklyn","33","301","2022-08-09T00:00:00.000","90321","2023-01-04T00:00:00.000",,"26 SOUTH 10TH STREET","SOUTH 10TH STREET","SOUTH 11TH STREET","E","11249","R7A","-73.9683743","40.7083533","No",,"0",,"North Side-South Side","3421412","3021350104","bk-547","(40.7083533, -73.9683743)"
"QU-12-124008","LINK5G_Ad","Ready for Installation","124008","SC90607","Queens","31","412","2021-10-08T00:00:00.000",,,,"154-18 ROCKAWAY BOULEVARD","140th Avenue","N Conduit Avenue","W","11434","C2-2","-73.7809455","40.6675635","No","Greater JFK","0",,"Springfield Gardens South-Brookville","4284847","4132670024","4030600","(40.6675635, -73.7809455)"
"SI-01-125539","LINK5G_Ad","Installed","125539","LINK-001772","Staten Island","49","501","2022-08-09T00:00:00.000","78545","2022-10-17T00:00:00.000",,"3 SLOSSON TERRACE","SLOSSON TERRACE","VICTORY BOULEVARD","E","10301","C4-2","-74.0753967","40.6396002","No",,"0",,"West New Brighton-New Brighton-St. George","5000007","5000010030","5000300","(40.6396002, -74.0753967)"
"BK-05-GF34893","LINK5G_NonAd","PreCx",,,"Brooklyn","42","305","2022-08-09T00:00:00.000","90405","2023-01-04T00:00:00.000",,"400 STANLEY AVENUE","Louisiana Ave","Malta St","S","11207","M1-1","-73.8933195","40.6552245","No",,"0",,"East New York","3097768","3043640001","bk-1104","(40.6552245, -73.8933195)"
"BX-05-119738","LINK5G_Ad","Live","119738","LINK-011459","Bronx","14","205","2021-11-30T00:00:00.000",,,,"1780 UNIVERSITY AVENUE","UNIVERSITY AVENUE","HARRISON AVENUE","S","10453","C1-4","-73.915169","40.850245","No",,"0",,"University Heights-Morris Heights","2008521","2028680001","2024300","(40.850245, -73.915169)"
"QU-13-GF44806","LINK5G_NonAd","PreCx",,,"Queens","23","413","2022-08-09T00:00:00.000","90239","2022-11-16T00:00:00.000",,"80-51 261 STREET","262nd ST","261st ST","N","11004","R2A","-73.7089499","40.7433498","No",,"0",,"Glen Oaks-Floral Park-New Hyde Park","4524684","4087170001","qu-1579.02","(40.7433498, -73.7089499)"
"QU-12-157688","LINK5G_Ad","Installed",,,"Queens","27","412","2021-10-08T00:00:00.000","90068","2021-10-28T00:00:00.000","2021-12-27T00:00:00.000","182-46 HILLSIDE AVENUE","HILLSIDE AVENUE","89TH AVENUE","W","11423","C2-4","-73.7788623","40.7136338","No",,"0",,"Jamaica","4212432","4099190034","QU-470","(40.7136338, -73.7788623)"
"QU-03-GF44815","LINK5G_NonAd","Planning",,,"Queens","22","403","2022-08-09T00:00:00.000","90347","2023-01-04T00:00:00.000",,"73-01 25 AVENUE","25TH AVENUE","ASTORIA BOULEVARD SOUTH","E","11370","M1-1","-73.8968722","40.762123","No",,"0",,"Jackson Heights","4022950","4010270025","qu-309.04","(40.762123, -73.8968722)"
"BX-05-GF22632","LINK5G_Ad","PreCx",,,"Bronx","14","205","2022-11-17T00:00:00.000","90446","2023-01-04T00:00:00.000",,"117A FEATHERBED LANE","Nelson Ave","FEATHERBED LANE","N","10452","C1-4","-73.9193024","40.8462766","No",,"0",,"University Heights-Morris Heights",,"2028760001","BX-215.02","(40.8462766, -73.9193024)"
"SI-01-152491","LINK1.0","Installed",,,"Staten Island","49","501","2021-11-30T00:00:00.000","90147","2022-02-11T00:00:00.000",,"175 LYNHURST AVENUE","TOMPKINS AVENUE","DITSON STREET","S","10305","M3-1","-74.0740457","40.6170142","No",,"0",,"Stapleton-Rosebank","5042517","5028430001","SI-8","(40.6170142, -74.0740457)"
"MN-03-123373","LINK5G_NonAd","PreCx","123373","SC90337","Manhattan","1","103","2022-09-23T00:00:00.000","90308","2023-01-04T00:00:00.000",,"125 STANTON STREET","ESSEX STREET","NORFOLK STREET","S","10002","C4-4A","-73.9867731","40.7208847","No",,"0",,"Chinatown","1083470","1003540012","MH-30.01","(40.7208847, -73.9867731)"
"QU-06-107629","LINK5G_Ad","Installed","107629","25040","Queens","29","406","2022-03-08T00:00:00.000",,,,"94-03 63 DRIVE","Booth St","Saunders Street","E","11374","C4-2","-73.8632429","40.7288322","No",,"0",,"Rego Park","4072104","4030810130","QN-693","(40.7288322, -73.8632429)"
"BX-02-157804","LINK5G_Ad","Live","157804",,"Bronx","17","202","2021-11-30T00:00:00.000","90106","2022-02-11T00:00:00.000",,"1390 RANDALL AVENUE","HALLECK STREET","DRAKE STREET","South","10474","M1-2","-73.8814691","40.8127792","No",,"0",,"Hunts Point","2097267","2027690193","BX-117","(40.8127792, -73.8814691)"
"BK-16-108732","LINK5G_Ad","Live","108732","LINK-074087","Brooklyn","41","316","2021-05-14T00:00:00.000",,,,"1710 EASTERN PARKWAY","Rockaway Ave","ST MARKS AVENUE","S","11233","C8-2","-73.9114724","40.6728522","No",,"0",,"Ocean Hill","3039258","3014600073","3036300","(40.6728522, -73.9114724)"
"QU-12-123982","LINK5G_Ad","Installed","123982","LINK-011882","Queens","27","412","2021-10-08T00:00:00.000",,,,"204-03 LINDEN BOULEVARD","204 STREET","204 STREET","N","11412","C1-3","-73.7485326","40.6955453","No",,"0",,"Queens Village","4238621","4110760009","4053200","(40.6955453, -73.7485326)"
"QU-12-124672","LINK5G_NonAd","PreCx","124672","15109","Queens","28","410","2021-10-08T00:00:00.000",,,,"134-02 LIBERTY AVENUE","134 STREET","135 STREET","S","11419","C2-4","-73.8125647","40.6913632","No",,"0",,"South Ozone Park","4204924","4095880001","4015801","(40.6913632, -73.8125647)"
"MN-08-119932","LINK5G_Ad","Ready for PreCx","119932","LINK-012480","Manhattan","4","108","2022-11-03T00:00:00.000","72181",,,"1354 MADISON AVENUE","EAST 95 STREET","EAST 96 STREET","W","10128","C1-5","-73.9546826","40.7866882","No",,"0",,"Upper East Side-Carnegie Hill","1047404","1015070014","1016001","(40.7866882, -73.9546826)"
"QU-02-GF44788","LINK5G_Ad","Planning",,,"Queens","26","402",,"90419","2023-01-04T00:00:00.000",,"1-55 BORDEN AVENUE","Borden Ave","51st Ave","West","11101","R10 / C2-5","-73.9589324","40.7423603","No",,"0",,"Hunters Point-Sunnyside-West Maspeth","4541408","4000150001","qu-1","(40.7423603, -73.9589324)"
"BX-07-100074","LINK5G_Ad","Live","100074","LINK-010414","Bronx","14","207","2021-08-06T00:00:00.000",,,,"105 EAST 198 STREET","CRESTON AVENUE","GRAND CONCOURSE","N","10468","C1-3","-73.8916481","40.8706129","No",,"0",,"Van Cortlandt Village","2017457","2033150044","2040303","(40.8706129, -73.8916481)"
"MN-02-GF0916","LINK5G_Ad","PreCx",,,"Manhattan","3","102","2022-08-09T00:00:00.000","90255","2022-10-17T00:00:00.000",,"100 JANE STREET","WASHINGTON STREET","WEST STREET","North","10014","C1-7A","-74.0083525","40.7375992","No",,"0",,"West Village","1084803","1006410017","mn-79","(40.7375992, -74.0083525)"
"QU-12-GF44591","LINK5G_Ad","Planning",,,"Queens","27","412","2022-09-23T00:00:00.000","90434","2022-11-17T00:00:00.000",,"184-27 JAMAICA AVENUE","184 PLACE","184 STREET","North","11423","C2-4","-73.7750918","40.7094697","No",,"0",,"Jamaica",,"4099050021","470","(40.7094697, -73.7750918)"
"QU-07-GF44820","LINK5G_Ad","PreCx",,,"Queens","19","407","2022-08-09T00:00:00.000","90352","2022-11-16T00:00:00.000",,"3170 COLLEGE POINT BOULEVARD","30TH AVENUE","31ST AVENUE","S","11354","M2-1","-73.8437685","40.771118","No",,"0",,"College Point","4570029","4043500050","qu-907","(40.771118, -73.8437685)"
"QU-13-GF44811","LINK5G_NonAd","PreCx",,,"Queens","31","413","2022-08-09T00:00:00.000","90226","2022-11-16T00:00:00.000",,"135-21 136 AVENUE","242nd ST","241st ST","S","11422","R2","-73.7332277","40.6717001","No",,"0",,"Rosedale","4283966","4132220001","qu-638","(40.6717001, -73.7332277)"
"MN-03-122364","LINK5G_NonAd","PreCx","122364","10375","Manhattan","1","103","2022-04-01T00:00:00.000","74718",,,"118 ELDGRIDGE STREET","BROOME STREET","GRAND STREET","E","10002","C4-4A","-73.9917508","40.7184695","No",,"0",,"Chinatown","1005433","1004130008","MH-18","(40.7184695, -73.9917508)"
"QU-13-GF44802","LINK5G_NonAd","PreCx",,,"Queens","23","413","2022-08-09T00:00:00.000","90243","2022-11-16T00:00:00.000",,"85-15 258 STREET","259th ST","258th ST","S","11001","R2A","-73.7085903","40.7349687","No",,"0",,"Glen Oaks-Floral Park-New Hyde Park","4179830","4088010014","qu-1579.03","(40.7349687, -73.7085903)"
"QU-09-124174","LINK5G_Ad","Installed","124174","15048","Queens","29","409","2022-03-08T00:00:00.000",,,,"123-32 82 AVENUE","Queens Boulevard","Kew Gardens Road","SE","11415","C4-4","-73.8277241","40.7126534","No",,"0",,"Kew Gardens","4080159","4033597501","QN-216","(40.7126534, -73.8277241)"
"BK-01-GF34896","LINK5G_NonAd","Planning",,,"Brooklyn","33","301","2022-08-09T00:00:00.000","90217","2023-01-04T00:00:00.000",,"21 INDIA STREET","WEST STREET","DEAD END","North","11222","R8","-73.9614359","40.7317495","No",,"0",,"Greenpoint","3336933","3025300008","bk-563","(40.7317495, -73.9614359)"
"QU-12-154633","LINK1.0","Installed",,,"Queens","27","412","2021-10-08T00:00:00.000","90060","2021-10-28T00:00:00.000","2021-12-27T00:00:00.000","104-20 DUNKIRK STREET","DUNKIRK STREET","183RD STREET","S","11412","M1-1","-73.7752581","40.7052036","No",,"0",,"Jamaica","4220270","4103430070","QU-444","(40.7052036, -73.7752581)"
"QU-12-123985","LINK5G_Ad","PreCx","123985","LINK-011524","Queens","27","412","2022-11-17T00:00:00.000","81040","2023-01-04T00:00:00.000",,"133-38 SPRINGFIELD BOULEVARD","SPRINGFIELD BLVD","RIDGEDALE ST","N","11413","C8-1","-73.753523","40.6802605","No",,"0",,"St. Albans","4274071","4127230056","4035200","(40.6802605, -73.753523)"
"BK-16-GF34895","LINK5G_NonAd","Installed",,,"Brooklyn","42","316","2022-08-09T00:00:00.000","90216","2022-10-17T00:00:00.000",,"812 THOMAS S BOYLAND STREET","THOMAS S BOYLAND STREET","AMBOY STREET","N","11212","R6","-73.9115105","40.6606212","No",,"0",,"Brownsville","3393314","31555010001","bk-898","(40.6606212, -73.9115105)"
"MN-12-120707","LINK5G_Ad","PreCx","120707","LINK-011328","Manhattan","10","112","2022-09-23T00:00:00.000","72311","2022-10-18T00:00:00.000",,"2194 AMSTERDAM AVENUE","W 169 STREET","W 168 STREET","West","10032","C2-4","-73.9366505","40.8404075","No",,"0",,"Washington Heights South","1000000","1021250042","1024900","(40.8404075, -73.9366505)"
"BK-04-GF34707","LINK1.0","Planning",,,"Brooklyn","34","304","2022-09-23T00:00:00.000","90157","2023-01-04T00:00:00.000",,"161 NOLL STREET","WILSON AVENUE","FLUSHING AVENUE","West","11237","M1-1","-73.9305421","40.7036114","No",,"0",,"Bushwick South","3071856","3031490001","BK-425","(40.7036114, -73.9305421)"
"MN-09-120409","LINK5G_Ad","PreCx","120409","mn-09-120409","Manhattan","7","109","2022-08-17T00:00:00.000","71268","2022-10-17T00:00:00.000",,"2880 BROADWAY","WEST 112 STREET","WEST 113 STREET","E","10025","C1-4","-73.965529","40.8054794","No",,"0",,"Morningside Heights","1056989","1018840001","1019900","(40.8054794, -73.965529)"
"QU-12-137875","LINK5G_Ad","Ready for Activation","137875","35089","Queens","27","412","2021-10-08T00:00:00.000",,,,"170-05 LINDEN BOULEVARD","Merrick Boulevard","169th Street","N","11433","C2-3","-73.7794748","40.691655","No",,"0",,"St. Albans","4268573","4123940093","4043200","(40.691655, -73.7794748)"
"QU-03-GF44816","LINK5G_NonAd","PreCx",,,"Queens","22","403","2022-08-09T00:00:00.000","90459","2023-01-04T00:00:00.000",,"72-15 25th AVENUE","75TH STREET","76TH STREET","North","11370","M1-1","-73.8931654","40.7624339","No",,"0",,"Jackson Heights","4023054","4010270050","qu-309.04","(40.7624339, -73.8931654)"
"BX-07-153911","LINK5G_Ad","Live","153911","LINK-026014","Bronx","15","207","2021-12-21T00:00:00.000","90110","2022-02-11T00:00:00.000",,"2861 WEBSTER AVENUE","EAST 199 STREET","BEDFORD PARK BOULEVARD","N","10458","C2-4","-73.8843348","40.8669715","No",,"0",,"Bedford Park-Fordham North","2016419","2032790050","2040702","(40.8669715, -73.8843348)"
"BX-10-GF22747","LINK5G_NonAd","PreCx",,,"Bronx","18","210","2022-08-09T00:00:00.000","90196","2022-11-16T00:00:00.000",,"1331 HERSCHELL STREET","HERSCHELL STREET","ZEREGA AVENUE","E","10461","R4A","-73.8443608","40.8366002","No",,"0",,"Westchester-Unionport","2027240","2038460023","bx-96","(40.8366002, -73.8443608)"
"QU-02-GF44784","LINK5G_NonAd","Planning",,,"Queens","26","402","2022-08-09T00:00:00.000","90415","2023-01-04T00:00:00.000",,"46-20 5 STREET","46th Ave","47th Ave","E","11101","M3-1","-73.9563068","40.7468301","No",,"0",,"Hunters Point-Sunnyside-West Maspeth","4536823","4000210040","qu-1","(40.7468301, -73.9563068)"
"MN-03-137407","LINK5G_Ad","Live","137407","1435","Manhattan","1","103","2022-04-01T00:00:00.000",,,,"5 ST. JAMES PLACE","AVENUE OF THE FINEST","PEARL STREET","E","10038","C1-5","-74.0003838","40.7109549","No",,"0",,"Chinatown","1077416","1001110100","1002500","(40.7109549, -74.0003838)"
"BK-06-GF34910","LINK5G_NonAd","PreCx",,,"Brooklyn","38","306","2022-08-09T00:00:00.000","90323","2023-01-04T00:00:00.000",,"119 CONOVER STREET","CONOVER STREET","IMLAY STREET","N","11231","M2-1","-74.0121699","40.679747","No",,"0",,"Carroll Gardens-Columbia Street-Red Hook","3332119","3005150300","bk-53","(40.679747, -74.0121699)"
"BK-14-GF34844","LINK5G_Ad","Planning",,,"Brooklyn","4","314","2022-05-13T00:00:00.000",,,,"1224 CORTELYOU ROAD","ARGYLE ROAD","WESTMINSTER ROAD","South","11218","C2-4","-73.9663402","40.6402854",,,"0",,"Flatbush",,,,"(40.6402854, -73.9663402)"
"QU-12-GF44833","LINK5G_NonAd","Ready for Installation",,,"Queens","28","412","2022-08-09T00:00:00.000","90357",,,"134-02 GUY R BREWER BLVD","GUY R BREWER BOULEVARD","161ST STREET","S","11434","R3-1","-73.775863","40.6732818","No",,"0",,"Springfield Gardens North","4266612","4123000006","qu-294","(40.6732818, -73.775863)"
"BK-03-151829","LINK5G_Ad","Installed",,,"Brooklyn","3","303","2022-05-13T00:00:00.000",,,,"1184 BEDFORD AVENUE","BEDFORD AVENUE","FRANKLIN AVENUE","N","11216","C2-4","-73.954164","40.6836057",,,"0",,"Clinton Hill",,,,"(40.6836057, -73.954164)"
"QU-12-GF44607","LINK5G_Ad","PreCx",,,"Queens","27","412","2022-11-17T00:00:00.000","90453","2023-01-04T00:00:00.000",,"190-19 LINDEN BOULEVARD","191ST STREET","190TH STREET","N","11412","C1-3","-73.7604262","40.6922557","No",,"0",,"St. Albans",,"4110600053","528","(40.6922557, -73.7604262)"
"MN-03-158275","LINK5G_Ad","Ready for Activation",,,"Manhattan","1","103","2022-04-01T00:00:00.000","90210","2022-05-13T00:00:00.000",,"94 HESTER STREET","ELDRIDGE STREET","ALLEN STREET","S","10002","C6-1G","-73.9926704","40.7163875",,"Chinatown","0",,,,,,"(40.7163875, -73.9926704)"
"BX-02-GF22683","LINK5G_Ad","Planning",,,"Bronx","17","202","2021-11-30T00:00:00.000",,,,"1190 EAST 156 STREET","TRUXTON STREET","BARRY STREET","South","10474","M1-2","-73.8925375","40.8123465","No",,"0",,"Hunts Point","2005905","2027360138","BX-93","(40.8123465, -73.8925375)"
"SI-01-159857","LINK5G_Ad","Live",,,"Staten Island","50","501","2021-11-30T00:00:00.000","90136","2022-02-11T00:00:00.000",,"1910 VICTORY BOULEVARD","VICTORY BOULEVARD","PURDY AVENUE","E","10314","C2-1","-74.1277241","40.6125409","No",,"0",,"Westerleigh",,"5007160001","SI-187.01","(40.6125409, -74.1277241)"
"QU-12-153718","LINK5G_Ad","Live",,,"Queens","24","412","2021-10-08T00:00:00.000","90073","2021-10-28T00:00:00.000","2021-12-27T00:00:00.000","87-89 PARSONS BOULEVARD","88 AVENUE","HILLSIDE AVENUE","E","11432","C2-4","-73.8022297","40.7069302","No",,"0",,"Jamaica",,"4097650032","QU-446.02","(40.7069302, -73.8022297)"
"QU-14-123908","LINK5G_Ad","PreCx","123908","LINK-012102","Queens","31","414","2021-10-08T00:00:00.000",,,,"11-65 BEACH CHANNEL DRIVE","Beach Channel Drive","Grassmere Terrace","S","11691","C1-2","-73.7555355","40.6053539","No",,"0",,"Far Rockaway-Bayswater","4300204","4157090101","4100802","(40.6053539, -73.7555355)"
"BK-07-GF34912","LINK5G_NonAd","Planning",,,"Brooklyn","38","307","2022-08-09T00:00:00.000","90325","2023-01-04T00:00:00.000",,"10 43rd STREET","DEAD END","50TH STREET","S","11232","M3-1","-74.0162122","40.6549262","No",,"0",,"Sunset Park West","3345657","3007150001","bk-18","(40.6549262, -74.0162122)"
"BK-16-127126","LINK5G_Ad","Installed","127126","LINK-014157","Brooklyn","41","316","2021-05-14T00:00:00.000",,,,"1572 PITKIN AVENUE","HERZL STREET","STRAUSS STREET","S","11212","C4-3","-73.9155939","40.6688976","Yes","Pitkin Avenue","0",,"Brownsville","3252123","3035160038","3090200","(40.6688976, -73.9155939)"
"QU-02-GF44789","LINK5G_NonAd","PreCx",,,"Queens","26","402","2022-08-09T00:00:00.000","90420","2023-01-04T00:00:00.000",,"45-21 5TH STREET","N Basin Rd","46th Ave","W","11101","M3-1","-73.9549628","40.7477727","No",,"0",,"Hunters Point-Sunnyside-West Maspeth","4541713","4000210020","qu-1","(40.7477727, -73.9549628)"
"MN-12-GF0874","LINK5G_NonAd","PreCx",,,"Manhattan","10","112","2022-08-09T00:00:00.000","90236","2022-10-17T00:00:00.000",,"727 FT WASHINGTON AVENUE","CABRINI BOULEVARD","WEST 190 STREET","W","10040","R7-2","-73.9343302","40.8590961","No",,"0",,"Washington Heights North","1089189","1021790600","MH-273","(40.8590961, -73.9343302)"
"QU-01-GF44794","LINK5G_NonAd","Planning",,,"Queens","26","401","2022-08-09T00:00:00.000","90341","2023-01-04T00:00:00.000",,"24-03 QUEENS PLAZA NORTH","24th St","Crescent St","North","11101","M1-5/R9","-73.9408844","40.7512999","Yes","Long Island City","0",,"Queensbridge-Ravenswood-Long Island City","4004995","3004140005","qu-33","(40.7512999, -73.9408844)"
"BK-03-127017","LINK5G_Ad","PreCx","127017","SC90762","Brooklyn","36","303","2022-09-23T00:00:00.000","78357","2023-01-04T00:00:00.000",,"456 NOSTRAND AVENUE","JEFFERSON AVENUE","PUTNAM AVENUE","E","11216","R6B","-73.9502578","40.6833715","No",,"0",,"Bedford","3338697","3018270060","3024500","(40.6833715, -73.9502578)"
"MN-02-122940","LINK5G_Ad","Ready for PreCx","122940","9036","Manhattan","3","102","2022-11-03T00:00:00.000","74801","2022-10-18T00:00:00.000",,"108 GANSEVOORT STREET","10 AVENUE","WASHINGTON STREET","S","10014","C6-2A","-74.009326","40.7393108","Yes","Meatpacking","1","Gansevoort Market Historic District","West Village","1012154","10006340001","1007900","(40.7393108, -74.009326)"
"BK-04-GF34572","LINK5G_Ad","PreCx",,,"Brooklyn","37","304","2022-09-23T00:00:00.000","90034","2023-01-04T00:00:00.000",,"262 WYCKOFF AVENUE","LINDEN STREET","GATES AVENUE","South","11237","C2-3","-73.9124789","40.7002407","No",,"0",,"Bushwick North","3076185","3033370021","441","(40.7002407, -73.9124789)"
"MN-08-119930","LINK5G_NonAd","PreCx","119930","SC90091","Manhattan","4","108","2022-08-09T00:00:00.000","71381","2022-11-18T00:00:00.000",,"1040 PARK AVENUE","EAST 86TH STREET","EAST 87TH STREET","W","10028","R10","-73.95727","40.7804076","No",,"1","Park Avenue Historic District","Upper East Side-Carnegie Hill","1047951","1014980033","1014802","(40.7804076, -73.95727)"
"BK-02-127466","LINK5G_Ad","Live","127466","LINK-013208","Brooklyn","35","302","2022-03-08T00:00:00.000",,,,"143 WAVERLY AVENUE","Waverly Avenue","Washington Avenue","N","11205","C2-4","-73.9676714","40.693311","Yes","Myrtle Avenue Brooklyn Partnership?","0",,"Clinton Hill","3054408","2018890001","BK-191","(40.693311, -73.9676714)"
"BK-16-157776","LINK1.0","Installed",,,"Brooklyn","37","316","2022-01-28T00:00:00.000","90170","2022-04-08T00:00:00.000",,"91 JUNIUS STREET","JUNIUS STREET","VAN SINDEREN AVENUE","N","11207","M1-4","-73.9034591","40.6721281","Yes","East Brooklyn BID","0",,"Brownsville","3326809","3036967501","BK-908","(40.6721281, -73.9034591)"
"MN-12-GF0827","LINK5G_Ad","Planning",,,"Manhattan","10","112","2022-09-23T00:00:00.000","90440","2023-01-04T00:00:00.000",,"515 WEST 182 STREET","AMSTERDAM AVENUE","AUDUBON AVENUE","S","10033","C2-4","-73.9302928","40.8493451","No",,"0",,"Washington Heights North",,"1021490016","MH-269","(40.8493451, -73.9302928)"
"SI-01-125505","LINK5G_Ad","Live","125505","12319","Staten Island","49","501","2021-11-30T00:00:00.000",,,,"1595 FOREST AVENUE","DECKER AVENUE","CRYSTAL AVENUE","N","10302","C2-1","-74.141731","40.6247117","No",,"0",,"Port Richmond","5025213","5010650001","5024700","(40.6247117, -74.141731)"
"MN-03-123456","LINK5G_Ad","PreCx","123456","9089","Manhattan","1","103","2022-09-23T00:00:00.000","90297","2023-01-04T00:00:00.000",,"28 BOWERY","BAYARD STREET","PELL STREET","W","10013","C6-1","-73.9969992","40.7149832","Yes","Chinatown","0",,"Chinatown","1002434","1001630033","1002900","(40.7149832, -73.9969992)"
"BK-06-GF34901","LINK5G_NonAd","PreCx",,,"Brooklyn","38","306","2022-08-09T00:00:00.000","90410","2023-01-04T00:00:00.000",,"243 CONOVER STREET","BEARD STREET","REED STREET","W","11231","M2-1","-74.0168289","40.6759451","No",,"0",,"Carroll Gardens-Columbia Street-Red Hook","3336678","3005950009","bk-53","(40.6759451, -74.0168289)"
"QU-12-124602","LINK1.0","Installed","124602","LINK-011681","Queens","24","412","2021-10-08T00:00:00.000",,,,"89-11 MERRICK BOULEVARD","164 ST","165 ST","South","11432","C4-5X","-73.795265891","40.70794546712573","No",,"0",,"Jamaica","4209635","4097940048","4046000","(40.70794546712573, -73.795265891)"
"QU-12-118455","LINK5G_Ad","Live","118455","LINK-014515","Queens","28","412","2021-10-08T00:00:00.000",,,,"146-64 LIBERTY AVENUE","Sutphin Boulevard","Waltham Street","S","11435","C4-5X","-73.8045508","40.6959629","No",,"0",,"Jamaica","4000000","4100300025","4020800","(40.6959629, -73.8045508)"
"BX-05-152147","LINK5G_Ad","Live",,,"Bronx","15","205","2021-11-30T00:00:00.000","90154","2022-02-11T00:00:00.000",,"219 EAST BURNSIDE AVENUE","EAST BURNSIDE AVENUE","ANTHONY AVENUE","N","10457","C1-4","-73.9026539","40.8520248","No",,"0",,"Mount Hope",,"2031560034","BX-235.02","(40.8520248, -73.9026539)"
"BX-02-145666","LINK5G_Ad","PreCx","145666","LINK-014510","Bronx","17","202","2021-04-06T00:00:00.000",,,,"1098 LAFAYETTE AVENUE","AUGUSTA COURT","GARRISON AVENUE","S","10474","M1-2","-73.8933001","40.8161491","No",,"0",,"Hunts Point","2005839","2027310040","2009300","(40.8161491, -73.8933001)"
"QU-03-132974","LINK5G_Ad","Live","132974","85083","Queens","25","403","2022-03-08T00:00:00.000",,,,"74-18 37 AVENUE","75th Street","74th Street","S","11372","C4-3","-73.8910703","40.7489749","No",,"0",,"Jackson Heights","4029828","4012850040","QN-289","(40.7489749, -73.8910703)"
"QU-07-103162","LINK5G_Ad","Installed","103162","35021","Queens","20","407","2022-03-08T00:00:00.000",,,,"4228 MAIN STREET","Main Street","Saul Street","N","11355","C1-2","-73.8280549","40.7542327","No",,"0",,"Flushing","4115413","4051220029","QN-853","(40.7542327, -73.8280549)"
"BX-05-GF22638","LINK5G_Ad","PreCx",,,"Bronx","15","205","2022-09-23T00:00:00.000","90108","2023-01-04T00:00:00.000",,"1985 WEBSTER AVENUE","EAST 179 STREET","E 180 STREET","W","10457","C2-4","-73.8994076","40.8505025","No",,"0",,"Mount Hope",,"2031420001","BX-379","(40.8505025, -73.8994076)"
"SI-01-144091","LINK5G_Ad","PreCx","144091","LINK-001807","Staten Island","49","501","2022-10-28T00:00:00.000","81017","2023-01-04T00:00:00.000",,"1360 FOREST AVENUE","FORREST AVENUE","BURNSIDE AVENUE","W","10302","C4-1","-74.1346574","40.6256385","No",,"0",,"Westerleigh","5024915","5010520001","5020100","(40.6256385, -74.1346574)"
"BK-05-GF34894","LINK5G_NonAd","PreCx",,,"Brooklyn","42","305","2022-08-09T00:00:00.000","90215","2023-01-04T00:00:00.000",,"699 WILLIAMS AVENUE","WILLIAMS AVENUE","LOUISIANA AVENUE","North","11207","R6","-73.8960033","40.658116","No",,"0",,"East New York (Pennsylvania Ave)","3085986","3038670067","bk-1132","(40.658116, -73.8960033)"
"QU-13-GF44807","LINK5G_NonAd","PreCx",,,"Queens","23","413","2022-08-09T00:00:00.000","90240","2022-11-16T00:00:00.000",,"81-51 261 STREET","262nd ST","261st ST","S","11004","R2A","-73.7094328","40.745149","No",,"0",,"Glen Oaks-Floral Park-New Hyde Park","4177641","4087170001","qu-1579.02","(40.745149, -73.7094328)"
"BK-04-152175","LINK5G_Ad","Installed",,,"Brooklyn","34","304","2022-01-28T00:00:00.000","90367","2022-04-08T00:00:00.000",,"1224 FLUSHING AVENUE","FLUSHING AVENUE","JEFFERSON STREET","S","11237","M1-1","-73.924071","40.7072621","No",,"0",,"Bushwick North","3323455","3031670029","BK-447","(40.7072621, -73.924071)"
"QU-12-142064","LINK5G_Ad","PreCx","142064","45011","Queens","23","412","2022-11-17T00:00:00.000","11765","2023-01-04T00:00:00.000",,"193-25 JAMAICA AVENUE","193 STREET","195 STREET","N","11423","C1-2","-73.7662363","40.7133838","No",,"0",,"Hollis","4222293","4104580017","4048200","(40.7133838, -73.7662363)"
"MN-08-GF0910","LINK5G_NonAd","Planning",,,"Manhattan","4","108","2022-08-09T00:00:00.000","90249","2022-11-18T00:00:00.000",,"1115 5 AVENUE","EAST 93RD STREET","EAST 92ND STREET","E","10128","R10","-73.9572314","40.7857627","No",,"1","Expanded Carnegie Hill Historic District","Upper East Side-Carnegie Hill","1047093","1440470069","mn-160.01","(40.7857627, -73.9572314)"
"QU-02-125020","LINK5G_Ad","Installed","125020","15190","Queens","26","402","2022-03-08T00:00:00.000",,,,"47-50 VAN DAM STREET","Van Dam Street","31st Pl","N","11101","M1-4","-73.9345278","40.7411162","No",,"0",,"Hunters Point-Sunnyside-West Maspeth","4003536","4002800001","QN-199","(40.7411162, -73.9345278)"
"BK-09-154238","LINK1.0","Installed",,,"Brooklyn","35","309","2021-08-31T00:00:00.000","90002","2021-09-23T00:00:00.000","2021-11-22T00:00:00.000","468 ALBANY AVENUE","EMPIRE BOULEVARD","MONTGOMERY STREET","W","11213","C1-3","-73.939992","40.6640729","No",,"0",,"Crown Heights South","3034693","3013120053","331","(40.6640729, -73.939992)"
"BX-07-GF22649","LINK5G_Ad","Planning",,,"Bronx","11","207","2021-12-21T00:00:00.000",,,,"3005 WEBSTER AVENUE","E 201ST STREET","MOSHOLU PARKWAY SOUTH","NW","10458","C2-4","-73.881807","40.8685043","No",,"0",,"Bedford Park-Fordham North",,"2032810077","BX-415","(40.8685043, -73.881807)"
"MN-12-120807","LINK5G_Ad","Live","120807","LINK-010954","Manhattan","10","112","2022-01-28T00:00:00.000",,,,"74 NAGLE AVENUE","ELLWOOD STREET","SICKLES STREET","N","10040","R7-2","-73.9283369","40.8603681","No",,"0",,"Washington Heights North","1064126","1021710028","1028300","(40.8603681, -73.9283369)"
"MN-03-123346","LINK5G_Ad","Live","123346","9129","Manhattan","1","103","2022-04-01T00:00:00.000",,,,"400 GRAND STREET","GRAND STREET","BROOME STREET","W","10002","C2-5","-73.9866338","40.716166","Yes","Lower East Side BID","0",,"Lower East Side","1089660","1003467501","MH-14.02","(40.716166, -73.9866338)"
"BK-04-142023","LINK1.0","Ready for Activation","142023","44025","Brooklyn","34","304","2022-01-28T00:00:00.000",,,,"1369 BROADWAY","BROADWAY","WOODBINE STREET","N","11221","C4-3","-73.9211884","40.6892704","No",,"0",,"Bushwick South","3076023","3033210001","3039700","(40.6892704, -73.9211884)"
"BK-02-126840","LINK5G_Ad","Live","126840","14136","Brooklyn","33","302","2022-03-08T00:00:00.000",,,,"65 COURT STREET","COURT STREET","BOERUM PLACE","N","11201","C5-2A","-73.9911888","40.69158","Yes","Court-Livingston-Schermerhorn","0",,"Brooklyn Heights-Cobble Hill","3002557","3002660020","3000900","(40.69158, -73.9911888)"
"BK-16-158755","LINK5G_Ad","Live","158755",,"Brooklyn","41","316","2021-08-31T00:00:00.000","90050","2021-09-23T00:00:00.000","2021-11-22T00:00:00.000","1525 PITKIN AVENUE","PITKIN AVENUE","SUTTER AVENUE","E","11212","C1-3","-73.9172669","40.6689013","Yes","Pitkin Avenue BID","0",,"Brownsville","3080899","3035120050","900","(40.6689013, -73.9172669)"
"QU-12-GF44713","LINK5G_Ad","Ready for Installation",,,"Queens","27","412","2021-10-08T00:00:00.000","90061","2021-10-28T00:00:00.000","2021-12-27T00:00:00.000","177-01 LIBERTY AVENUE","LIBERTY AVENUE","93RD AVENUE","East","11433","M1-1","-73.7826579","40.7056958","No",,"0",,"Jamaica","4220099","4103290007","QU-444","(40.7056958, -73.7826579)"
"BX-09-GF22754","LINK5G_Ad","Planning",,,"Bronx","18","209","2022-08-09T00:00:00.000","90374","2022-10-17T00:00:00.000",,"1470 PARKCHESTER ROAD","PARKCHESTER ROAD","YANKEE MALL","W","10462","C4-2","-73.859613","40.8364393","No",,"0",,"Parkchester","2096680","2039377501","bx-212","(40.8364393, -73.859613)"
"BK-09-157487","LINK5G_Ad","Live",,,"Brooklyn","35","309","2021-08-31T00:00:00.000","90026","2021-09-23T00:00:00.000","2021-11-22T00:00:00.000","157 EMPIRE BOULEVARD","BEDFORD AVENUE","RODGERS AVENUE","N","11225","C8-2","-73.9570101","40.663619","No",,"0",,"Crown Heights South","3034461","3013070001","323","(40.663619, -73.9570101)"
"QU-12-123720","LINK5G_Ad","Live","123720","LINK-011640","Queens","23","412","2021-10-08T00:00:00.000",,,,"204-01 JAMAICA AVENUE","204th Street","205th Street","N","11423","C2-2","-73.7559382","40.7136082","No",,"0",,"Hollis","4222747","4104770002","4048400","(40.7136082, -73.7559382)"
"QU-12-124511","LINK5G_Ad","Live","124511","SC90575","Queens","28","412","2021-10-08T00:00:00.000",,,,"108-44 SUTPHIN BOULEVARD","Sutphin Boulevard","Liverpool Street","N","11433","C2-4","-73.7985019","40.691834","No",,"0",,"South Jamaica","4215845","4101310002","4025400","(40.691834, -73.7985019)"
"QU-03-GF44729","LINK5G_Ad","Ready for Installation",,"LINK-020890","Queens","25","403","2022-03-08T00:00:00.000","90199","2022-05-13T00:00:00.000",,"81-20 NORTHERN BOULEVARD","82nd Street","81st Street","S","11372","C1-2","-73.8855911","40.7554275","No",,"0",,"Jackson Heights",,"4012540006",,"(40.7554275, -73.8855911)"
"QU-12-157796","LINK1.0","Installed",,,"Queens","27","412","2021-10-08T00:00:00.000","90103","2021-11-22T00:00:00.000","2022-01-24T00:00:00.000","185-07 MERRICK BOULEVARD","MONTAUK STREET","PINEVILLE LANE","N","11422","C8-1","-73.7570369","40.6797471","No",,"0",,"St. Albans",,"4127110015","QN-352","(40.6797471, -73.7570369)"
"BX-02-106058","LINK5G_Ad","Live","106058","LINK-012171","Bronx","17","202","2021-11-30T00:00:00.000",,,,"700 FAILE STREET","SPOFFORD AVENUE","FAILE STREET","W","10474","R6","-73.886191","40.8147397","No",,"0",,"Hunts Point","2006511","2027630106","2009300","(40.8147397, -73.886191)"
"QU-06-144552","LINK5G_Ad","Installed","144552","SC90558","Queens","29","406","2022-03-08T00:00:00.000",,,,"96-70 QUEENS BOULEVARD","64th Road","63rd Drive","S","11374","C4-2","-73.8605662","40.7292088","No",,"0",,"Rego Park","4072130","4030820071","QN-693","(40.7292088, -73.8605662)"
"QU-12-GF44696","LINK1.0","Planning",,,"Queens","27","412","2022-09-23T00:00:00.000","90433","2022-11-17T00:00:00.000",,"166-14 HILLSIDE AVENUE","167 STREET","MERRICK BOULEVARD","South","11432","C2-4","-73.7957275","40.7096112","No",,"0",,"Jamaica","4210082","4098180062","QU-460","(40.7096112, -73.7957275)"
"MN-03-158821","LINK5G_Ad","Live",,,"Manhattan","1","103","2022-04-01T00:00:00.000","90212","2022-05-13T00:00:00.000",,"36 RIVINGTON STREET","RIVINGTON STREET","STANTON STREET","E","10002","C4-4A","-73.9913664","40.7211101",,,"0",,,,,,"(40.7211101, -73.9913664)"
"QU-13-GF44803","LINK5G_NonAd","PreCx",,,"Queens","23","413","2022-08-09T00:00:00.000","90241","2022-11-16T00:00:00.000",,"83-59 263 STREET","263rd ST","264th ST","N","11004","R3-2","-73.7053516","40.738072","No",,"0",,"Glen Oaks-Floral Park-New Hyde Park","4179487","4087750040","qu-1579.01","(40.738072, -73.7053516)"
"SI-01-125517","LINK5G_Ad","PreCx","125517","LINK-001813","Staten Island","49","501","2022-09-23T00:00:00.000","78538","2022-10-17T00:00:00.000",,"111 CANAL STREET","CANAL STREET","WATER STREET","E","10304","C4-2","-74.0779427","40.6266208","No",,"0",,"Stapleton-Rosebank","5013675","5005230002","5002100","(40.6266208, -74.0779427)"
"BK-05-GF34890","LINK5G_NonAd","PreCx",,,"Brooklyn","42","305","2022-08-09T00:00:00.000","90402","2023-01-04T00:00:00.000",,"408 DE WITT AVENUE","Louisiana Ave","Williams Ave","S","11207","M1-1","-73.8947434","40.6565792","No",,"0",,"East New York","3097623","3043400010","bk-1098","(40.6565792, -73.8947434)"
"MN-12-120719","LINK1.0","Ready for Activation","120719","SC90248","Manhattan","10","112","2022-01-28T00:00:00.000",,,,"189 SHERMAN AVENUE","WEST 204 STREET","WEST 207 STREET","S","10034","C1-4","-73.9216654","40.865079","No",,"0",,"Marble Hill-Inwood","1064769","1022210017","1029100","(40.865079, -73.9216654)"
"QU-12-153314","LINK5G_Ad","Installed",,,"Queens","27","412","2021-10-08T00:00:00.000","90081","2021-10-28T00:00:00.000","2021-12-27T00:00:00.000","122-01 GUY R BREWER BLVD","GUY R. BREWER BOULEVARD","BAISLEY BOULEVARD","S","11434","C1-3","-73.7798678","40.679278","No",,"0",,"Baisley Park",,"4123800021","QN-284","(40.679278, -73.7798678)"
"MN-03-137425","LINK5G_Ad","PreCx","137425","1355","Manhattan","1","103","2022-09-23T00:00:00.000","90309","2023-01-04T00:00:00.000",,"90 EAST BROADWAY","EAST BROADWAY","DIVISION STREET","E","10002","C6-1G","-73.9938585","40.7139165","Yes","Chinatown","0",,"Chinatown","1003542","1002820032","1000800","(40.7139165, -73.9938585)"
"BK-04-GF33287","LINK5G_Ad","Planning","GF33287","LINK-021223","Brooklyn","34","304","2022-09-23T00:00:00.000","90012","2023-01-04T00:00:00.000",,"238 KNICKERBOCKER AVENUE","STARR STREET","TROUTMAN STREET","South","11237","C1-3","-73.9255536","40.7028359","No",,"0",,"Bushwick North","3072541","3031860036","427","(40.7028359, -73.9255536)"
"BK-07-GF34913","LINK5G_Ad","Planning",,,"Brooklyn","38","307","2022-08-09T00:00:00.000","90234","2023-01-04T00:00:00.000",,"111 58TH STREET","PIER","58TH STREET","E","11220","M2-1","-74.025701","40.646536","No",,"0",,"Sunset Park West","3397272","3008270020","bk-18","(40.646536, -74.025701)"
"QU-02-GF44780","LINK5G_Ad","Planning",,,"Queens","26","402","2022-08-09T00:00:00.000","90411","2023-01-04T00:00:00.000",,"52-37 2 STREET","54th Ave","Borden Ave","W","11101","R10 / C2-5","-73.9593664","40.7409766","No",,"0",,"Hunters Point-Sunnyside-West Maspeth","4442931","4000130175","qu-1","(40.7409766, -73.9593664)"
"QU-01-GF44796","LINK5G_Ad","Planning",,,"Queens","26","401","2022-08-09T00:00:00.000","90343","2023-01-04T00:00:00.000",,"41-04 10TH STREET","41st Ave","41st Rd","West","11101","R6 / C1-3","-73.9442021","40.7546968","No",,"0",,"Queensbridge-Ravenswood-Long Island City","4595566","3004650100","qu-25","(40.7546968, -73.9442021)"
"BK-04-109192","LINK5G_Ad","PreCx","109192","74059","Brooklyn","34","304","2022-01-28T00:00:00.000","68541",,,"1037 BROADWAY","BROADWAY","BUSHWICK AVENUE","W","11221","C2-3","-73.9321458","40.6953212","No",,"0",,"Bushwick South","3073073","3032140047","3039300","(40.6953212, -73.9321458)"
"QU-12-158710","LINK5G_Ad","Live","158710",,"Queens","31","412","2021-10-08T00:00:00.000","90075","2021-10-28T00:00:00.000","2021-12-27T00:00:00.000","138-02 FARMERS BOULEVARD","138TH AVENUE","139TH ROAD","W","11434","C1-3","-73.7641959","40.6726629","No",,"0",,"Springfield Gardens North",,"4125820031","QN-334.02","(40.6726629, -73.7641959)"
"QU-13-GF44808","LINK5G_Ad","PreCx",,,"Queens","23","413","2022-08-09T00:00:00.000","90232","2022-11-16T00:00:00.000",,"264-21 UNION TURNPIKE","265th ST","264th ST","W","11004","R2A / C1-2","-73.7081449","40.7491694","No",,"0",,"Glen Oaks-Floral Park-New Hyde Park","4174076","4085400062","qu-1551.02","(40.7491694, -73.7081449)"
"QU-03-GF44817","LINK5G_NonAd","Planning",,,"Queens","22","403","2022-08-09T00:00:00.000","90349","2023-01-04T00:00:00.000",,"77-19 25 AVENUE","25TH AVENUE","24TH AVENUE","West","11370","R4","-73.8905247","40.7627807","No",,"0",,"Jackson Heights","4022778","4010410034","qu-309.04","(40.7627807, -73.8905247)"
"SI-01-155189","LINK5G_Ad","Live",,,"Staten Island","49","501","2021-11-30T00:00:00.000","90133","2022-02-11T00:00:00.000",,"1465 FOREST AVENUE","LIVERMORE AVENUE","MARIANNE STREET","N","10302","C4-1","-74.1373888","40.624318","No",,"0",,"Port Richmond",,"5010530124","SI-247","(40.624318, -74.1373888)"
"BX-05-GF22642","LINK5G_Ad","PreCx",,,"Bronx","15","205","2022-11-17T00:00:00.000","90447","2023-01-04T00:00:00.000",,"2255 WEBSTER AVENUE","E 183RD STREET","FORD STREET","W","10458","C1-4","-73.8957863","40.8561301","No",,"0",,"Fordham South",,"2030240080","BX-383.02","(40.8561301, -73.8957863)"
"QU-12-123887","LINK5G_Ad","Live","123887","LINK-013078","Queens","27","412","2021-10-08T00:00:00.000",,,,"188-01 LINDEN BOULEVARD","Linden Boulevard","Dunkirk Drive","E","11412","C1-3","-73.7640145","40.6920499","No",,"0",,"St. Albans","4221047","4103810054","4039800","(40.6920499, -73.7640145)"
"QU-12-123993","LINK5G_Ad","PreCx","123993","LINK-013624","Queens","27","412","2021-10-08T00:00:00.000",,,,"205-27 HOLLIS AVENUE","Hollis Avenue","109th Avenue","E","11429","C2-3","-73.7521154","40.707263","No",,"0",,"Queens Village","4234385","4109470024","4051200","(40.707263, -73.7521154)"
"BK-01-GF34897","LINK5G_NonAd","Planning",,,"Brooklyn","33","301","2022-08-09T00:00:00.000","90218","2023-01-04T00:00:00.000",,"22 NORTH 6 STREET","NORTH 6TH STREET","DEAD END","West","11249","R8 / C2-4","-73.9633508","40.7203971","No",,"0",,"North Side-South Side","3397446","3023247502","bk-555","(40.7203971, -73.9633508)"
"QU-12-GF44832","LINK5G_NonAd","Ready for Cx",,,"Queens","28","412","2022-08-09T00:00:00.000","90356",,,"127-4 157TH STREET","128TH STREET","129TH STREET","W","11434","R3X","-73.7825798","40.6751452","No",,"0",,"Springfield Gardens North","4265978","4122610001","qu-294","(40.6751452, -73.7825798)"
"BX-11-GF22755","LINK5G_NonAd","Planning",,,"Bronx","15","211",,"90375","2022-10-17T00:00:00.000",,"600 ADEE AVENUE","WHITE PLAINS ROAD","BRONX PARK EAST","S","10467","R7-1","-73.8703057","40.8696016","No",,"0",,"Bronxdale","2101746","2045420100","bx-336","(40.8696016, -73.8703057)"
"MN-03-122367","LINK5G_Ad","PreCx","122367","9111","Manhattan","1","103","2022-09-23T00:00:00.000","90307","2023-01-04T00:00:00.000",,"99 CANAL STREET","FORSYTH STREET","ELDRIDGE STREET","N","10002","C6-1G","-73.9939566","40.715595","Yes","Chinatown","0",,"Chinatown","1003761","1003010001","MH-16","(40.715595, -73.9939566)"
"QU-12-154934","LINK5G_Ad","Live",,,"Queens","28","412","2021-10-08T00:00:00.000","90078","2021-10-28T00:00:00.000","2021-12-27T00:00:00.000","129-01 GUY R BREWER BOULEVARD","129TH AVENUE","130 AVENUE","E","11434","C2-2","-73.7784359","40.6772288","No",,"0",,"Springfield Gardens North",,"4124950002","QN-334.02","(40.6772288, -73.7784359)"
"BK-16-GF34727","LINK5G_NonAd","PreCx",,,"Brooklyn","41","316","2022-10-28T00:00:00.000","90435","2023-01-04T00:00:00.000",,"656 HOWARD AVENUE","SUTTER AVENUE","EAST NEW YORK AVENUE","West","11212","C1-3","-73.9196083","40.6658969","No",,"0",,"Brownsville","3080885","3035110072","BK-900","(40.6658969, -73.9196083)"
"QU-02-GF44785","LINK5G_NonAd","PreCx",,,"Queens","26","402","2022-08-09T00:00:00.000","90416","2023-01-04T00:00:00.000",,"5-09 48 AVENUE","5th St","Vermon Blvd","North","11101","M1-4/R7A","-73.9558088","40.7445751","No",,"0",,"Hunters Point-Sunnyside-West Maspeth","4536962","4000307501","qu-7","(40.7445751, -73.9558088)"
"BX-02-GF22681","LINK1.0","Planning",,,"Bronx","17","202","2021-11-30T00:00:00.000",,,,"1140 LONGWOOD AVENUE","LONGWOOD AVENUE","WORTHEN STREET","East","10474","M1-2","-73.8931506","40.8142631","No",,"0",,"Hunts Point","2117576","2027360266","BX-93","(40.8142631, -73.8931506)"
"QU-12-GF44622","LINK5G_Ad","PreCx",,,"Queens","28","412","2022-11-17T00:00:00.000","90454","2023-01-04T00:00:00.000",,"109-37 SUTPHIN BOULEVARD","GLASSBORO AVENUE","109TH DR","E","11433","C2-3","-73.7972679","40.6906653","No",,"0",,"South Jamaica",,"4121410003","QN-260","(40.6906653, -73.7972679)"
"MN-02-GF0918","LINK5G_Ad","PreCx",,,"Manhattan","3","102","2022-08-09T00:00:00.000","90257","2022-10-18T00:00:00.000",,"100 HORATIO STREET","WASHINGTON STREET","WEST STREET","S","10014","C6-2A","-74.0082803","40.7387246","No",,"0",,"West Village","1085734","1006427502","mn-79","(40.7387246, -74.0082803)"
"BK-06-GF34905","LINK5G_NonAd","PreCx",,,"Brooklyn","38","306","2022-08-09T00:00:00.000","90318","2023-01-04T00:00:00.000",,"20 BEARD STREET","OTSEGO STREET","DWIGHT STREET","W","11231","M1-1","-74.0120061","40.6727272","No",,"0",,"Carroll Gardens-Columbia Street-Red Hook","3331177","3006060005","bk-53","(40.6727272, -74.0120061)"
"BK-03-127013","LINK5G_Ad","PreCx","127013","LINK-013207","Brooklyn","36","303","2022-09-23T00:00:00.000","78386","2023-01-04T00:00:00.000",,"405 GATES AVENUE","GATES AVENUE","QUINCY STREET","West","11216","C2-4","-73.9508445","40.6863216","No",,"0",,"Bedford","3338677","3018070056","BK-251","(40.6863216, -73.9508445)"
"MN-09-152858","LINK5G_Ad","Installed",,,"Manhattan","7","109","2022-08-09T00:00:00.000","90247","2022-10-17T00:00:00.000",,"1181 AMSTERDAM AVENUE","W 118th St","W 119th St","East","10027","R8 / C1-4","-73.9599298","40.808182","No",,"0",,"Morningside Heights","1059499","1019620001","mn-207.01","(40.808182, -73.9599298)"
"QU-02-GF44790","LINK5G_NonAd","PreCx",,,"Queens","26","402","2022-08-09T00:00:00.000","90421","2023-01-04T00:00:00.000",,"4-40 44TH DRIVE","44th Dr","45th Ave","W","11101","M1-4","-73.954448","40.7492946","No",,"0",,"Hunters Point-Sunnyside-West Maspeth","4000028","4000250015","qu-1","(40.7492946, -73.954448)"
"BK-16-132774","LINK5G_Ad","Installed","132774","LINK-025015","Brooklyn","41","316","2022-08-09T00:00:00.000","27064","2022-10-17T00:00:00.000",,"702 ROCKAWAY AVENUE","LIVONIA AVENUE","DUMONT AVENUE","W","11212","C2-3","-73.9090579","40.6628094","No",,"0",,"Brownsville","3326506","31552860001","3092400","(40.6628094, -73.9090579)"
"BK-14-GF34843","LINK5G_Ad","Ready for Installation",,,"Brooklyn","4","314","2022-05-13T00:00:00.000",,,,"1490 FLATBUSH AVENUE","GLENWOOD ROAD","EAST 29TH STREET","West","11210","C2-4","-73.94942","40.634333",,"Flatbush-Nostrand Junction?BID","0",,"Flatbush",,,,"(40.634333, -73.94942)"
"MN-12-GF0880","LINK5G_NonAd","PreCx",,,"Manhattan","10","112","2022-08-09T00:00:00.000",,"2022-10-18T00:00:00.000",,"100 OVERLOOK TERRACE","WEST 190 STREET","WEST 187 STREET","E","10040","R7-2","-73.9347509","40.8567832","No",,"0",,"Washington Heights North","1064452","1021800450","MH-281","(40.8567832, -73.9347509)"
"QU-12-GF44585","LINK5G_Ad","PreCx",,,"Queens","27","412","2022-11-17T00:00:00.000","90449","2023-01-04T00:00:00.000",,"170-08 JAMAICA AVENUE","JAMAICA AVE","92ND ROAD","E","11432","C2-4","-73.7894493","40.707074","No",,"0",,"Jamaica",,"4098040001","462","(40.707074, -73.7894493)"
"BX-02-155725","LINK5G_Ad","Live","155725",,"Bronx","8","202","2021-11-30T00:00:00.000","90101","2022-02-11T00:00:00.000",,"751 BRUCKNER BOULEVARD","SOUTHERN BLVD","BRUCKNER BLVD","W","10455","C8-3","-73.89693","40.8145769","No",,"0",,"Longwood",,"2027290090","BX-85","(40.8145769, -73.89693)"
"BX-07-119724","LINK5G_Ad","Live","119724","LINK-014674","Bronx","11","207","2021-12-21T00:00:00.000",,,,"3177 WEBSTER AVENUE","E 205TH STREET","PARKSIDE PLACE","W","10467","C2-4","-73.875333","40.8727297","No",,"0",,"Norwood","2017877","2033540047","2042500","(40.8727297, -73.875333)"
"QU-12-128738","LINK5G_Ad","Live","128738","35090","Queens","24","412","2021-10-08T00:00:00.000",,,,"147-14 HILLSIDE AVENUE","Sutphin Blvd","148 ST","S","11435","C4-4A","-73.809058","40.7058192","No",,"0",,"Jamaica","4207080","4096920060","4023800","(40.7058192, -73.809058)"
"QU-10-GF44810","LINK5G_NonAd","PreCx",,,"Queens","28","410","2022-08-09T00:00:00.000","90223","2022-11-16T00:00:00.000",,"119-44 130 STREET","130th ST","129th St","N","11420","R3-2","-73.8085339","40.6735276","No",,"0",,"South Ozone Park","4254847","4117510029","qu-818","(40.6735276, -73.8085339)"
"SI-01-150744","LINK5G_Ad","Live",,,"Staten Island","50","501","2021-11-30T00:00:00.000","90148","2022-02-11T00:00:00.000",,"1970 VICTORY BOULEVARD","VICTORY BOULEVARD","PURDY AVENUE","E","10314","C1-1","-74.1301262","40.612231","No",,"0",,"Westerleigh","5018255","5007220001","SI-187","(40.612231, -74.1301262)"
"BX-09-GF22759","LINK5G_NonAd","Planning",,,"Bronx","18","209","2022-08-09T00:00:00.000","90267","2022-10-17T00:00:00.000",,"CLASON POINT PARK","Bronx River Ave","Dead End","E","10473","PARK","-73.8484474","40.80566","No",,"0",,"Soundview-Castle Hill-Clason Point-Harding Park","2019926","2034780002","bx-4","(40.80566, -73.8484474)"
"BX-02-123176","LINK5G_Ad","Installed","123176","LINK-014454","Bronx","17","202","2021-11-30T00:00:00.000",,,,"945 ALDUS STREET","ALDUS STREET","WESTCHESTER AVENUE","E","10459","C4-4","-73.8916939","40.8232189","Yes","Southern Boulevard","0",,"Hunts Point","2006021","2027430019","2011900","(40.8232189, -73.8916939)"
"QU-14-123892","LINK5G_Ad","PreCx","123892","SC90609","Queens","31","414","2021-10-08T00:00:00.000",,,,"18-27 CORNAGA AVENUE","Morse Court","Mott Avenue","S","11691","C2-2","-73.7506972","40.6023199","No",,"0",,"Far Rockaway-Bayswater","4442312","4155630025","4101001","(40.6023199, -73.7506972)"
"QU-06-156982","LINK1.0","Installed",,"LINK-018216","Queens","29","406","2022-03-08T00:00:00.000","90202","2022-05-13T00:00:00.000",,"92-24 QUEENS BOULEVARD","Eliot Avenue","62nd Avenue","S","11374","C1-2","-73.8681978","40.7323913","No",,"0",,"Rego Park",,"4030750006",,"(40.7323913, -73.8681978)"
"QU-07-GF44799","LINK5G_Ad","PreCx",,,"Queens","19","407","2022-08-09T00:00:00.000","90346","2022-11-16T00:00:00.000",,"125-12 31 AVENUE","31ST AVENUE","DEAD END","East","11354","M2-1","-73.8439162","40.7693384","No",,"0",,"College Point","4570123","4043810001","qu-907","(40.7693384, -73.8439162)"
"QU-12-118473","LINK5G_Ad","Live","118473","85098","Queens","27","412","2021-10-08T00:00:00.000",,,,"109-14 MERRICK BOULEVARD","Merrick Boulevard","169th Place","S","11433","C2-4","-73.7842625","40.6968902","No",,"0",,"South Jamaica","4216878","4101890008","4025800","(40.6968902, -73.7842625)"
"BX-05-153077","LINK5G_Ad","Live","153077",,"Bronx","15","205","2022-02-23T00:00:00.000","90109","2022-02-11T00:00:00.000",,"2110 GRAND CONCOURSE","GRAND CONCOURSE","ANTHONY AVENUE","S","10457","C1-4","-73.9015385","40.8544689","No",,"0",,"Mount Hope",,"2031560108","BX-235.02","(40.8544689, -73.9015385)"
