"borobox","box_type","location","zip","borough","communitydistict","citycouncil","latitude","longitude","location_point"
"B2653","ERS","3 AVE & 65 ST","11220","Brooklyn","BK07","38","40.63932033","-74.02354939","POINT (-74.02354939 40.63932033)"
"Q7917","BARS","WOODSIDE AVE & 69 ST","11377","Queens","QN02","26","40.7426855","-73.89565167","POINT (-73.89565167 40.7426855)"
"B0801","ERS","MYRTLE AVE & PALMETTO ST","11237","Brooklyn","QN05","34","40.69953211","-73.9110349","POINT (-73.9110349 40.69953211)"
"B1046","ERS","NEW YORK AVE & LEFFERTS AVE","11225","Brooklyn","BK09","40","40.66253364","-73.94791393","POINT (-73.94791393 40.66253364)"
"B0109","ERS","RIVER & NORTH 3 STS","11211","Brooklyn","BK01","33","40.71837562","-73.96462115","POINT (-73.96462115 40.71837562)"
"R2465","BARS","VINCENT AVE & COVERLY ST","10306","Staten Island","SI03","50","40.57084247","-74.12510919","POINT (-74.12510919 40.57084247)"
"Q3506","ERS","59 AVE & 136 ST","11355","Queens","QN07","20","40.74424412","-73.82953367","POINT (-73.82953367 40.74424412)"
"Q4382","ERS","WYCKOFF AVE & CENTRE ST","11385","Brooklyn","QN05","37","40.69635031","-73.90540128","POINT (-73.90540128 40.69635031)"
"Q6353","BARS","MANOR RD & CENTER DR","11363","Queens","QN11","19","40.77632656","-73.75132309","POINT (-73.75132309 40.77632656)"
"Q4207","ERS","METROPOLITAN AVE & PLEASANTVIEW ST","11379","Queens","QN05","30","40.71245415","-73.88205387","POINT (-73.88205387 40.71245415)"
"R0639","ERS","NARROWS RD N 1000' W OF FINGERBOARD RD","10305","Staten Island","SI01","49","40.60586273","-74.07242765","POINT (-74.07242765 40.60586273)"
"X2557","ERS","E 167 ST & STEBBINS ST/POLITE AVE","10459","Bronx","BX02","17","40.82627431","-73.89840604","POINT (-73.89840604 40.82627431)"
"X4762","ERS","W/S PARK AVE & E 186 ST","10458","Bronx","BX06","15","40.85790201","-73.89341592","POINT (-73.89341592 40.85790201)"
"B2691","ERS","12 AVE & 59 ST","11219","Brooklyn","BK12","44","40.63075638","-74.00014289","POINT (-74.00014289 40.63075638)"
"Q7296","BARS","50 AVE & 47 ST","11377","Queens","QN02","26","40.73735689","-73.91890954","POINT (-73.91890954 40.73735689)"
"M0107","ERS","WEST ST BTW MURRAY ST & WARREN ST","10007","Manhattan","MN01","1","40.71579721","-74.01291703","POINT (-74.01291703 40.71579721)"
"Q7838","BARS","ROOSEVELT AVE & 88 ST","11372","Queens","QN04","21","40.74822266","-73.87834313","POINT (-73.87834313 40.74822266)"
"Q3804","BARS","50 AVE & 210 ST","11364","Queens","QN11","23","40.75281186","-73.77003288","POINT (-73.77003288 40.75281186)"
"B1571","ERS","NOSTRAND AVE & LINDEN BLVD","11226","Brooklyn","BK17","40","40.65264232","-73.94976875","POINT (-73.94976875 40.65264232)"
"B1936","ERS","STANLEY AVE & BERRIMAN ST","11208","Brooklyn","BK05","42","40.66329419","-73.87475187","POINT (-73.87475187 40.66329419)"
"Q4014","ERS","CYPRESS AVE OPP 78 AVE","11385","Queens","QN05","30","40.69515789","-73.89861514","POINT (-73.89861514 40.69515789)"
"Q4235","ERS","JUNIPER VALLEY RD & 75 ST","11379","Queens","QN05","30","40.71548225","-73.87929945","POINT (-73.87929945 40.71548225)"
"B1240","ERS","4 AVE & ST MARKS PL","11217","Brooklyn","BK06","33","40.68185263","-73.9800351","POINT (-73.9800351 40.68185263)"
"R0712","BARS","JEWETT AVE & EGBERT AVE","10302","Staten Island","SI01","49","40.62454541","-74.13191628","POINT (-74.13191628 40.62454541)"
"B3934","ERS","HERKIMER ST & JARDINE PL","11233","Brooklyn","BK16","37","40.6772081","-73.90513693","POINT (-73.90513693 40.6772081)"
"Q6253","ERS","5 AVE & 149 ST","11357","Queens","QN07","19","40.79564319","-73.81900063","POINT (-73.81900063 40.79564319)"
"R0741","ERS","FOREST AVE & LIVERMORE AVE","10302","Staten Island","SI01","49","40.6242952","-74.13722714","POINT (-74.13722714 40.6242952)"
"Q9445","ERS","UNION TPK & 141 ST","11367","Queens","QN08","24","40.7172806","-73.81932997","POINT (-73.81932997 40.7172806)"
"B3661","ERS","GOTHAM AVE & SHELL BANK CREEK","11229","Brooklyn","BK15","46","40.58904772","-73.92842812","POINT (-73.92842812 40.58904772)"
"Q4742","BARS","24 AVE & 201 ST","11357","Queens","QN07","19","40.77589957","-73.79089093","POINT (-73.79089093 40.77589957)"
"M1221","ERS","1 AVE & E 94 ST","10128","Manhattan","MN08","5","40.78194718","-73.94566982","POINT (-73.94566982 40.78194718)"
"R2798","BARS","RICHMOND AVE & ROCKLAND AVE","10314","Staten Island","SI02","51","40.59529877","-74.16189941","POINT (-74.16189941 40.59529877)"
"M1504","ERS","5 AVE & E 128 ST","10027","Manhattan","MN10","9","40.80833427","-73.94086063","POINT (-73.94086063 40.80833427)"
"B1843","ERS","GLENMORE AVE & PINE ST","11208","Brooklyn","BK05","42","40.67680551","-73.87130777","POINT (-73.87130777 40.67680551)"
"Q7934","BARS","45 AVE & 81 ST","11373","Queens","QN04","25","40.74150481","-73.88387597","POINT (-73.88387597 40.74150481)"
"B1759","ERS","SUNNYSIDE AVE & BARBEY ST","11207","Brooklyn","BK05","37","40.68248486","-73.89028339","POINT (-73.89028339 40.68248486)"
"M1521","ERS","5 AVE & E 130 ST","10027","Manhattan","MN10","9","40.80958142","-73.93994876","POINT (-73.93994876 40.80958142)"
"B3283","ERS","VOORHIES AVE & E 26 ST","11235","Brooklyn","BK15","48","40.58689038","-73.94318574","POINT (-73.94318574 40.58689038)"
"Q9149","ERS","68 RD & 108 ST","11375","Queens","QN06","29","40.72629449","-73.84618699","POINT (-73.84618699 40.72629449)"
"Q9779","BARS","67 AVE & 214 ST","11364","Queens","QN11","23","40.74341137","-73.76158679","POINT (-73.76158679 40.74341137)"
"B0972","ERS","ATLANTIC AVE & CLASSON AVE","11238","Brooklyn","BK02","35","40.67983113","-73.95829217","POINT (-73.95829217 40.67983113)"
"Q6350","BARS","MANOR RD & DOUGLAS RD","11363","Queens","QN11","19","40.77719081","-73.74605457","POINT (-73.74605457 40.77719081)"
"Q8999","BARS","VAN WYCK XWAY W SVC RD & 105 AVE","11419","Queens","QN10","28","40.69057272","-73.81037271","POINT (-73.81037271 40.69057272)"
"Q0034","BARS","LGA - PARKING GARAGE E/END ARRIVAL BLD","11371","Queens","LGA","21","40.77278489","-73.87158358","POINT (-73.87158358 40.77278489)"
"Q6922","BARS","CROCHERON AVE & 170 ST","11358","Queens","QN07","19","40.7627955","-73.79610662","POINT (-73.79610662 40.7627955)"
"M1778","ERS","ST NICHOLAS AVE OPP W 193 ST","10040","Manhattan","MN12","10","40.85680813","-73.92826618","POINT (-73.92826618 40.85680813)"
"M1290","ERS","FDR DR & E 107 ST","10029","Manhattan","MN11","8","40.78951095","-73.93750187","POINT (-73.93750187 40.78951095)"
"B2211","ERS","HOPKINSON AVE/BOYLAND ST & HEGEMAN AVE","11212","Brooklyn","BK16","42","40.65593507","-73.91004188","POINT (-73.91004188 40.65593507)"
"Q3737","BARS","15 RD & 208 ST","11360","Queens","QN07","19","40.78499848","-73.78562776","POINT (-73.78562776 40.78499848)"
"R4761","BARS","LORETTO LA & WATERFRONT","10309","Staten Island","SI03","51","40.50402832","-74.21812604","POINT (-74.21812604 40.50402832)"
"B1586","ERS","CLARKSON AVE & E 40 ST","11203","Brooklyn","BK09","41","40.65600154","-73.94053215","POINT (-73.94053215 40.65600154)"
"R1947","ERS","RICHMOND AVE & DEPPE PL","10314","Staten Island","SI01","49","40.61792217","-74.15577784","POINT (-74.15577784 40.61792217)"
"B1978","ERS","DUMONT AVE & EMERALD ST","11208","Brooklyn","BK05","42","40.67138053","-73.85947417","POINT (-73.85947417 40.67138053)"
"B2573","ERS","14 AVE & 39 ST","11218","Brooklyn","BK12","39","40.63929771","-73.98408782","POINT (-73.98408782 40.63929771)"
"Q5578","BARS","93 RD & 224 ST","11428","Queens","QN13","23","40.72291868","-73.73149717","POINT (-73.73149717 40.72291868)"
"Q3867","BARS","EAST HAMPTON BLVD & HARDING XWAY N","11364","Queens","QN11","23","40.75218624","-73.74718849","POINT (-73.74718849 40.75218624)"
"Q9532","ERS","WOODHAVEN BLVD & 68 AVE","11379","Queens","QN05","29","40.71548717","-73.86062663","POINT (-73.86062663 40.71548717)"
"M1275","ERS","2 AVE & E 101 ST","10029","Manhattan","MN11","8","40.787442","-73.9447695","POINT (-73.9447695 40.787442)"
"B1662","ERS","BLAKE AVE & CHESTER ST","11212","Brooklyn","BK16","41","40.66548902","-73.91062465","POINT (-73.91062465 40.66548902)"
"Q6427","BARS","HARDING XWAY N & OVERBROOK ST","11362","Queens","QN11","19","40.75924987","-73.73611089","POINT (-73.73611089 40.75924987)"
"R2012","BARS","RICHMOND RD & HUNTER AVE","10306","Staten Island","SI02","50","40.58368564","-74.10790852","POINT (-74.10790852 40.58368564)"
"Q3281","BARS","ASTORIA BLVD N & 76 ST","11370","Queens","QN01","22","40.76678469","-73.89309377","POINT (-73.89309377 40.76678469)"
"Q5101","ERS","MYRTLE AVE & 73 ST","11385","Queens","QN05","30","40.70229404","-73.87639785","POINT (-73.87639785 40.70229404)"
"B0793","ERS","LEXINGTON AVE & MALCOLM X BLVD\REID AVE","11221","Brooklyn","BK03","36","40.68997797","-73.93036357","POINT (-73.93036357 40.68997797)"
"Q7427","BARS","34 AVE & 28 ST","11106","Queens","QN01","26","40.76079776","-73.92965062","POINT (-73.92965062 40.76079776)"
"M1230","ERS","FDR DR & E 97 ST","10029","Manhattan","MN11","8","40.78363246","-73.94351861","POINT (-73.94351861 40.78363246)"
"Q2213","ERS","S/S QUEENS BLVD & 58 ST","11377","Queens","QN02","26","40.74163074","-73.90770322","POINT (-73.90770322 40.74163074)"
"R1525","BARS","VICTORY BLVD & MOUNTAINVIEW AVE","10314","Staten Island","SI01","50","40.61276831","-74.12687085","POINT (-74.12687085 40.61276831)"
"Q5121","ERS","CENTRAL AVE & 69 PL","11385","Queens","QN05","30","40.70420133","-73.88287364","POINT (-73.88287364 40.70420133)"
"Q9839","ERS","97 AVE & SUTPHIN BLVD","11435","Queens","QN12","28","40.6972619","-73.80573926","POINT (-73.80573926 40.6972619)"
"Q4074","ERS","FLUSHING AVE & ONDERDONK AVE","11385","Queens","QN05","34","40.7114561","-73.91985955","POINT (-73.91985955 40.7114561)"
"Q5768","ERS","129 AVE & 236 ST","11422","Queens","QN13","31","40.68043734","-73.73117919","POINT (-73.73117919 40.68043734)"
"B3604","ERS","OCEANVIEW AVE & BRIGHTON 2 ST","11235","Brooklyn","BK13","48","40.57880751","-73.96581492","POINT (-73.96581492 40.57880751)"
"M1407","ERS","5 AVE & E 118 ST","10026","Manhattan","MN10","9","40.80197023","-73.94550864","POINT (-73.94550864 40.80197023)"
"Q4818","ERS","JAMAICA AVE & SUTPHIN BLVD","11435","Queens","QN12","27","40.70176553","-73.80792715","POINT (-73.80792715 40.70176553)"
"B1232","ERS","FLATBUSH AVE & PARK PL","11217","Brooklyn","BK08","35","40.67752281","-73.97271615","POINT (-73.97271615 40.67752281)"
"Q4514","ERS","22 AVE & 126 ST","11356","Queens","QN07","19","40.78015379","-73.84239892","POINT (-73.84239892 40.78015379)"
"B1729","ERS","GLENMORE AVE & SHEFFIELD AVE","11207","Brooklyn","BK05","37","40.67301661","-73.89716712","POINT (-73.89716712 40.67301661)"
"Q6218","BARS","150 ST & 20 RD","11357","Queens","QN07","19","40.78058083","-73.81429898","POINT (-73.81429898 40.78058083)"
"Q7671","BARS","ASTORIA BLVD & 81 ST","11370","Queens","QN03","22","40.76517834","-73.88806563","POINT (-73.88806563 40.76517834)"
"X2875","ERS","NOBLE AVE & GLEASON AVE","10472","Bronx","BX09","18","40.82942885","-73.86968144","POINT (-73.86968144 40.82942885)"
"B0482","ERS","FURMAN ST & MONTAGUE ST","11201","Brooklyn","BK02","33","40.69599978","-73.99824027","POINT (-73.99824027 40.69599978)"
"Q2105","ERS","101 AVE & 84 ST","11416","Queens","QN09","32","40.68160698","-73.85535333","POINT (-73.85535333 40.68160698)"
"Q9617","ERS","86 AVE & 105 ST","11418","Queens","QN09","32","40.69724833","-73.84300917","POINT (-73.84300917 40.69724833)"
"R1016","ERS","TARGEE ST & STEUBEN ST","10304","Staten Island","SI01","49","40.61072604","-74.08634215","POINT (-74.08634215 40.61072604)"
"B3828","ERS","DWIGHT ST & COFFEY ST","11231","Brooklyn","BK06","38","40.67422277","-74.01118011","POINT (-74.01118011 40.67422277)"
"B1611","ERS","E NEW YORK AVE & ST MARKS AVE","11212","Brooklyn","BK16","41","40.672948","-73.90925438","POINT (-73.90925438 40.672948)"
"X3822","ERS","SETON AVE & E 233 ST","10466","Bronx","BX12","12","40.88893566","-73.83643359","POINT (-73.83643359 40.88893566)"
"Q1326","ERS","ROCKAWAY BEACH BLVD & BEACH 84 ST","11693","Queens","QN14","31","40.58774216","-73.80986542","POINT (-73.80986542 40.58774216)"
"B0180","BARS","METROPOLITAN AVE & STEWART AVE","11237","Brooklyn","BK01","34","40.71420824","-73.92816525","POINT (-73.92816525 40.71420824)"
"X3969","ERS","ONEIDA AVE & E 236 ST","10470","Bronx","BX12","11","40.89769435","-73.87269698","POINT (-73.87269698 40.89769435)"
"Q5394","BARS","QUENCER RD & NEWBURGH ST","11412","Queens","QN12","27","40.69563063","-73.76458044","POINT (-73.76458044 40.69563063)"
"X3837","ERS","EDENWALD AVE & WILDER AVE","10466","Bronx","BX12","12","40.89328577","-73.8419206","POINT (-73.8419206 40.89328577)"
"Q5061","BARS","FOCH BLVD & MERRICK BLVD","11434","Queens","QN12","27","40.68701659","-73.77486249","POINT (-73.77486249 40.68701659)"
"X2883","ERS","SEABURY AVE & HERSHELL ST","10461","Bronx","BX10","13","40.83615871","-73.84246873","POINT (-73.84246873 40.83615871)"
"B4018","ERS","FLATLANDS AVE & FOUNTAIN AVE","11208","Brooklyn","BK05","42","40.66045225","-73.8671807","POINT (-73.8671807 40.66045225)"
"X3667","ERS","PRATT AVE & MAROLLA PLACE","10466","Bronx","BX12","12","40.88469455","-73.83591285","POINT (-73.83591285 40.88469455)"
"B2107","ERS","NEW LOTS AVE & HINSDALE ST","11207","Brooklyn","BK05","42","40.65983319","-73.89759944","POINT (-73.89759944 40.65983319)"
"B1446","ERS","4 AVE & 32 ST","11232","Brooklyn","BK07","38","40.65654952","-74.00209359","POINT (-74.00209359 40.65654952)"
"R1192","BARS","WESTERN AVE & RAILROAD CROSSING","10303","Staten Island","SI01","49","40.63448668","-74.18184158","POINT (-74.18184158 40.63448668)"
"R1429","BARS","XENIA ST & HURLBERT ST","10305","Staten Island","SI02","50","40.59215182","-74.08446979","POINT (-74.08446979 40.59215182)"
"R4689","ERS","PURDY PL & HOLTON AVE","10309","Staten Island","SI03","51","40.51273272","-74.19368776","POINT (-74.19368776 40.51273272)"
"B1423","ERS","3 AVE & 29 ST","11232","Brooklyn","BK07","38","40.65954746","-74.00262349","POINT (-74.00262349 40.65954746)"
"B2895","ERS","CROPSEY AVE & 20 AVE","11214","Brooklyn","BK11","43","40.60020309","-74.00281297","POINT (-74.00281297 40.60020309)"
"B2934","ERS","AVE I & EAST 15 ST","11230","Brooklyn","BK14","44","40.62757082","-73.96184657","POINT (-73.96184657 40.62757082)"
"Q7072","ERS","GRAND AVE & E/S OF NY CONN RAILROAD","11373","Queens","QN04","25","40.73049188","-73.88624327","POINT (-73.88624327 40.73049188)"
"R3768","ERS","CODY PL & CROCKER CT","10312","Staten Island","SI03","51","40.55520322","-74.20190242","POINT (-74.20190242 40.55520322)"
"Q0082","BARS","SHEA STADIUM 700' W OF 126 ST & 38 AVE","11368","Queens",,"21","40.75623317","-73.84642544","POINT (-73.84642544 40.75623317)"
"M0145","ERS","BROADWAY & THOMAS ST","10013","Manhattan","MN01","1","40.71575994","-74.00497613","POINT (-74.00497613 40.71575994)"
"M1417","ERS","MORNINGSIDE AVE & W 119 ST","10026","Manhattan","MN10","9","40.80754571","-73.95680544","POINT (-73.95680544 40.80754571)"
"M1782","ERS","AMSTERDAM AVE S OF FORT GEORGE AVE","10040","Manhattan","MN12","10","40.85501103","-73.926036","POINT (-73.926036 40.85501103)"
"R0428","BARS","VANDERBILT AVE & BAY ST","10304","Staten Island","SI01","49","40.62246402","-74.07253552","POINT (-74.07253552 40.62246402)"
"M0428","ERS","AVENUE B & E 4 ST","10009","Manhattan","MN03","2","40.72327798","-73.9825245","POINT (-73.9825245 40.72327798)"
"R0229","BARS","VICTORY BLVD & BAY ST","10301","Staten Island","SI01","49","40.6377481","-74.07601777","POINT (-74.07601777 40.6377481)"
"B0919","ERS","SCHENECTADY AVE & PARK PL","11213","Brooklyn","BK08","36","40.6725145","-73.93355357","POINT (-73.93355357 40.6725145)"
"M1323","ERS","BROADWAY & W 108 ST","10025","Manhattan","MN07","6","40.80292725","-73.96757497","POINT (-73.96757497 40.80292725)"
"Q4430","ERS","45 AVE & 160 ST","11358","Queens","QN07","20","40.7565452","-73.80639406","POINT (-73.80639406 40.7565452)"
"M1798","ERS","10 AVE & W 202 ST","10034","Manhattan","MN12","10","40.86131167","-73.921232","POINT (-73.921232 40.86131167)"
"R0563","ERS","UTTER AVE & MANOR RD","10314","Staten Island","SI01","50","40.61805942","-74.12362161","POINT (-74.12362161 40.61805942)"
"R2413","BARS","COMBS AVE 250' N OF CLARKE AVE/RVFD","10306","Staten Island","SI03","50","40.56593022","-74.13205095","POINT (-74.13205095 40.56593022)"
"B3013","ERS","AVENUE M & E 17 ST","11230","Brooklyn","BK14","44","40.61821719","-73.95814639","POINT (-73.95814639 40.61821719)"
"R1983","ERS","WYONA AVE & HAWTHORNE AVE","10314","Staten Island","SI01","50","40.61022205","-74.1489379","POINT (-74.1489379 40.61022205)"
"B0143","ERS","MANHATTAN AVE & FROST ST","11211","Brooklyn","BK01","34","40.71790704","-73.94665225","POINT (-73.94665225 40.71790704)"
"B2992","ERS","AVE M & EAST 15 ST","11230","Brooklyn","BK14","48","40.61801126","-73.96004232","POINT (-73.96004232 40.61801126)"
"Q9336","BARS","37 AVE & 111 ST","11368","Queens","QN03","21","40.75414368","-73.85715508","POINT (-73.85715508 40.75414368)"
"M0089","ERS","PEARL ST & BEEKMAN ST","10038","Manhattan","MN01","1","40.70808367","-74.00340211","POINT (-74.00340211 40.70808367)"
"B2587","ERS","11 AVE & 48 ST","11219","Brooklyn","BK12","44","40.63824637","-73.99594166","POINT (-73.99594166 40.63824637)"
"Q1314","ERS","ROCKAWAY BEACH BLVD & BEACH 75 ST","11692","Queens","QN14","32","40.58866769","-73.80274869","POINT (-73.80274869 40.58866769)"
"X3778","ERS","FIELDSTON RD & W 245 ST","10471","Bronx","BX08","11","40.89171407","-73.90558681","POINT (-73.90558681 40.89171407)"
"Q4123","ERS","68 RD & 60 ST","11385","Queens","QN05","30","40.70347577","-73.89981967","POINT (-73.89981967 40.70347577)"
"B2616","ERS","68 ST & 7 AVE E/S OF VZ BRIDGE APP","11220","Brooklyn","BK10","43","40.63178263","-74.01582528","POINT (-74.01582528 40.63178263)"
"B1709","ERS","LIBERTY AVE & SNEDIKER AVE","11207","Brooklyn","BK05","37","40.67357377","-73.90207722","POINT (-73.90207722 40.67357377)"
"Q7019","ERS","SW CORNER 73 ST & 57 AVE","11378","Queens","QN05","30","40.72843098","-73.88858241","POINT (-73.88858241 40.72843098)"
"Q1422","BARS","CRONSTON AVE & BEACH 135 ST","11694","Queens","QN14","32","40.57803909","-73.85511219","POINT (-73.85511219 40.57803909)"
"B2453","ERS","FOSTER AVE & E 21 ST","11226","Brooklyn","BK14","40","40.63679269","-73.95743328","POINT (-73.95743328 40.63679269)"
"Q2305","ERS","N/B CI PWAY AT 150 ST","11357","Queens","QN07","19","40.78726003","-73.81286381","POINT (-73.81286381 40.78726003)"
"Q7402","BARS","32 AVE & 51 ST","11377","Queens","QN01","26","40.75529168","-73.90846545","POINT (-73.90846545 40.75529168)"
"X4030","ERS","BRUSH AVE & ROHR PL","10465","Bronx","BX10","13","40.82178334","-73.8378736","POINT (-73.8378736 40.82178334)"
"R1031","BARS","ELBE AVE & SABLE AVE","10304","Staten Island","SI02","50","40.60604576","-74.08434222","POINT (-74.08434222 40.60604576)"
"Q7171","BARS","41 AVE & 21 ST","11101","Queens","QN01","26","40.75399761","-73.94243021","POINT (-73.94243021 40.75399761)"
"Q5256","BARS","HILLSIDE AVE & 187 ST","11423","Queens","QN08","24","40.71469631","-73.77529928","POINT (-73.77529928 40.71469631)"
"R3814","BARS","NELSON AVE & BELDEN ST","10308","Staten Island","SI03","51","40.5474525","-74.14995202","POINT (-74.14995202 40.5474525)"
"Q6615","BARS","CROYDEN RD & MAYFIELD RD","11432","Queens","QN08","24","40.71699938","-73.78961771","POINT (-73.78961771 40.71699938)"
"Q4485","ERS","SANFORD AVE & 149 ST","11355","Queens","QN07","20","40.76037161","-73.81508733","POINT (-73.81508733 40.76037161)"
"B1905","ERS","LINDEN BLVD & WILLIAMS AVE","11207","Brooklyn","BK05","42","40.65774692","-73.89610851","POINT (-73.89610851 40.65774692)"
"Q4918","ERS","JEWEL AVE/VAN ARSDALE AVE & 136 ST","11367","Queens","QN08","24","40.72834297","-73.82954332","POINT (-73.82954332 40.72834297)"
"B3884","ERS","BATH AVE & BAY 37 ST","11214","Brooklyn","BK11","47","40.59521085","-73.99238931","POINT (-73.99238931 40.59521085)"
"Q7528","BARS","HOYT AVE N & 24 ST","11102","Queens","QN01","22","40.77393148","-73.92165606","POINT (-73.92165606 40.77393148)"
"Q6806","BARS","109 AVE & 227 ST","11429","Queens","QN13","27","40.7066598","-73.72964716","POINT (-73.72964716 40.7066598)"
"B2540","ERS","17 AVE & 46 ST","11204","Brooklyn","BK12","44","40.63123292","-73.98130754","POINT (-73.98130754 40.63123292)"
"Q3106","ERS","QUEENS BLVD & 64 RD","11374","Queens","QN06","29","40.72915082","-73.8604723","POINT (-73.8604723 40.72915082)"
"M1584","ERS","HAMILTON PL & W 139 ST","10031","Manhattan","MN09","7","40.8221734","-73.95210583","POINT (-73.95210583 40.8221734)"
"R4392","ERS","AMBOY RD 75' E OF SHARROTT AVE","10309","Staten Island","SI03","51","40.52402543","-74.21401058","POINT (-74.21401058 40.52402543)"
"Q3206","ERS","66 RD & YELLOWSTONE BLVD","11375","Queens","QN06","29","40.72915439","-73.84944778","POINT (-73.84944778 40.72915439)"
"Q7989","BARS","43 AVE OPP 95 ST","11373","Queens","QN04","25","40.74524191","-73.869288","POINT (-73.869288 40.74524191)"
"Q7339","ERS","78 AVE & 88 ST","11385","Queens","QN05","30","40.70589893","-73.86108261","POINT (-73.86108261 40.70589893)"
"R0224","ERS","CEBRA AVE & VICTORY BLVD","10301","Staten Island","SI01","49","40.63395556","-74.08574929","POINT (-74.08574929 40.63395556)"
"Q5755","ERS","131 AVE & 218 ST","11413","Queens","QN13","31","40.6831333","-73.74935675","POINT (-73.74935675 40.6831333)"
"M1014","ERS","MADISON AVE & E 69 ST","10021","Manhattan","MN08","4","40.76984667","-73.9668471","POINT (-73.9668471 40.76984667)"
"X2609","ERS","BRUCKNER BLVD N/B & THERIOT AVE","10473","Bronx","BX09","18","40.82510524","-73.86295905","POINT (-73.86295905 40.82510524)"
"Q6451","BARS","60 AVE & HEWLETT ST","11362","Queens","QN11","23","40.7614709","-73.71691484","POINT (-73.71691484 40.7614709)"
"R3695","BARS","RICHMOND AVE & ARTHUR KILL RD","10312","Staten Island","SI03","51","40.561078","-74.16982656","POINT (-74.16982656 40.561078)"
"M1378","ERS","LEXINGTON AVE & E 115 ST","10029","Manhattan","MN11","8","40.7979438","-73.94212011","POINT (-73.94212011 40.7979438)"
"B2023","ERS","GLENMORE AVE & WYONA ST","11207","Brooklyn","BK05","37","40.67358165","-73.89335128","POINT (-73.89335128 40.67358165)"
"M0482","ERS","STUYVESANT TWN SVC RD 1 AVE & E 16 ST","10009","Manhattan","MN06","2","40.73264377","-73.981562","POINT (-73.981562 40.73264377)"
"B2379","ERS","PRESTON CT BTW E 56 ST & RALPH AVE","11234","Brooklyn","BK18","45","40.63999206","-73.92149332","POINT (-73.92149332 40.63999206)"
"R1583","ERS","SLOSSON AVE & MOTLEY AVE","10314","Staten Island","SI02","50","40.60801798","-74.11606167","POINT (-74.11606167 40.60801798)"
"B2816","ERS","16 AVE & 77 ST","11214","Brooklyn","BK11","43","40.61515271","-74.00203158","POINT (-74.00203158 40.61515271)"
"X3468","ERS","ADEE AVE & OLINVILLE AVE","10467","Bronx","BX12","15","40.86968361","-73.86822921","POINT (-73.86822921 40.86968361)"
"Q5270","ERS","109 AVE & 120 ST","11419","Queens","QN10","28","40.68250274","-73.82130359","POINT (-73.82130359 40.68250274)"
"X2965","ERS","JEROME AVE & MOUNT HOPE PL","10453","Bronx","BX05","14","40.8494181","-73.91112232","POINT (-73.91112232 40.8494181)"
"M1262","ERS","3 AVE & E 100 ST","10029","Manhattan","MN11","5","40.78775317","-73.94746094","POINT (-73.94746094 40.78775317)"
"M1483","ERS","1 AVE & E 126 ST","10035","Manhattan","MN11","8","40.80248977","-73.93089359","POINT (-73.93089359 40.80248977)"
"B0628","ERS","VANDERBILT AVE & DEKALB AVE","11205","Brooklyn","BK02","35","40.68946752","-73.96910363","POINT (-73.96910363 40.68946752)"
"Q1401","BARS","CRONSTON AVE & BEACH 124 ST","11694","Queens","QN14","32","40.58113253","-73.84592173","POINT (-73.84592173 40.58113253)"
"M1151","ERS","BROADWAY & W 84 ST","10024","Manhattan","MN07","6","40.78704606","-73.97758535","POINT (-73.97758535 40.78704606)"
"X3722","ERS","BROADWAY & W 230 ST","10463","Bronx","BX08","11","40.87691333","-73.90657623","POINT (-73.90657623 40.87691333)"
"B1816","ERS","ETNA AVE & RICHMOND ST","11208","Brooklyn","BK05","37","40.68582132","-73.87737336","POINT (-73.87737336 40.68582132)"
"Q5436","BARS","110 AVE & SPRINGFIELD BLVD","11429","Queens","QN13","27","40.70838463","-73.73861196","POINT (-73.73861196 40.70838463)"
"B1311","ERS","8 AVE & 16 ST","11215","Brooklyn","BK07","39","40.66153948","-73.98273252","POINT (-73.98273252 40.66153948)"
"R1876","ERS","ADAMS AVE & NORTH RAILROAD AVE","10306","Staten Island","SI02","50","40.5832691","-74.1041134","POINT (-74.1041134 40.5832691)"
"R1223","BARS","SAND LA & OLYMPIA BLVD","10305","Staten Island","SI02","50","40.59278577","-74.06831811","POINT (-74.06831811 40.59278577)"
"X3785","ERS","ARLINGTON AVE & W 246 ST","10471","Bronx","BX08","11","40.89263163","-73.90990306","POINT (-73.90990306 40.89263163)"
"B0455","ERS","COURT ST & MONTAGUE ST","11201","Brooklyn","BK02","33","40.69373505","-73.99044693","POINT (-73.99044693 40.69373505)"
"M1019","ERS","1 AVE & E 70 ST","10021","Manhattan","MN08","5","40.76649344","-73.95695607","POINT (-73.95695607 40.76649344)"
"Q1095","BARS","MOTT AVE & MCBRIDE ST","11691","Queens","QN14","31","40.60573893","-73.757706","POINT (-73.757706 40.60573893)"
"M1340","ERS","RIVERSIDE DR & W 111 ST","10025","Manhattan","MN09","7","40.80545283","-73.96772277","POINT (-73.96772277 40.80545283)"
"X4903","ERS","UNIVERSITY AVE & W KINGSBRIDGE RD","10468","Bronx","BX07","14","40.86828265","-73.90106211","POINT (-73.90106211 40.86828265)"
"R0026","BARS","JERSEY ST 500' S OF RICHMOND TERR","10301","Staten Island","SI01","49","40.64536605","-74.08785112","POINT (-74.08785112 40.64536605)"
"Q9509","ERS","WOODHAVEN BLVD & 65 AVE","11374","Queens","QN05","29","40.71997671","-73.86523871","POINT (-73.86523871 40.71997671)"
"R1494","BARS","SEA VIEW AVE & HYLAN BLVD","10305","Staten Island","SI02","50","40.58663049","-74.09220985","POINT (-74.09220985 40.58663049)"
"X3085","ERS","DORSEY & SEDDON STS","10461","Bronx","BX10","13","40.84069738","-73.84906246","POINT (-73.84906246 40.84069738)"
"R4852","ERS","YETMAN AVE & HYLAN BLVD","10307","Staten Island","SI03","51","40.50483163","-74.24163828","POINT (-74.24163828 40.50483163)"
"X2658","ERS","SOLON PL & HAVEMEYER AVE","10473","Bronx","BX09","18","40.82025032","-73.84504791","POINT (-73.84504791 40.82025032)"
"B1984","ERS","WILLIAMS AVE 600' S OF STANLEY AVE","11236","Brooklyn","BK18","42","40.65301502","-73.89428989","POINT (-73.89428989 40.65301502)"
"Q4554","ERS","LEAVITT ST & 137 ST","11354","Queens","QN07","20","40.76568772","-73.82912909","POINT (-73.82912909 40.76568772)"
"R4882","ERS","MASSACHUSETTS AVE 500' N OF HYLAN BLVD","10307","Staten Island","SI03","51","40.50436703","-74.25089386","POINT (-74.25089386 40.50436703)"
"Q5373","BARS","LINDEN BLVD & 176 ST","11434","Queens","QN12","27","40.69290356","-73.77360351","POINT (-73.77360351 40.69290356)"
"R1772","BARS","BUCHANAN AVE & HAROLD ST","10314","Staten Island","SI02","49","40.60126175","-74.13311765","POINT (-74.13311765 40.60126175)"
"M0529","ERS","GREENWICH AVE & BANK ST","10014","Manhattan","MN02","3","40.73716857","-74.00146275","POINT (-74.00146275 40.73716857)"
"M0256","ERS","NORFOLK ST & GRAND ST","10002","Manhattan","MN03","1","40.7164457","-73.98836626","POINT (-73.98836626 40.7164457)"
"Q7109","BARS","MASPETH AVE & PAGE PL","11378","Queens","QN05","30","40.72200551","-73.91655468","POINT (-73.91655468 40.72200551)"
"R1108","ERS","LISK AVE & SOUTH AVE","10303","Staten Island","SI01","49","40.6231246","-74.16759586","POINT (-74.16759586 40.6231246)"
"Q7361","BARS","38 AVE & 27 ST","11101","Queens","QN01","26","40.75539132","-73.93503981","POINT (-73.93503981 40.75539132)"
"Q7817","BARS","ROOSEVELT AVE & 62 ST","11377","Queens","QN02","26","40.74573086","-73.90211693","POINT (-73.90211693 40.74573086)"
"R0374","ERS","BROADWAY & MARKHAM RD","10310","Staten Island","SI01","49","40.63889764","-74.11768776","POINT (-74.11768776 40.63889764)"
"B3185","ERS","AVENUE L & E 72 ST","11234","Brooklyn","BK18","46","40.62637184","-73.91449727","POINT (-73.91449727 40.62637184)"
"Q9181","ERS","64 AVE & 102 ST","11375","Queens","QN06","29","40.73175437","-73.85358841","POINT (-73.85358841 40.73175437)"
"B3995","BARS","AVENUE S & COLEMAN ST","11234","Brooklyn","BK18","46","40.61207456","-73.92774665","POINT (-73.92774665 40.61207456)"
"B1489","ERS","10 AVE & 40 ST","11219","Brooklyn","BK12","39","40.64406012","-73.99348583","POINT (-73.99348583 40.64406012)"
"Q6781","BARS","80 AVE & 265 ST","11004","Queens","QN13","23","40.74584553","-73.70653275","POINT (-73.70653275 40.74584553)"
"B1010","ERS","PLAZA ST & BUTLER PL","11238","Brooklyn","BK08","35","40.67471278","-73.96899919","POINT (-73.96899919 40.67471278)"
"R3856","BARS","ARMSTRONG AVE & OCEANVIEW PL","10308","Staten Island","SI03","51","40.54112902","-74.15404903","POINT (-74.15404903 40.54112902)"
"X2954","ERS","BATHGATE AVE & E 176 ST","10457","Bronx","BX06","15","40.84564214","-73.8977025","POINT (-73.8977025 40.84564214)"
"R0493","BARS","TOMPKINS AVE & CLIFTON AVE","10305","Staten Island","SI01","49","40.61272606","-74.07141153","POINT (-74.07141153 40.61272606)"
"Q3188","BARS","S/S QUEENS BLVD & 82 RD","11415","Queens","QN09","29","40.71227625","-73.82661953","POINT (-73.82661953 40.71227625)"
"Q4977","ERS","57 AVE & VAN HORN ST","11373","Queens","QN04","25","40.73239605","-73.87643249","POINT (-73.87643249 40.73239605)"
"M1497","ERS","W 127 ST & LENOX AVE/MALCOLM X BLVD","10027","Manhattan","MN10","9","40.80907023","-73.94453779","POINT (-73.94453779 40.80907023)"
"R4229","ERS","WOODS OF ARDEN RD & BATHGATE ST","10312","Staten Island","SI03","51","40.53106685","-74.15908527","POINT (-74.15908527 40.53106685)"
"B1062","ERS","ROGERS AVE & UNION ST","11225","Brooklyn","BK09","35","40.66911459","-73.95335278","POINT (-73.95335278 40.66911459)"
"B4075","ERS","VANDALIA AVE & BETHEL LOOP","11239","Brooklyn","BK05","42","40.65180396","-73.88244151","POINT (-73.88244151 40.65180396)"
"Q9910","BARS","OAK AVE & 164 ST","11358","Queens","QN07","20","40.74976515","-73.80287667","POINT (-73.80287667 40.74976515)"
"M1622","ERS","BROADWAY & W 145 ST","10031","Manhattan","MN09","7","40.82642864","-73.95044994","POINT (-73.95044994 40.82642864)"
"Q7580","BARS","20 AVE & 29 ST","11105","Queens","QN01","22","40.78043103","-73.90729372","POINT (-73.90729372 40.78043103)"
"R2233","BARS","ROMA AVE & NEW DORP LA","10306","Staten Island","SI02","50","40.56564349","-74.10002281","POINT (-74.10002281 40.56564349)"
"M0654","ERS","8 AVE & W 27 ST","10001","Manhattan","MN05","3","40.74782273","-73.99664704","POINT (-73.99664704 40.74782273)"
"M1049","ERS","3 AVE & E 74 ST","10021","Manhattan","MN08","4","40.77106427","-73.95964441","POINT (-73.95964441 40.77106427)"
"B0433","ERS","JOHNSON ST & LAWRENCE ST","11201","Brooklyn","BK02","33","40.69492406","-73.986169","POINT (-73.986169 40.69492406)"
"B0792","ERS","LEWIS AVE & LEXINGTON AVE","11221","Brooklyn","BK03","36","40.689354","-73.9363203","POINT (-73.9363203 40.689354)"
"M1307","ERS","5 AVE & E 106 ST","83","Manhattan","MN11","6","40.79428503","-73.95111102","POINT (-73.95111102 40.79428503)"
"B1239","ERS","DEAN ST & 4 AVE","11217","Brooklyn","BK06","33","40.68312884","-73.97918391","POINT (-73.97918391 40.68312884)"
"B0311","ERS","WYTHE AVENUE S OF CLYMER ST","11211","Brooklyn","BK01","33","40.70420946","-73.96550334","POINT (-73.96550334 40.70420946)"
"R3665","ERS","WAINWRIGHT AVE & READING AVE","10312","Staten Island","SI03","51","40.55529524","-74.17079415","POINT (-74.17079415 40.55529524)"
"Q6763","BARS","HILLSIDE AVE & 260 ST","NA","Queens","QN13","23","40.73733382","-73.70831903","POINT (-73.70831903 40.73733382)"
"Q6026","BARS","LITTLE NECK PWAY & 252 ST","11426","Queens","QN13","23","40.75189482","-73.72124305","POINT (-73.72124305 40.75189482)"
"Q3642","BARS","47 AVE & AUBURNDALE LA","11358","Queens","QN07","20","40.75052127","-73.7948269","POINT (-73.7948269 40.75052127)"
"Q4979","BARS","64 AVE & 174 ST","11365","Queens","QN08","24","40.73802907","-73.79489193","POINT (-73.79489193 40.73802907)"
"R1734","ERS","MARTIN AVE & WESTWOOD AVE","10314","Staten Island","SI02","50","40.60568317","-74.13975632","POINT (-74.13975632 40.60568317)"
"Q7522","BARS","26 AVE & 9 ST","11102","Queens","QN01","22","40.77546819","-73.93026438","POINT (-73.93026438 40.77546819)"
"B3304","ERS","SHEEPSHEAD BAY RD & E 16 ST","11235","Brooklyn","BK15","48","40.58719508","-73.95325196","POINT (-73.95325196 40.58719508)"
"Q6954","BARS","29 AVE & 160 ST","11358","Queens","QN07","19","40.77108605","-73.80441774","POINT (-73.80441774 40.77108605)"
"M0480","ERS","IRVING PL & E 17 ST","10003","Manhattan","MN06","2","40.73587893","-73.98738718","POINT (-73.98738718 40.73587893)"
"Q7808","BARS","37 AVE & 58 ST","11377","Queens","QN02","26","40.75016151","-73.9043343","POINT (-73.9043343 40.75016151)"
"R0956","BARS","LAKE AVE & RAILROAD CROSSING","10303","Staten Island","SI01","49","40.63396355","-74.15099378","POINT (-74.15099378 40.63396355)"
"X4138","ERS","CALHOUN AVE & CROSS BX XWAY E/B SR","10465","Bronx","BX10","13","40.82336032","-73.8222056","POINT (-73.8222056 40.82336032)"
"B2235","ERS","DITMAS AVE & E 87 ST","11236","Brooklyn","BK17","45","40.64668354","-73.91693684","POINT (-73.91693684 40.64668354)"
"R0346","ERS","BEMENT AVE & RICHMOND TERRACE","10310","Staten Island","SI01","49","40.64289131","-74.11385261","POINT (-74.11385261 40.64289131)"
"B1047","ERS","BROOKLYN AVE & FENIMORE ST","11203","Brooklyn","BK09","40","40.65901046","-73.94525998","POINT (-73.94525998 40.65901046)"
"B2128","ERS","AVENUE D & E 104 ST","11236","Brooklyn","BK18","42","40.65279398","-73.90296011","POINT (-73.90296011 40.65279398)"
"X2138","ERS","3 AVE & E 137 ST","10451","Bronx","BX01","8","40.81048605","-73.92801376","POINT (-73.92801376 40.81048605)"
"M0942","ERS","5 AVE & 60 ST","83","Manhattan",,"6","40.76489773","-73.97255352","POINT (-73.97255352 40.76489773)"
"Q5607","BARS","88 RD & 247 ST","11426","Queens","QN13","23","40.72866627","-73.72091197","POINT (-73.72091197 40.72866627)"
"Q1346","ERS","SHORE FRONT PWAY & BEACH 94 ST","11693","Queens","QN14","32","40.58403754","-73.81528084","POINT (-73.81528084 40.58403754)"
"Q6077","ERS","103 AVE & 126 ST","11419","Queens","QN10","28","40.68964244","-73.81906075","POINT (-73.81906075 40.68964244)"
"B1563","ERS","TILDEN AVE & ROGERS AVE","11226","Brooklyn","BK17","40","40.64677092","-73.95204923","POINT (-73.95204923 40.64677092)"
"M1213","ERS","BROADWAY & W 92 ST","10025","Manhattan","MN07","6","40.79209413","-73.97364908","POINT (-73.97364908 40.79209413)"
"Q8685","BARS","122 AVE & LONG ST","11434","Queens","QN12","28","40.6787036","-73.78174233","POINT (-73.78174233 40.6787036)"
"R0271","ERS","ST PAULS AVE & SWAN ST","10301","Staten Island","SI01","49","40.63486398","-74.07845484","POINT (-74.07845484 40.63486398)"
"R2446","ERS","WOLVERINE ST & AMBOY RD/RVFD","10306","Staten Island","SI03","50","40.5670284","-74.12783491","POINT (-74.12783491 40.5670284)"
"R2262","BARS","BEACH AVE & CLAWSON ST","10306","Staten Island","SI02","50","40.56869076","-74.11461009","POINT (-74.11461009 40.56869076)"
"X3591","ERS","JEROME AVE & E 212 ST","10467","Bronx","BX07","11","40.88439063","-73.87995799","POINT (-73.87995799 40.88439063)"
"X4054","ERS","CALHOUN AVE & SAMPSON AVE","10465","Bronx","BX10","13","40.81987024","-73.81986115","POINT (-73.81986115 40.81987024)"
"M1179","ERS","5 AVE & E 88 ST","83","Manhattan","MN08","6","40.78283332","-73.95946906","POINT (-73.95946906 40.78283332)"
"Q5157","BARS","109 AVE & 124 ST","11419","Queens","QN10","28","40.6835011","-73.81811862","POINT (-73.81811862 40.6835011)"
"B3893","ERS","SNYDER AVE & E 38 ST","11203","Brooklyn","BK17","45","40.64939399","-73.94169995","POINT (-73.94169995 40.64939399)"
"X2366","ERS","SENECA AVE & LONGFELLOW AVE","10474","Bronx","BX02","17","40.81912848","-73.88577796","POINT (-73.88577796 40.81912848)"
"Q4202","BARS","58 RD & 64 ST","11378","Queens","QN05","30","40.72074379","-73.90091573","POINT (-73.90091573 40.72074379)"
"Q4224","ERS","FURMANVILLE AVE & 83 PL","11379","Queens","QN05","30","40.71890376","-73.86877878","POINT (-73.86877878 40.71890376)"
"B3533","ERS","NEPTUNE AVE & W 28 ST","11224","Brooklyn","BK13","47","40.57787974","-73.99475686","POINT (-73.99475686 40.57787974)"
"Q5018","ERS","SAYRES AVE & 167 ST","11433","Queens","QN12","27","40.69162129","-73.78333085","POINT (-73.78333085 40.69162129)"
"B0674","ERS","WILLOUGHBY AVE & MARCY AVE","11206","Brooklyn","BK03","36","40.69390487","-73.94891392","POINT (-73.94891392 40.69390487)"
"Q7193","BARS","40 RD & NORTHERN BLVD","11101","Queens","QN01","26","40.75097904","-73.93474259","POINT (-73.93474259 40.75097904)"
"B2137","ERS","FOSTER AVE & E 101 ST","11236","Brooklyn","BK18","42","40.65024397","-73.90273372","POINT (-73.90273372 40.65024397)"
"B3357","ERS","AVENUE Z & E 7 ST","11235","Brooklyn","BK13","48","40.5871215","-73.96204485","POINT (-73.96204485 40.5871215)"
"Q5248","BARS","HILLSIDE AVE & 180 ST","11432","Queens","QN12","24","40.71293755","-73.78262547","POINT (-73.78262547 40.71293755)"
"B3233","ERS","AVENUE T & GERRITSEN AVE","11229","Brooklyn","BK15","46","40.60334437","-73.93682748","POINT (-73.93682748 40.60334437)"
"B3327","ERS","AVENUE P & E 12 ST","11230","Brooklyn","BK15","48","40.61009887","-73.96137268","POINT (-73.96137268 40.61009887)"
"M1297","ERS","AMSTERDAM AVE & W 105 ST","10025","Manhattan","MN07","7","40.79976083","-73.96620573","POINT (-73.96620573 40.79976083)"
"R2863","BARS","ST PATRICKS PL & W CEDARVIEW AVE/RVFD","10306","Staten Island","SI03","50","40.57038121","-74.14388544","POINT (-74.14388544 40.57038121)"
"Q7261","BARS","47 AVE & 38 ST","11101","Queens","QN02","26","40.742123","-73.92744375","POINT (-73.92744375 40.742123)"
"X3024","ERS","ZEREGA AVE & HALSEY ST","10461","Bronx","BX10","18","40.83565135","-73.84559222","POINT (-73.84559222 40.83565135)"
"Q9335","BARS","34 AVE & 110 ST","11368","Queens","QN03","21","40.75649222","-73.85879892","POINT (-73.85879892 40.75649222)"
"Q8850","BARS","111 AVE & 139 ST","11435","Queens","QN12","28","40.68515987","-73.80525446","POINT (-73.80525446 40.68515987)"
"B1291","ERS","4 AVE & PROSPECT AVE","11215","Brooklyn","BK07","39","40.66550728","-73.99277081","POINT (-73.99277081 40.66550728)"
"X3870","ERS","E 234 ST & BYRON AVE","10466","Bronx","BX12","12","40.8936239","-73.85524068","POINT (-73.85524068 40.8936239)"
"B1147","ERS","3 AVE & 80 ST","11209","Brooklyn","BK10","43","40.62783292","-74.02927465","POINT (-74.02927465 40.62783292)"
"B2355","ERS","FOSTER AVE & E 83 ST","11236","Brooklyn","BK18","45","40.64194765","-73.91662099","POINT (-73.91662099 40.64194765)"
"B0613","ERS","CARLTON AVE & FULTON ST","11238","Brooklyn","BK02","35","40.6850205","-73.971223","POINT (-73.971223 40.6850205)"
"X3397","ERS","BRIGGS AVE & E 197 ST","10458","Bronx","BX07","15","40.86836792","-73.88980523","POINT (-73.88980523 40.86836792)"
"Q7503","BARS","29 AVE & CRESCENT ST","11102","Queens","QN01","22","40.76926521","-73.92457256","POINT (-73.92457256 40.76926521)"
"B3445","ERS","W/S 15 AVE OPP INDEPENDENCE AVE","11228","Brooklyn","BK11","43","40.60433737","-74.01700324","POINT (-74.01700324 40.60433737)"
"Q2822","ERS","253 ST & 149 RD","11422","Queens","QN13","31","40.65231516","-73.73687251","POINT (-73.73687251 40.65231516)"
"Q4779","BARS","29 AVE & 170 ST","11358","Queens","QN07","19","40.77061215","-73.79503666","POINT (-73.79503666 40.77061215)"
"M0564","ERS","7 AVE & W 15 ST","10011","Manhattan","MN04","3","40.73924284","-73.99918496","POINT (-73.99918496 40.73924284)"
"X4770","ERS","DAVIDSON AVE & W 176 ST","10453","Bronx","BX05","14","40.84843248","-73.91297839","POINT (-73.91297839 40.84843248)"
"Q4824","ERS","108 AVE & UNION HALL ST","11433","Queens","QN12","28","40.69617957","-73.79216302","POINT (-73.79216302 40.69617957)"
"M1332","ERS","1 AVE & E 110 ST","10029","Manhattan","MN11","8","40.79218819","-73.93819347","POINT (-73.93819347 40.79218819)"
"R0865","ERS","SCHOHARIE ST & CLOVE RD","10301","Staten Island","SI01","49","40.61460049","-74.10209434","POINT (-74.10209434 40.61460049)"
"R2275","BARS","MILL RD & EBBITTS ST","10306","Staten Island","SI02","50","40.56431067","-74.11013947","POINT (-74.11013947 40.56431067)"
"Q4724","BARS","138 ST & COOLIDGE AVE","11435","Queens","QN08","24","40.71542481","-73.82130001","POINT (-73.82130001 40.71542481)"
"Q5550","BARS","89 AVE & 212 ST","11427","Queens","QN13","23","40.72351294","-73.75262896","POINT (-73.75262896 40.72351294)"
"B0290","BARS","STEWART AVE & SCHOLES ST","11237","Brooklyn","BK01","34","40.71161292","-73.9269976","POINT (-73.9269976 40.71161292)"
"B3419","ERS","QUENTIN RD & W 12 ST","11223","Brooklyn","BK11","44","40.60531276","-73.98492572","POINT (-73.98492572 40.60531276)"
"Q5177","ERS","HARDING XWAY S & PARSONS BLVD","11365","Queens","QN08","24","40.7382339","-73.81027046","POINT (-73.81027046 40.7382339)"
"Q4627","ERS","47 AVE & 70 ST","11377","Queens","QN02","30","40.73902708","-73.8940757","POINT (-73.8940757 40.73902708)"
"X3499","ERS","WALLACE AVE & SOUTH OAK DR","10467","Bronx","BX12","12","40.87222258","-73.86424876","POINT (-73.86424876 40.87222258)"
"X2781","ERS","WEBSTER AVE & CLAREMONT PWAY","10457","Bronx","BX03","16","40.83979143","-73.90515859","POINT (-73.90515859 40.83979143)"
"Q4345","BARS","BOOTH MEMORIAL AVE & FRESH MEADOW LA","11365","Queens","QN07","20","40.74193303","-73.79695065","POINT (-73.79695065 40.74193303)"
"B1092","ERS","FLATBUSH AVE & WINTHROP ST","11226","Brooklyn","BK09","40","40.65648588","-73.96007277","POINT (-73.96007277 40.65648588)"
"Q5278","BARS","89 AVE & 202 ST","11423","Queens","QN12","23","40.71849352","-73.76084487","POINT (-73.76084487 40.71849352)"
"R1321","BARS","COLLEGE AVE & CRYSTAL AVE","10314","Staten Island","SI01","50","40.6221653","-74.14161654","POINT (-74.14161654 40.6221653)"
"R0262","ERS","BROAD ST & QUINN ST","10304","Staten Island","SI01","49","40.62493911","-74.07853596","POINT (-74.07853596 40.62493911)"
"B0015","BARS","GARDNER AVE & CHERRY  ST","11222","Brooklyn","BK01","34","40.72556213","-73.93147295","POINT (-73.93147295 40.72556213)"
"X2617","ERS","O'BRIEN AVE & SOUND VIEW AVE","10473","Bronx","BX09","18","40.81131269","-73.85627735","POINT (-73.85627735 40.81131269)"
"M1259","ERS","2 AVE & E 99 ST","10029","Manhattan","MN11","8","40.78617301","-73.94569523","POINT (-73.94569523 40.78617301)"
"R0535","ERS","SLOSSON AVE & RICE AVE","10301","Staten Island","SI01","50","40.61787405","-74.11787188","POINT (-74.11787188 40.61787405)"
"Q5590","BARS","87 AVE & WINCHESTER BLVD","11427","Queens","QN13","23","40.73122719","-73.73612299","POINT (-73.73612299 40.73122719)"
"Q5782","BARS","133 AVE & 222 ST","11413","Queens","QN13","31","40.67961881","-73.74669816","POINT (-73.74669816 40.67961881)"
"Q5973","ERS","147 DR & HUXLEY ST","11422","Queens","QN13","31","40.65596698","-73.74060787","POINT (-73.74060787 40.65596698)"
"Q7970","BARS","ROOSEVELT AVE & 94 ST","11373","Queens","QN04","21","40.74873875","-73.87264739","POINT (-73.87264739 40.74873875)"
"R1385","ERS","JEWETT AVE & COLLEGE AVE","10314","Staten Island","SI01","50","40.62102069","-74.13180412","POINT (-74.13180412 40.62102069)"
"B1435","ERS","5 AVE & 23 ST","11232","Brooklyn","BK07","38","40.66022793","-73.99458791","POINT (-73.99458791 40.66022793)"
"R0593","ERS","MAINE AVE & VIRGINIA PL","10314","Staten Island","SI01","50","40.62051212","-74.12988477","POINT (-74.12988477 40.62051212)"
"Q9785","BARS","BELL BLVD & 67 AVE","11364","Queens","QN11","23","40.74394992","-73.75962733","POINT (-73.75962733 40.74394992)"
"Q5417","BARS","103 AVE & 223 ST","11429","Queens","QN13","27","40.71147002","-73.73149387","POINT (-73.73149387 40.71147002)"
"Q4683","ERS","METROPOLITAN AVE 1000'W OF COOPER AVE","11379","Queens","QN05","30","40.71272987","-73.86611935","POINT (-73.86611935 40.71272987)"
"Q7695","BARS","25 AVE & 73 ST","11370","Queens","QN03","22","40.76216143","-73.8950851","POINT (-73.8950851 40.76216143)"
"B2989","ERS","CONEY ISLAND AVE & AVENUE M","11230","Brooklyn","BK12","48","40.6175894","-73.96381145","POINT (-73.96381145 40.6175894)"
"X2385","ERS","SHERIDAN AVE & E 163 ST","10451","Bronx","BX04","16","40.8280998","-73.92020144","POINT (-73.92020144 40.8280998)"
"Q1017","BARS","EMPIRE AVE & VIRGINIA ST","11691","Queens","QN14","31","40.60695243","-73.74351982","POINT (-73.74351982 40.60695243)"
"Q4286","ERS","FLUSHING AVE & 60 ST","11378","Queens","QN05","30","40.71933341","-73.90683805","POINT (-73.90683805 40.71933341)"
"R4236","ERS","WOODS OF ARDEN RD & KOCH BLVD","10312","Staten Island","SI03","51","40.53573727","-74.16377856","POINT (-74.16377856 40.53573727)"
"Q7963","ERS","B'WAY & CORONA AVE","11373","Queens","QN04","25","40.7395438","-73.87791763","POINT (-73.87791763 40.7395438)"
"X2209","ERS","BROOK AVE & E 147 ST","10455","Bronx","BX01","8","40.81361574","-73.91571885","POINT (-73.91571885 40.81361574)"
"R0680","ERS","MC CLEAN AVE & TOMPKINS AVE","10305","Staten Island","GNRA","50","40.59954224","-74.06192003","POINT (-74.06192003 40.59954224)"
"Q4955","ERS","JEWEL AVE/VAN ARSDALE AVE & 152 ST","11367","Queens","QN08","24","40.7317114","-73.81749179","POINT (-73.81749179 40.7317114)"
"Q7774","BARS","32 AVE & 85 ST","11370","Queens","QN03","25","40.75797628","-73.88296375","POINT (-73.88296375 40.75797628)"
"B0945","ERS","NEW YORK AVE & FULTON ST","11216","Brooklyn","BK03","36","40.68023966","-73.94674916","POINT (-73.94674916 40.68023966)"
"Q8902","ERS","131 AVE & 140 ST","11436","Queens","QN12","28","40.67068828","-73.79917995","POINT (-73.79917995 40.67068828)"
"M0903","ERS","SUTTON PL S & E 55 ST","10022","Manhattan","MN06","4","40.7560589","-73.9616223","POINT (-73.9616223 40.7560589)"
"R2961","ERS","PLATINUM AVE & MARSH AVE/RVFD","10314","Staten Island","SI02","51","40.57696052","-74.16441336","POINT (-74.16441336 40.57696052)"
"R4478","ERS","JANSEN ST & JANSEN CT","10312","Staten Island","SI03","51","40.52747464","-74.18024803","POINT (-74.18024803 40.52747464)"
"B0721","ERS","KNICKERBOCKER AVE & GEORGE ST","11237","Brooklyn","BK04","34","40.7045257","-73.92839567","POINT (-73.92839567 40.7045257)"
"R2972","ERS","FOREST HILL RD & STONE LA/RVFD","10314","Staten Island","SI02","51","40.57793668","-74.15734194","POINT (-74.15734194 40.57793668)"
"Q2009","ERS","PITKIN AVE & CROSS BAY BLVD","11417","Queens","QN10","32","40.67215126","-73.84317936","POINT (-73.84317936 40.67215126)"
"Q5287","BARS","90 AVE & FRANCIS LEWIS BLVD","11427","Queens","QN12","23","40.7181386","-73.75725672","POINT (-73.75725672 40.7181386)"
"X3849","ERS","BRONXWOOD AVE & PITMAN AVE","10466","Bronx","BX12","12","40.8949221","-73.85313545","POINT (-73.85313545 40.8949221)"
"R4451","ERS","BERTRAM AVE & WENDY DR","10312","Staten Island","SI03","51","40.52809798","-74.17769592","POINT (-74.17769592 40.52809798)"
"Q1094","BARS","MOTT AVE & BEACH CHANNEL DR","11691","Queens","QN14","31","40.60533444","-73.75527385","POINT (-73.75527385 40.60533444)"
"X3634","ERS","BRONXWOOD AVE & E 214 ST","10467","Bronx","BX12","12","40.87836638","-73.85892378","POINT (-73.85892378 40.87836638)"
"Q5707","BARS","118 AVE & 198 ST","11412","Queens","QN12","27","40.69288885","-73.75375229","POINT (-73.75375229 40.69288885)"
"Q6234","BARS","17 RD & 147 ST","11357","Queens","QN07","19","40.78379738","-73.81868716","POINT (-73.81868716 40.78379738)"
"B0832","ERS","BROADWAY OPP WEIRFIELD ST","11207","Brooklyn","BK04","37","40.68607207","-73.91604599","POINT (-73.91604599 40.68607207)"
"Q1373","ERS","OCEAN PROMENADE & BEACH 111 ST","11694","Queens","QN14","32","40.579199","-73.83181951","POINT (-73.83181951 40.579199)"
"Q8638","BARS","116 AVE & 166 ST","11434","Queens","QN12","28","40.6867468","-73.78137106","POINT (-73.78137106 40.6867468)"
"B2092","ERS","STANLEY AVE & GEORGIA AVE","11207","Brooklyn","BK05","42","40.65626087","-73.89108235","POINT (-73.89108235 40.65626087)"
"Q9353","BARS","NORTHERN BLVD & 102 ST","11369","Queens","QN03","21","40.75753552","-73.86656998","POINT (-73.86656998 40.75753552)"
"Q8824","BARS","SHORE AVE & WALTHAM ST","11435","Queens","QN12","28","40.69288735","-73.80159325","POINT (-73.80159325 40.69288735)"
"Q6382","BARS","DEPEW AVE & STUART LA VIA 240 ST","11363","Queens","QN11","19","40.77013671","-73.74451618","POINT (-73.74451618 40.77013671)"
"Q4644","BARS","102 ST & NATIONAL ST","11368","Queens","QN04","21","40.74807064","-73.86332594","POINT (-73.86332594 40.74807064)"
"Q9648","ERS","91 AVE & 116 ST","11418","Queens","QN09","29","40.6951482","-73.83139075","POINT (-73.83139075 40.6951482)"
"R2756","BARS","KELLY BLVD & BRAISTED AVE","10314","Staten Island","SI02","50","40.58904175","-74.15207346","POINT (-74.15207346 40.58904175)"
"B1548","ERS","WOODRUFF AVE & FLATBUSH AVE","11226","Brooklyn","BK14","40","40.65483921","-73.95969666","POINT (-73.95969666 40.65483921)"
"R8708","ERS","W SHORE XWAY S/B 1200' N BLOOMFIELD AVE","10314","Staten Island","SI02","50","40.6158425","-74.1784615","POINT (-74.1784615 40.6158425)"
"X3955","ERS","TYNDALL AVE & W 262 ST","10471","Bronx","BX08","11","40.91123941","-73.90008624","POINT (-73.90008624 40.91123941)"
"Q5254","BARS","HILLSIDE AVE & 184 PL","11432","Queens","QN12","27","40.71426199","-73.77712347","POINT (-73.77712347 40.71426199)"
"Q9549","ERS","69 AVE & JUNO ST","11375","Queens","QN06","29","40.71551858","-73.85303351","POINT (-73.85303351 40.71551858)"
"B2323","ERS","TILDEN AVE & E 51 ST","11203","Brooklyn","BK17","45","40.64824326","-73.92899371","POINT (-73.92899371 40.64824326)"
"X3697","ERS","BARNES AVE & E 227 ST","10466","Bronx","BX12","12","40.88830337","-73.8568079","POINT (-73.8568079 40.88830337)"
"Q4108","ERS","FAIRVIEW AVE & BLEECKER ST","11385","Queens","QN05","30","40.70811527","-73.90821718","POINT (-73.90821718 40.70811527)"
"R2419","BARS","BARBARA ST 150' W OF E BROADWAY/RVFD","10306","Staten Island","SI03","50","40.56901683","-74.12897443","POINT (-74.12897443 40.56901683)"
"B2316","ERS","SNYDER AVE & E 58 ST","11203","Brooklyn","BK17","45","40.65058727","-73.9225184","POINT (-73.9225184 40.65058727)"
"X4350","ERS","ASTOR AVE & KINGSLAND AVE","10469","Bronx","BX11","13","40.85918079","-73.83905872","POINT (-73.83905872 40.85918079)"
"Q1780","ERS","151 AVE & 80 ST","11414","Queens","QN10","32","40.66731213","-73.85451984","POINT (-73.85451984 40.66731213)"
"Q2280","ERS","150 ST BTW 105 AVE & 106 AVES","11433","Queens","QN12","28","40.69675612","-73.80174929","POINT (-73.80174929 40.69675612)"
"Q5087","BARS","118 RD & RIVERTON ST","11412","Queens","QN12","27","40.68889077","-73.76295164","POINT (-73.76295164 40.68889077)"
"B0131","BARS","ROEBLING ST & N 8 ST","11211","Brooklyn","BK01","33","40.71680535","-73.95458645","POINT (-73.95458645 40.71680535)"
"Q7313","BARS","SKILLMAN AVE & 32 PL","11101","Queens","QN02","26","40.74649713","-73.93226763","POINT (-73.93226763 40.74649713)"
"Q7086","ERS","CALAMUS AVE & 71 ST","11377","Queens","QN02","30","40.73456081","-73.89323494","POINT (-73.89323494 40.73456081)"
"X3944","ERS","BROADWAY & W 260 ST","10471","Bronx","BX08","11","40.90750665","-73.89654653","POINT (-73.89654653 40.90750665)"
"B1805","ERS","PITKIN AVE & ESSEX ST","11208","Brooklyn","BK05","37","40.67399166","-73.8817086","POINT (-73.8817086 40.67399166)"
"X2248","ERS","PARK AVE & E 151 ST","10451","Bronx","BX04","17","40.81928533","-73.92402557","POINT (-73.92402557 40.81928533)"
"X3620","ERS","LACONIA AVE & E GUN HILL RD","10469","Bronx","BX12","12","40.87390396","-73.85551758","POINT (-73.85551758 40.87390396)"
"B2857","ERS","20 AVE & 61 ST","11204","Brooklyn","BK12","44","40.61880002","-73.98348873","POINT (-73.98348873 40.61880002)"
"R1228","BARS","KENSINGTON AVE & OLYMPIA BLVD","10305","Staten Island","SI02","50","40.59150499","-74.07417732","POINT (-74.07417732 40.59150499)"
"Q6599","ERS","E/S MAIN ST & MANTON ST","11435","Queens","QN08","24","40.71016607","-73.81882295","POINT (-73.81882295 40.71016607)"
"X2425","ERS","WORTHEN ST & TRUXTON ST","10474","Bronx","BX02","17","40.81281889","-73.89197703","POINT (-73.89197703 40.81281889)"
"B1811","ERS","ETNA ST & HIGHLAND PL","11208","Brooklyn","BK05","37","40.68492968","-73.88205691","POINT (-73.88205691 40.68492968)"
"Q1408","BARS","CRONSTON AVE & BEACH 130 ST","11694","Queens","QN14","32","40.57942111","-73.85099296","POINT (-73.85099296 40.57942111)"
"Q7440","BARS","34 AVE & 12 ST","11106","Queens","QN01","26","40.76423995","-73.93700479","POINT (-73.93700479 40.76423995)"
"X4076","ERS","PENNYFIELD AVE TRAFFIC CIR FT SCHUYLER","10465","Bronx","BX10","13","40.80916394","-73.80186006","POINT (-73.80186006 40.80916394)"
"B1317","ERS","3 AVE & CARROLL ST","11215","Brooklyn","BK06","39","40.6770784","-73.98630927","POINT (-73.98630927 40.6770784)"
"M0261","ERS","ELDRIDGE ST & BROOME ST","10002","Manhattan","MN03","1","40.71858343","-73.99174683","POINT (-73.99174683 40.71858343)"
"Q9814","ERS","88 AVE & 145 ST","11435","Queens","QN12","24","40.70436223","-73.81105396","POINT (-73.81105396 40.70436223)"
"Q9279","BARS","JUNCTION BLVD & CHRISTIE AVE","11373","Queens","QN04","21","40.73983722","-73.8671467","POINT (-73.8671467 40.73983722)"
"X3751","ERS","ARLINGTON AVE & W 235 ST","10463","Bronx","BX08","11","40.8860048","-73.91184837","POINT (-73.91184837 40.8860048)"
"B1950","ERS","ATLANTIC AVE & LINCOLN AVE","11208","Brooklyn","BK05","37","40.68241259","-73.8690191","POINT (-73.8690191 40.68241259)"
"B0630","ERS","WILLOUGHBY AVE & CLINTON AVE","11205","Brooklyn","BK02","35","40.6915448","-73.96849273","POINT (-73.96849273 40.6915448)"
"M1479","ERS","LEXINGTON AV & E 125 ST\KING BLVD","10035","Manhattan","MN11","9","40.80437468","-73.93741853","POINT (-73.93741853 40.80437468)"
"B0464","ERS","HENRY ST & CRANBERRY ST","11201","Brooklyn","BK02","33","40.69939442","-73.99207483","POINT (-73.99207483 40.69939442)"
"Q5536","BARS","HILLSIDE AVE & 215 ST","11427","Queens","QN13","23","40.72680968","-73.75003446","POINT (-73.75003446 40.72680968)"
"R1749","BARS","ARDMORE AVE & SOUTH GANNON AVE","10314","Staten Island","SI02","50","40.60738777","-74.13896698","POINT (-74.13896698 40.60738777)"
"B2795","ERS","14 AVE & 67 ST","11219","Brooklyn","BK10","43","40.62348994","-74.00052988","POINT (-74.00052988 40.62348994)"
"B3067","ERS","AVENUE I & E 19 ST","11230","Brooklyn","BK14","45","40.62797112","-73.95805293","POINT (-73.95805293 40.62797112)"
"R3038","BARS","PENDALE ST & MONTREAL AVE","10306","Staten Island","SI03","50","40.5579604","-74.12395112","POINT (-74.12395112 40.5579604)"
"B2153","ERS","GLENWOOD RD & E 99 ST","11236","Brooklyn","BK18","42","40.64618202","-73.90069188","POINT (-73.90069188 40.64618202)"
"M1033","ERS","3 AVE & E 72 ST","10021","Manhattan","MN08","4","40.76974919","-73.96060181","POINT (-73.96060181 40.76974919)"
"X3684","ERS","BRONX BLVD & E 224 ST","10466","Bronx","BX12","12","40.88829971","-73.86460022","POINT (-73.86460022 40.88829971)"
"B1458","ERS","4 AVE & 46 ST","11220","Brooklyn","BK07","38","40.64870738","-74.01024814","POINT (-74.01024814 40.64870738)"
"R3681","ERS","RICHMOND AVE & MEMPHIS AVE","10312","Staten Island","SI03","51","40.54916667","-74.16725863","POINT (-74.16725863 40.54916667)"
"R2498","ERS","BEACON AVE & ALTAMONT ST\RICHMOND VFD","10304","Staten Island","SI02","50","40.58054757","-74.11888176","POINT (-74.11888176 40.58054757)"
"Q3819","BARS","W SVC RD CLEARVIEW XWAY & 53 AVE","11364","Queens","QN11","20","40.74983909","-73.77465346","POINT (-73.77465346 40.74983909)"
"B2545","ERS","16 AVE & 43 ST","11219","Brooklyn","BK12","44","40.63439528","-73.98201469","POINT (-73.98201469 40.63439528)"
"Q9568","ERS","71 AVE & JUNO ST","11375","Queens","QN06","29","40.71394171","-73.84871373","POINT (-73.84871373 40.71394171)"
"R2026","ERS","CAPODANNO BLVD & HUNTER AVE","10306","Staten Island","SI02","50","40.57306188","-74.08769738","POINT (-74.08769738 40.57306188)"
"M1358","ERS","8 AVE & W 113 ST","10026","Manhattan","MN10","9","40.80248744","-73.95677811","POINT (-73.95677811 40.80248744)"
"M0819","ERS","9 AVE & W 46 ST","10036","Manhattan","MN04","3","40.76098873","-73.99076377","POINT (-73.99076377 40.76098873)"
"Q4800","ERS","90 AVE & 168 ST","11432","Queens","QN12","27","40.70778137","-73.79340154","POINT (-73.79340154 40.70778137)"
"Q1464","BARS","ROCKAWAY PT BLVD & BEACH 193 ST","11697","Queens","GNRA","32","40.56212821","-73.90230596","POINT (-73.90230596 40.56212821)"
"Q6665","BARS","204 ST 600' N OF FOOTHILL AVE","11423","Queens","QN08","23","40.7219397","-73.76184886","POINT (-73.76184886 40.7219397)"
"Q9688","ERS","JAMAICA AVE & 134 ST","11418","Queens","QN09","29","40.70235748","-73.81874883","POINT (-73.81874883 40.70235748)"
"X3613","ERS","BARKER AVE & MAGENTA ST","10467","Bronx","BX12","12","40.8753293","-73.86921534","POINT (-73.86921534 40.8753293)"
"R1466","BARS","DELAWARE AVE & BEAR ST","10304","Staten Island","SI02","50","40.59185979","-74.09530179","POINT (-74.09530179 40.59185979)"
"Q3845","BARS","HARDING XWAY N & 206 ST","11364","Queens","QN11","23","40.74539621","-73.77050383","POINT (-73.77050383 40.74539621)"
"Q4704","ERS","MATHIAS AVE & BREWER BLVD","11433","Queens","QN12","27","40.69083028","-73.78705689","POINT (-73.78705689 40.69083028)"
"B2006","ERS","SUTTER AVE & BRADFORD ST","11207","Brooklyn","BK05","42","40.66992633","-73.89148048","POINT (-73.89148048 40.66992633)"
"M0276","ERS","RIDGE ST & DELANCEY ST","10002","Manhattan","MN03","1","40.71741442","-73.98399542","POINT (-73.98399542 40.71741442)"
"R3837","ERS","RAMBLEWOOD AVE & OAKDALE ST","10308","Staten Island","SI03","51","40.54573164","-74.15520078","POINT (-74.15520078 40.54573164)"
"X2278","ERS","ST ANNS AVE & RAE ST","10455","Bronx","BX01","17","40.81737256","-73.9113805","POINT (-73.9113805 40.81737256)"
"Q8862","BARS","115 AVE & VAN WYCK XWAY E SVC RD","11436","Queens","QN12","28","40.68144916","-73.80427971","POINT (-73.80427971 40.68144916)"
"B0534","ERS","COURT ST & AMITY ST","11201","Brooklyn","BK06","39","40.68836464","-73.99300452","POINT (-73.99300452 40.68836464)"
"B1183","ERS","4 AVE & 90 ST","11209","Brooklyn","BK10","43","40.61983254","-74.02956408","POINT (-74.02956408 40.61983254)"
"Q7225","BARS","REVIEW AVE 1200' W OF LAUREL HILL BLVD","11101","Queens","QN02","26","40.72909848","-73.93145411","POINT (-73.93145411 40.72909848)"
"B0227","BARS","MARCY AVE & HOPE ST","11211","Brooklyn","BK01","34","40.71291373","-73.95503639","POINT (-73.95503639 40.71291373)"
"Q4487","ERS","CHERRY AVE & MURRAY ST","11355","Queens","QN07","20","40.75882042","-73.81120157","POINT (-73.81120157 40.75882042)"
"Q4663","BARS","CRYDERS LA & BURTON ST","11357","Queens","QN07","19","40.78880206","-73.79617682","POINT (-73.79617682 40.78880206)"
"M1034","ERS","PARK AVE & E 72 ST","10021","Manhattan","MN08","4","40.77111454","-73.96353315","POINT (-73.96353315 40.77111454)"
"Q5316","BARS","100 AVE & 199 ST","11423","Queens","QN12","27","40.71033481","-73.76034","POINT (-73.76034 40.71033481)"
"R4222","BARS","PRESTON AVE & KING ST","10312","Staten Island","SI03","51","40.53375614","-74.15758078","POINT (-74.15758078 40.53375614)"
"Q5905","ERS","137 RD & 244 ST","11422","Queens","QN13","31","40.66782116","-73.73310831","POINT (-73.73310831 40.66782116)"
"Q5516","BARS","89 AVE & HOLLIS COURT BLVD","11427","Queens","QN13","23","40.72292938","-73.75345844","POINT (-73.75345844 40.72292938)"
"X3790","ERS","INDEPENDENCE AVE & DODGES LA","10471","Bronx","BX08","11","40.89471443","-73.91148298","POINT (-73.91148298 40.89471443)"
"Q7709","BARS","24 AVE & 101 ST","11369","Queens","QN03","21","40.76674744","-73.86922791","POINT (-73.86922791 40.76674744)"
"R4315","ERS","BLOOMINGDALE RD & WOODROW RD","10309","Staten Island","SI03","51","40.54093995","-74.21763746","POINT (-74.21763746 40.54093995)"
"B1470","ERS","6 AVE & 40 ST","11232","Brooklyn","BK07","38","40.64937636","-74.00228696","POINT (-74.00228696 40.64937636)"
"X3879","ERS","BAYCHESTER AVE & CAMP ST","10466","Bronx","BX12","11","40.90083679","-73.84671668","POINT (-73.84671668 40.90083679)"
"M1314","ERS","CENTRAL PARK WEST & W 107 ST","10025","Manhattan",,"7","40.79871853","-73.95953659","POINT (-73.95953659 40.79871853)"
"Q9255","BARS","STRONG AVE & 102 ST","11368","Queens","QN04","21","40.74133607","-73.85932262","POINT (-73.85932262 40.74133607)"
"Q7069","BARS","HULL AVE & 66 ST","11378","Queens","QN05","30","40.72670899","-73.89865243","POINT (-73.89865243 40.72670899)"
"X3927","ERS","FIELDSTON RD & W 256 ST","10471","Bronx","BX08","11","40.90384463","-73.90038526","POINT (-73.90038526 40.90384463)"
"Q4710","ERS","140 AVE & 171 ST","11434","Queens","QN12","31","40.67102557","-73.7692019","POINT (-73.7692019 40.67102557)"
"Q1069","BARS","SEAGIRT BLVD & BEACH 14 ST","11691","Queens","QN14","31","40.59527141","-73.74820535","POINT (-73.74820535 40.59527141)"
"B0680","ERS","MARCY AVE & CLIFTON PL","11216","Brooklyn","BK03","36","40.68951081","-73.94803898","POINT (-73.94803898 40.68951081)"
"R4298","ERS","MOSELY AVE & FABIAN AVE","10312","Staten Island","SI03","51","40.53973253","-74.17417301","POINT (-74.17417301 40.53973253)"
"R0183","ERS","BARD AVE & SUNSET HILL DRIVE","10301","Staten Island","SI01","49","40.62445039","-74.10443491","POINT (-74.10443491 40.62445039)"
"M1353","ERS","MANHATTAN AVE & W 112 ST","10026","Manhattan","MN09","9","40.80246979","-73.95868839","POINT (-73.95868839 40.80246979)"
"X4793","ERS","E/S PARK AVE & E 182 ST","10457","Bronx","BX06","15","40.8546611","-73.89505346","POINT (-73.89505346 40.8546611)"
"Q7067","BARS","HULL AVE & REMSEN PL","11378","Queens","QN05","30","40.72542794","-73.90115801","POINT (-73.90115801 40.72542794)"
"B1404","ERS","2 AVE & 48 ST","11232","Brooklyn","BK07","38","40.65021429","-74.01576089","POINT (-74.01576089 40.65021429)"
"B2939","ERS","AVENUE L & E 12 ST","11230","Brooklyn","BK14","44","40.62009477","-73.9632679","POINT (-73.9632679 40.62009477)"
"B3378","ERS","AVENUE X & E 4 ST","11223","Brooklyn","BK15","47","40.59095287","-73.96651951","POINT (-73.96651951 40.59095287)"
"B0755","ERS","BUSHWICK AVE & STANHOPE ST","11221","Brooklyn","BK04","34","40.6942806","-73.92673532","POINT (-73.92673532 40.6942806)"
"M0027","ERS","SOUTH ST 250' S OF OLD SLIP","10004","Manhattan","MN01","1","40.70276385","-74.00881509","POINT (-74.00881509 40.70276385)"
"R2426","BARS","SCHEFFELIN AVE & LOWELL ST/RVFD","10306","Staten Island","SI02","50","40.5797295","-74.13543806","POINT (-74.13543806 40.5797295)"
"B0923","ERS","KINGSTON AVE & BERGEN ST","11216","Brooklyn","BK08","36","40.67564318","-73.94160932","POINT (-73.94160932 40.67564318)"
"M1697","ERS","EDGECOMBE AVE & W 166 ST","10032","Manhattan","MN12","10","40.83785012","-73.93638317","POINT (-73.93638317 40.83785012)"
"X2832","ERS","TAYLOR AVE & BRUCKNER BLVD N/B","10473","Bronx","BX09","18","40.8250917","-73.86398149","POINT (-73.86398149 40.8250917)"
"Q5301","BARS","BAISLEY BLVD & BREWER BLVD","11434","Queens","QN12","27","40.67836455","-73.77947817","POINT (-73.77947817 40.67836455)"
"Q6503","ERS","164 ST & 84 DR","11432","Queens","QN08","24","40.71392573","-73.80211146","POINT (-73.80211146 40.71392573)"
"R1279","BARS","OVERLOOK TERR & WINDERMERE RD","10305","Staten Island","SI02","50","40.60208382","-74.07794811","POINT (-74.07794811 40.60208382)"
"M0167","ERS","WEST ST & N MOORE ST","10013","Manhattan","MN01","1","40.72031851","-74.01216823","POINT (-74.01216823 40.72031851)"
"Q7087","ERS","51 AVE & 70 ST","11377","Queens","QN02","30","40.73555089","-73.89421608","POINT (-73.89421608 40.73555089)"
"Q8893","BARS","120 AVE & INWOOD ST","11436","Queens","QN12","28","40.67681275","-73.794044","POINT (-73.794044 40.67681275)"
"Q7756","BARS","30 AVE & 87 ST","11369","Queens","QN03","22","40.76170492","-73.88174766","POINT (-73.88174766 40.76170492)"
"X3575","ERS","WEBSTER AVE & E GUN HILL RD","10467","Bronx","BX07","11","40.87864614","-73.87159658","POINT (-73.87159658 40.87864614)"
"R0106","ERS","LAFAYETTE AVE & ARNOLD ST","10301","Staten Island","SI01","49","40.63802492","-74.09386276","POINT (-74.09386276 40.63802492)"
"B2258","ERS","GLENWOOD RD & E 87 ST","11236","Brooklyn","BK18","46","40.64030738","-73.90983126","POINT (-73.90983126 40.64030738)"
"B1217","ERS","8 AVE & 7 ST","11215","Brooklyn","BK06","39","40.66696331","-73.97821264","POINT (-73.97821264 40.66696331)"
"B2703","ERS","12 AVE & 45 ST","11219","Brooklyn","BK12","44","40.63859712","-73.99199028","POINT (-73.99199028 40.63859712)"
"R0979","BARS","UNION AVE & RICHMOND TERR","10303","Staten Island","SI01","49","40.63681702","-74.15794004","POINT (-74.15794004 40.63681702)"
"Q6657","BARS","PALO ALTO AVE & 188 ST","11432","Queens","QN08","24","40.71651727","-73.77424799","POINT (-73.77424799 40.71651727)"
"R0435","ERS","OSGOOD AVE & TARGEE ST","10304","Staten Island","SI01","49","40.61900053","-74.08478224","POINT (-74.08478224 40.61900053)"
"Q7376","BARS","36 AVE & 12 ST","11106","Queens","QN01","26","40.76080162","-73.93914474","POINT (-73.93914474 40.76080162)"
"B2595","ERS","11 AVE & 60 ST","11219","Brooklyn","BK12","44","40.63150351","-74.00295139","POINT (-74.00295139 40.63150351)"
"Q7132","BARS","JACKSON AVE & 46 AVE","11101","Queens","QN02","26","40.74561268","-73.94618648","POINT (-73.94618648 40.74561268)"
"Q4829","BARS","CLINTONVILLE ST & 19 AVE","11357","Queens","QN07","19","40.78145518","-73.80726216","POINT (-73.80726216 40.78145518)"
"X3828","ERS","HARPER AVE & LUSTRE ST","10466","Bronx","BX12","12","40.89110198","-73.83301809","POINT (-73.83301809 40.89110198)"
"B4215","ERS","79 ST & 7 AVENUE W/S VZ BRIDGE APP","11209","Brooklyn","BK10","43","40.62425882","-74.02024706","POINT (-74.02024706 40.62425882)"
"Q7124","BARS","46 RD & VERNON BLVD","11101","Queens","QN02","26","40.74618549","-73.9529457","POINT (-73.9529457 40.74618549)"
"B1855","ERS","RIDGEWOOD AVE & LINCOLN AVE","11208","Brooklyn","BK05","37","40.68611671","-73.86990891","POINT (-73.86990891 40.68611671)"
"Q2310","ERS","S/B CI PWAY 1/10 MI S OF F LEWIS BLVD","11357","Queens","QN07","19","40.78613234","-73.8052195","POINT (-73.8052195 40.78613234)"
"B1650","ERS","SARATOGA AVE & ATLANTIC AVE","11233","Brooklyn","BK16","41","40.67664704","-73.91646486","POINT (-73.91646486 40.67664704)"
"B0157","BARS","METROPOLITAN AVE & OLIVE ST","11211","Brooklyn","BK01","34","40.71459272","-73.93875477","POINT (-73.93875477 40.71459272)"
"B2582","ERS","12 AVE & 39 ST","11218","Brooklyn","BK12","39","40.64195565","-73.98849443","POINT (-73.98849443 40.64195565)"
"X2940","ERS","WASHINGTON AVE & E 175 ST","10457","Bronx","BX06","15","40.84473793","-73.89934758","POINT (-73.89934758 40.84473793)"
"Q2935","ERS","E SVC RD WHITESTONE XWAY & 20 AVE","11357","Queens","QN07","19","40.78159908","-73.82453917","POINT (-73.82453917 40.78159908)"
"R1078","BARS","MEDFORD RD & SPRING ST","10304","Staten Island","SI02","50","40.60344781","-74.0957818","POINT (-74.0957818 40.60344781)"
"Q5996","ERS","RIDGEDALE ST & LUCAS ST","11413","Queens","QN12","27","40.68269064","-73.75317065","POINT (-73.75317065 40.68269064)"
"Q5695","BARS","89  AVE & 238 ST","11426","Queens","QN13","23","40.72853909","-73.72940055","POINT (-73.72940055 40.72853909)"
"R3887","ERS","RICHMOND AVE & HILLTOP RD","10312","Staten Island","SI03","51","40.53596707","-74.15704288","POINT (-74.15704288 40.53596707)"
"X3386","ERS","W KINGSBRIDGE RD & KINGSBRIDGE TER","10463","Bronx","BX07","14","40.87036128","-73.90442003","POINT (-73.90442003 40.87036128)"
"X2983","ERS","E TREMONT AVE & ANTHONY AVE","10457","Bronx","BX05","15","40.84869243","-73.90328063","POINT (-73.90328063 40.84869243)"
"M0402","ERS","CLINTON ST & STANTON ST","10002","Manhattan","MN03","1","40.72023424","-73.98447732","POINT (-73.98447732 40.72023424)"
"R1569","ERS","TODT HILL RD & LORTEL AVE","10314","Staten Island","SI02","50","40.6099798","-74.11788101","POINT (-74.11788101 40.6099798)"
"Q7276","BARS","THOMSON AVE & 31 ST","11101","Queens","QN02","26","40.7449612","-73.93541365","POINT (-73.93541365 40.7449612)"
"Q2658","ERS","DEXTER CT BTW 85 DR & 86 RD","11421","Queens","QN09","30","40.6932196","-73.86832929","POINT (-73.86832929 40.6932196)"
"X3901","ERS","NEW POST RD & W 251 ST","10471","Bronx","BX08","11","40.89563351","-73.89774546","POINT (-73.89774546 40.89563351)"
"M1548","ERS","MADISON AVE & E 133 ST","10037","Manhattan","MN11","9","40.810811","-73.93681514","POINT (-73.93681514 40.810811)"
"Q6321","BARS","THORNHILL AVE & DOUGLASTON PWAY","11362","Queens","QN11","19","40.75839378","-73.74014565","POINT (-73.74014565 40.75839378)"
"X2223","ERS","GRAND CONCOURSE & E 149 ST","10451","Bronx","BX04","17","40.81855963","-73.92731653","POINT (-73.92731653 40.81855963)"
"Q5664","BARS","104 AVE & 207 ST","11429","Queens","QN13","27","40.71052983","-73.75156614","POINT (-73.75156614 40.71052983)"
"Q6547","BARS","82 RD & 164 PL","11432","Queens","QN08","24","40.71802146","-73.80231867","POINT (-73.80231867 40.71802146)"
"M1888","ERS","HARLEM RV DR SVC/RD-900' N OF W159 ST","10039","Manhattan","MN10","9","40.83445073","-73.93605438","POINT (-73.93605438 40.83445073)"
"Q8566","ERS","86 AVE & 94 ST","11421","Queens","QN09","32","40.69563151","-73.85139704","POINT (-73.85139704 40.69563151)"
"Q7735","BARS","27 AVE & ASTORIA BLVD AT 99 ST","11369","Queens","QN03","21","40.76217105","-73.87040097","POINT (-73.87040097 40.76217105)"
"Q6102","BARS","35 AVE & 203 ST","11361","Queens","QN11","19","40.76609705","-73.7844317","POINT (-73.7844317 40.76609705)"
"R1131","ERS","SOUTH AVE AND RAILROAD BRIDGE","10303","Staten Island","SI01","49","40.63392479","-74.16633964","POINT (-74.16633964 40.63392479)"
"Q6401","BARS","VAN ZANDT AVE & BROWVALE LA","11362","Queens","QN11","19","40.7660823","-73.73171622","POINT (-73.73171622 40.7660823)"
"R1552","ERS","WESTWOOD AVE & MANOR RD","10314","Staten Island","SI02","49","40.60635867","-74.12092054","POINT (-74.12092054 40.60635867)"
"Q4389","BARS","149 ST & 15 DR","11357","Queens","QN07","19","40.78576659","-73.81636579","POINT (-73.81636579 40.78576659)"
"M1667","ERS","BROADWAY & W 155 ST","10032","Manhattan","MN12","7","40.83276546","-73.94582395","POINT (-73.94582395 40.83276546)"
"Q4270","BARS","132 ST & 15 AVE","11356","Queens","QN07","19","40.78463237","-73.83633431","POINT (-73.83633431 40.78463237)"
"X5117","ERS","FOOD CNT DR ENT TO HP CO-OP MEAT MARKET","10474","Bronx","BX02","17","40.80800116","-73.87189725","POINT (-73.87189725 40.80800116)"
"B0847","ERS","ROCKAWAY AVE & MAC DOUGAL ST","11233","Brooklyn","BK16","37","40.68023987","-73.91122493","POINT (-73.91122493 40.68023987)"
"B0882","ERS","STUYVESANT AVE & PUTNAM AVE","11221","Brooklyn","BK03","36","40.68603234","-73.93266905","POINT (-73.93266905 40.68603234)"
"M1392","ERS","RIVERSIDE DR & W 116 ST","10024","Manhattan","MN09","7","40.80884158","-73.96581413","POINT (-73.96581413 40.80884158)"
"B1543","ERS","OCEAN AVE & CHURCH AVE","11226","Brooklyn","BK14","40","40.6500826","-73.96100797","POINT (-73.96100797 40.6500826)"
"B2214","ERS","AVENUE A & E 89 ST","11236","Brooklyn","BK17","45","40.65065993","-73.91890734","POINT (-73.91890734 40.65065993)"
"B0274","BARS","MESEROLE ST & WATERBURY ST","11206","Brooklyn","BK01","34","40.7086776","-73.93698021","POINT (-73.93698021 40.7086776)"
"R2477","BARS","BEACON AVE & RICHMOND RD/RVFD","10306","Staten Island","SI02","50","40.57590128","-74.12357065","POINT (-74.12357065 40.57590128)"
"B0347","ERS","GRAHAM AVE & COOK ST","11206","Brooklyn","BK01","34","40.70234555","-73.94238141","POINT (-73.94238141 40.70234555)"
"Q5623","BARS","115 AVE & 196 ST","11412","Queens","QN12","27","40.69705266","-73.75732997","POINT (-73.75732997 40.69705266)"
"Q9503","ERS","WOODHAVEN BLVD OPP 62 RD","11374","Queens","QN06","29","40.72618733","-73.87021136","POINT (-73.87021136 40.72618733)"
"B2758","ERS","10 AVE & 79 ST","11228","Brooklyn","BK10","43","40.62201418","-74.01640622","POINT (-74.01640622 40.62201418)"
"B3632","ERS","ORIENTAL BLVD & OCEAN AVE","11235","Brooklyn","BK15","48","40.57749959","-73.94726192","POINT (-73.94726192 40.57749959)"
"Q9732","BARS","73 AVE & 183 ST","11365","Queens","QN08","24","40.7316652","-73.78735294","POINT (-73.78735294 40.7316652)"
"Q4814","BARS","HARDING XWAY N & 171 ST","11365","Queens","QN07","20","40.73853382","-73.79810703","POINT (-73.79810703 40.73853382)"
"Q9698","ERS","91 AVE & 135 ST","11418","Queens","QN09","29","40.69921499","-73.81608677","POINT (-73.81608677 40.69921499)"
"R3170","BARS","SIMMONS LA  315'S OF VICTORY BLVD","10314","Staten Island","SI02","50","40.59453435","-74.18562267","POINT (-74.18562267 40.59453435)"
"X2582","ERS","NELSON AVE & W 168 ST","10452","Bronx","BX04","16","40.83836092","-73.92491804","POINT (-73.92491804 40.83836092)"
"Q5237","ERS","VAN WYCK XWAY W SVC RD & 130 AVE","11420","Queens","QN10","28","40.67130662","-73.80180337","POINT (-73.80180337 40.67130662)"
"R3473","ERS","FIELDWAY AVE & AMBOY RD","10308","Staten Island","SI03","51","40.55242985","-74.14369573","POINT (-74.14369573 40.55242985)"
"B1275","ERS","6 AVE & 13 ST","11215","Brooklyn","BK06","39","40.66563066","-73.98594773","POINT (-73.98594773 40.66563066)"
"M1209","ERS","5 AVE & E 92 ST","83","Manhattan","MN08","4","40.78534346","-73.95763599","POINT (-73.95763599 40.78534346)"
"Q6355","BARS","WEST DR & ARLEIGH RD","11363","Queens","QN11","19","40.77474082","-73.75240319","POINT (-73.75240319 40.77474082)"
"Q5855","ERS","SPRINGFIELD BLVD & EDGEWOOD AVE","11413","Queens","QN13","31","40.66966638","-73.75643734","POINT (-73.75643734 40.66966638)"
"Q9592","ERS","UNION TPK & KESSEL ST","11375","Queens","QN06","29","40.71027267","-73.84102608","POINT (-73.84102608 40.71027267)"
"M1640","ERS","RIVERSIDE DR & W 148 ST","10031","Manhattan","MN09","7","40.82892474","-73.95039474","POINT (-73.95039474 40.82892474)"
"B3919","ERS","RUGBY RD OPP WALDORF CT","11230","Brooklyn","BK14","45","40.63145423","-73.96352806","POINT (-73.96352806 40.63145423)"
"M1242","ERS","RIVERSIDE DR & W 97 ST","10025","Manhattan","MN07","6","40.79645143","-73.97410726","POINT (-73.97410726 40.79645143)"
"B1780","ERS","FULTON ST & WARWICK ST","11207","Brooklyn","BK05","37","40.67909754","-73.88730461","POINT (-73.88730461 40.67909754)"
"Q4766","ERS","BEAVER RD & 150 ST","11433","Queens","QN12","28","40.69910548","-73.80276783","POINT (-73.80276783 40.69910548)"
"Q4245","BARS","GRAND AVE & 58 PL","11378","Queens","QN05","30","40.71985696","-73.91048376","POINT (-73.91048376 40.71985696)"
"R0632","ERS","THOMPSON PL & JAMES PL","10305","Staten Island","SI01","49","40.60972107","-74.0711107","POINT (-74.0711107 40.60972107)"
"Q8728","ERS","144 AVE & LATHAM LA","11434","Queens","QN12","31","40.6687553","-73.77351332","POINT (-73.77351332 40.6687553)"
"M1123","ERS","RIVERSIDE DR & W 81 ST","10024","Manhattan","MN07","6","40.78618399","-73.98144778","POINT (-73.98144778 40.78618399)"
"R2824","ERS","ARTHUR KILL RD & GREAVES AVE/RVFD","10308","Staten Island","SI03","51","40.56569747","-74.15416757","POINT (-74.15416757 40.56569747)"
"B3677","ERS","DEVON AVE & EBONY CT","11229","Brooklyn","BK15","46","40.59284206","-73.92848301","POINT (-73.92848301 40.59284206)"
"Q5421","BARS","92 AVE & 218 ST","11428","Queens","QN13","23","40.72324958","-73.74132601","POINT (-73.74132601 40.72324958)"
"M1943","ERS","EAST PROM-R/O 580 MAIN ST-ROOSEVELT IS.","10044","Manhattan","MN08","5","40.76300738","-73.94906843","POINT (-73.94906843 40.76300738)"
"R0142","BARS","CLINTON AVE & CASSIDY PL","10301","Staten Island","SI01","49","40.64179245","-74.09808765","POINT (-74.09808765 40.64179245)"
"M1165","ERS","COLUMBUS AVE & W 86 ST","10024","Manhattan","MN07","6","40.78648646","-73.97217415","POINT (-73.97217415 40.78648646)"
"B3351","ERS","AVENUE Y & E 12 ST","11235","Brooklyn","BK15","48","40.58966542","-73.95859609","POINT (-73.95859609 40.58966542)"
"X3920","ERS","COLLEGE RD & W 252 ST","10471","Bronx","BX08","11","40.89702286","-73.89935754","POINT (-73.89935754 40.89702286)"
"M0322","ERS","GREENE ST & SPRING ST","10012","Manhattan","MN02","1","40.72379524","-74.00036757","POINT (-74.00036757 40.72379524)"
"B3110","ERS","AVENUE I & E 38 ST","11210","Brooklyn","BK18","45","40.62979489","-73.93960544","POINT (-73.93960544 40.62979489)"
"Q7318","BARS","SKILLMAN AVE & 44 ST","11104","Queens","QN02","26","40.74678391","-73.91986918","POINT (-73.91986918 40.74678391)"
"Q3149","ERS","75 RD & AUSTIN ST","11375","Queens","QN06","29","40.71673149","-73.8379587","POINT (-73.8379587 40.71673149)"
"R1795","BARS","WELLBROOK AVE & HAROLD ST","10314","Staten Island","SI02","49","40.60142969","-74.13024813","POINT (-74.13024813 40.60142969)"
"Q5638","BARS","111 AVE & 200 ST","11412","Queens","QN12","27","40.70406426","-73.75651887","POINT (-73.75651887 40.70406426)"
"Q6736","BARS","HILLSIDE AVE & 257 ST","11004","Queens","QN13","23","40.73675101","-73.71102686","POINT (-73.71102686 40.73675101)"
"Q5463","BARS","FAIRBURY AVE & 224 ST","11428","Queens","QN13","23","40.7242888","-73.73202205","POINT (-73.73202205 40.7242888)"
"X2180","ERS","BEEKMAN AVE & OAK TER","10454","Bronx","BX01","8","40.80872277","-73.91388448","POINT (-73.91388448 40.80872277)"
"X2850","ERS","SOUND VIEW AVE & WATSON AVE","10472","Bronx","BX09","18","40.82691495","-73.87202921","POINT (-73.87202921 40.82691495)"
"Q2063","ERS","163 AVE & 98 ST","11414","Queens","QN10","32","40.65315196","-73.83354451","POINT (-73.83354451 40.65315196)"
"Q4190","ERS","METROPOLITAN AVE & 60 PL","11378","Queens","QN05","30","40.71281703","-73.90376944","POINT (-73.90376944 40.71281703)"
"X2923","ERS","TOWNSEND AVE & E 174 ST","10453","Bronx","BX04","14","40.84506052","-73.91308485","POINT (-73.91308485 40.84506052)"
"Q7153","BARS","43 RD & 10 ST","11101","Queens","QN02","26","40.75145616","-73.94946721","POINT (-73.94946721 40.75145616)"
"B3139","ERS","AVENUE J & E 52 ST","11234","Brooklyn","BK18","46","40.62828766","-73.92592688","POINT (-73.92592688 40.62828766)"
"X2126","ERS","3 AVE & E 135 ST","10454","Bronx","BX01","8","40.80956472","-73.92921854","POINT (-73.92921854 40.80956472)"
"R0161","ERS","SHARON AVE & REVERE ST","10301","Staten Island","SI01","49","40.62825767","-74.10209154","POINT (-74.10209154 40.62825767)"
"B4062","ERS","FREEPORT LOOP & PENNSYLVANIA AVE/PAYNE","11239","Brooklyn","BK05","42","40.64647329","-73.88024986","POINT (-73.88024986 40.64647329)"
"Q4415","BARS","OAK AVE & 162 ST","11358","Queens","QN07","20","40.74997273","-73.80539954","POINT (-73.80539954 40.74997273)"
"R2051","BARS","LINCOLN AVE & POULTNEY ST","10306","Staten Island","SI02","50","40.57479923","-74.10003652","POINT (-74.10003652 40.57479923)"
"B2511","ERS","11 AVE & 50 ST","11219","Brooklyn","BK12","44","40.63712626","-73.99710233","POINT (-73.99710233 40.63712626)"
"M0862","ERS","LEXINGTON AVE & E 51 ST","10022","Manhattan","MN05","4","40.75712467","-73.97190676","POINT (-73.97190676 40.75712467)"
"Q5197","ERS","107 AVE & 111 ST","11419","Queens","QN10","28","40.68246139","-73.83001639","POINT (-73.83001639 40.68246139)"
"X3070","ERS","E TREMONT AVE & BX PARK AVE","10460","Bronx","BX06","15","40.83990252","-73.87561285","POINT (-73.87561285 40.83990252)"
"B1696","ERS","LIVONIA AVE & SARATOGA AVE","11212","Brooklyn","BK16","42","40.66157348","-73.91547732","POINT (-73.91547732 40.66157348)"
"Q1909","BARS","SOUTH RD & 155 ST","11433","Queens","QN12","28","40.69687148","-73.79918227","POINT (-73.79918227 40.69687148)"
"Q8549","ERS","PARK LANE S & 88 ST","11385","Queens",,"32","40.69691298","-73.85744448","POINT (-73.85744448 40.69691298)"
"X3491","ERS","BURKE AVE & BRONXWOOD AVE","10469","Bronx","BX12","12","40.87133651","-73.86137924","POINT (-73.86137924 40.87133651)"
"R2063","BARS","MIDLAND AVE & PATTERSON AVE","10306","Staten Island","SI02","50","40.57126478","-74.09117449","POINT (-74.09117449 40.57126478)"
"X3340","ERS","MORRIS AVE & E FORDHAM RD","10468","Bronx","BX05","14","40.86206694","-73.89961735","POINT (-73.89961735 40.86206694)"
"B3881","ERS","BENSON AVE & 26 AVE","11214","Brooklyn","BK13","47","40.59489407","-73.98676315","POINT (-73.98676315 40.59489407)"
"B2078","ERS","SUTTER AVE & EUCLID AVE","11208","Brooklyn","BK05","42","40.67285838","-73.87130258","POINT (-73.87130258 40.67285838)"
"B3707","ERS","CORTELYOU RD & E 9 ST","11218","Brooklyn","BK12","40","40.63889518","-73.96981388","POINT (-73.96981388 40.63889518)"
"M0512","ERS","WASHINGTON ST & CHARLES ST","10014","Manhattan","MN02","3","40.73409437","-74.00849166","POINT (-74.00849166 40.73409437)"
"Q9742","BARS","73 AVE & 188 ST","11365","Queens","QN08","23","40.73313072","-73.78302493","POINT (-73.78302493 40.73313072)"
"Q4903","ERS","71 AVE 400' E OF KISSENA BLVD","11367","Queens","QN08","24","40.73046834","-73.81480926","POINT (-73.81480926 40.73046834)"
"R1632","BARS","WILLOW POND RD & BENEDICT RD","10304","Staten Island","SI02","50","40.59830715","-74.1086959","POINT (-74.1086959 40.59830715)"
"M0737","ERS","2 AVE & E 37 ST","10016","Manhattan","MN06","4","40.74668256","-73.97449588","POINT (-73.97449588 40.74668256)"
"Q3003","BARS","MIDTOWN XWAY N & 42 ST","11377","Queens","QN02","26","40.7358617","-73.92386413","POINT (-73.92386413 40.7358617)"
"Q9835","ERS","S/W CORNER OF ARCHER AVE & 150 ST","11435","Queens","QN12","27","40.70137846","-73.80420644","POINT (-73.80420644 40.70137846)"
"R4044","BARS","DRUMGOOLE RD W & ELLSWORTH AVE","10309","Staten Island","SI03","51","40.53516842","-74.19616558","POINT (-74.19616558 40.53516842)"
"R1242","BARS","MC CLEAN AVE & LINDWOOD AVE","10305","Staten Island","SI02","50","40.59599769","-74.07292171","POINT (-74.07292171 40.59599769)"
"Q7673","BARS","DITMARS BLVD & 81 ST","11370","Queens","QN01","22","40.76891624","-73.88872551","POINT (-73.88872551 40.76891624)"
"B1888","ERS","JAMAICA AVE & ASHFORD ST","11207","Brooklyn","BK05","37","40.6829501","-73.88735392","POINT (-73.88735392 40.6829501)"
"R4521","ERS","JOHNSON AVE & CRAIG AVE","10307","Staten Island","SI03","51","40.51107181","-74.2466825","POINT (-74.2466825 40.51107181)"
"Q6064","ERS","LIBERTY AVE & LIVERPOOL ST","11435","Queens","QN12","28","40.69474072","-73.80624271","POINT (-73.80624271 40.69474072)"
"Q5341","BARS","JAMAICA AVE & WOODHULL AVE NEAR 197 ST","11423","Queens","QN12","23","40.71347251","-73.76329339","POINT (-73.76329339 40.71347251)"
"R2379","ERS","RICHMOND AVE OPP ETON PL/OVFD","10314","Staten Island","SI02","50","40.60467096","-74.16259702","POINT (-74.16259702 40.60467096)"
"R1856","ERS","CAPODANNO BLVD & SLATER BLVD","10305","Staten Island","SI02","50","40.57610794","-74.08243931","POINT (-74.08243931 40.57610794)"
"R0585","ERS","GREENLEAF AVE & FLOYD ST","10310","Staten Island","SI01","49","40.62871999","-74.12705815","POINT (-74.12705815 40.62871999)"
"M0376","ERS","HUDSON ST & MORTON ST","10014","Manhattan","MN02","3","40.73094706","-74.00673713","POINT (-74.00673713 40.73094706)"
"Q4866","BARS","10 AVE & 162 ST","11357","Queens","QN07","19","40.79242749","-73.79985396","POINT (-73.79985396 40.79242749)"
"Q5541","BARS","91 AVE & 215 PL","11428","Queens","QN13","23","40.72298201","-73.74474805","POINT (-73.74474805 40.72298201)"
"M0463","ERS","3 AVE & E 12 ST","10003","Manhattan","MN03","2","40.73196521","-73.98815308","POINT (-73.98815308 40.73196521)"
"R3433","BARS","HYLAN BLVD & BAY TER","10306","Staten Island","SI03","51","40.55235618","-74.13316826","POINT (-74.13316826 40.55235618)"
"B1207","ERS","8 AVE & 15 ST","11215","Brooklyn","BK06","39","40.66214149","-73.98223034","POINT (-73.98223034 40.66214149)"
"B3397","ERS","CONEY ISLAND AVE & AVENUE Y","11235","Brooklyn","BK15","48","40.58945291","-73.96051667","POINT (-73.96051667 40.58945291)"
"M0128","ERS","400'S OF CATHERINE & 350' W OF SOUTH STS","10038","Manhattan","MN03","1","40.70972375","-73.99792599","POINT (-73.99792599 40.70972375)"
"R2788","ERS","RICHMOND AVE 500' N OF NOME AVE/OVFD","10314","Staten Island","SI02","51","40.5912856","-74.16461737","POINT (-74.16461737 40.5912856)"
"Q9667","BARS","85 AVE & 122 ST","11415","Queens","QN09","29","40.70346982","-73.82945842","POINT (-73.82945842 40.70346982)"
"M1715","ERS","AMSTERDAM AVE & W 172 ST","10032","Manhattan","MN12","10","40.84231167","-73.93514018","POINT (-73.93514018 40.84231167)"
"R0393","ERS","WEST RALEIGH AVE & FREEMAN PL","10310","Staten Island","SI01","49","40.62650805","-74.11655185","POINT (-74.11655185 40.62650805)"
"M0242","ERS","SOUTH ST & GOUVERNEUR SLIP","10002","Manhattan","MN03","2","40.7104635","-73.98302698","POINT (-73.98302698 40.7104635)"
"Q6272","BARS","12 RD & 160 ST","11357","Queens","QN07","19","40.79044187","-73.80192763","POINT (-73.80192763 40.79044187)"
"Q8803","ERS","109 AVE & 133 ST","11419","Queens","QN10","28","40.68602462","-73.81086182","POINT (-73.81086182 40.68602462)"
"X2932","ERS","GRAND AVE & W 174 ST","10453","Bronx","BX05","14","40.84727122","-73.91504409","POINT (-73.91504409 40.84727122)"
"R0294","ERS","GORDON ST & HUDSON ST","10304","Staten Island","SI01","49","40.62442223","-74.0826292","POINT (-74.0826292 40.62442223)"
"Q9395","BARS","43 AVE & 97 PL","11368","Queens","QN04","21","40.7460995","-73.86641372","POINT (-73.86641372 40.7460995)"
"R1338","BARS","GLASCOE AVE & COLUMBUS PL","10314","Staten Island","SI01","50","40.61715205","-74.14052839","POINT (-74.14052839 40.61715205)"
"B4266","ERS","KINGS HIGHWAY & E 8 ST","11223","Brooklyn","BK15","44","40.60647843","-73.96461753","POINT (-73.96461753 40.60647843)"
"B3522","ERS","SURF AVE & W 37 ST","11224","Brooklyn","BK13","47","40.57332704","-74.00254829","POINT (-74.00254829 40.57332704)"
"Q5192","ERS","PENELOPE AVE & 71 ST","11379","Queens","QN05","30","40.71618644","-73.88411234","POINT (-73.88411234 40.71618644)"
"Q9293","BARS","52 AVE & 90 ST","11373","Queens","QN04","25","40.73880273","-73.87383531","POINT (-73.87383531 40.73880273)"
"Q3154","ERS","77 RD & AUSTIN ST","11375","Queens","QN06","29","40.71413292","-73.83494127","POINT (-73.83494127 40.71413292)"
"B1646","ERS","HOWARD AVE & ST MARKS AVE","11233","Brooklyn","BK16","41","40.67354188","-73.91954093","POINT (-73.91954093 40.67354188)"
"X3472","ERS","COLDEN AVE & ADEE AVE","10469","Bronx","BX11","12","40.86956712","-73.85948361","POINT (-73.85948361 40.86956712)"
"Q8509","ERS","93 AVE & 75 ST","11421","Queens","QN09","30","40.68441169","-73.86490818","POINT (-73.86490818 40.68441169)"
"M0593","ERS","11 AVE & W 20 ST","10011","Manhattan","MN04","3","40.74681376","-74.00795844","POINT (-74.00795844 40.74681376)"
"R0569","ERS","DONGAN AVE & MANOR RD","10314","Staten Island","SI01","50","40.61463101","-74.12264687","POINT (-74.12264687 40.61463101)"
"B1670","ERS","BLAKE AVE 500' E OF ROCKAWAY AVE","11212","Brooklyn","BK16","41","40.66571252","-73.9087103","POINT (-73.9087103 40.66571252)"
"R4316","ERS","VETERANS RD E & CLAY PIT RD","10309","Staten Island","SI03","51","40.54018453","-74.2235783","POINT (-74.2235783 40.54018453)"
"B0375","ERS","PARK AVE & CLASSON AVE","11205","Brooklyn","BK03","33","40.69620749","-73.96158556","POINT (-73.96158556 40.69620749)"
"Q5655","BARS","116 RD & FRANCIS LEWIS BLVD","11411","Queens","QN12","27","40.69679987","-73.74649367","POINT (-73.74649367 40.69679987)"
"Q7766","BARS","31 AVE & 94 ST","11369","Queens","QN03","21","40.76041119","-73.8748411","POINT (-73.8748411 40.76041119)"
"B4236","ERS","DAHILL RD OPP 64 ST","11204","Brooklyn","BK11","44","40.61057921","-73.97439073","POINT (-73.97439073 40.61057921)"
"B1827","ERS","SUTTER AVE & MONTAUK AVE","11208","Brooklyn","BK05","42","40.67199721","-73.87741112","POINT (-73.87741112 40.67199721)"
"B2295","ERS","SEAVIEW AVE & REMSEN AVE","11236","Brooklyn","BK18","46","40.63038586","-73.89500062","POINT (-73.89500062 40.63038586)"
"Q1046","BARS","BEACH 6 ST & JARVIS AVE","11691","Queens","QN14","31","40.59867493","-73.74024581","POINT (-73.74024581 40.59867493)"
"M1287","ERS","LEXINGTON AVE & E 103 ST","10029","Manhattan","MN11","8","40.79031446","-73.94768749","POINT (-73.94768749 40.79031446)"
"Q5521","BARS","93 AVE & HOLLIS COURT BLVD","11428","Queens","QN13","23","40.71861021","-73.74912743","POINT (-73.74912743 40.71861021)"
"B2795","ERS","14 AVE & 67 ST","11219","Brooklyn","BK11","38","40.62348994","-74.00052988","POINT (-74.00052988 40.62348994)"
"X3738","ERS","JOHNSON AVE & W 232 ST","10463","Bronx","BX08","11","40.8835225","-73.91033844","POINT (-73.91033844 40.8835225)"
"Q7365","ERS","38 AVE & 22 ST","11101","Queens","QN01","26","40.75703086","-73.93811872","POINT (-73.93811872 40.75703086)"
"Q1275","ERS","DE COSTA AVE & BEACH 67 ST","11692","Queens","QN14","31","40.59835534","-73.7967224","POINT (-73.7967224 40.59835534)"
"R2212","ERS","BURBANK AVE & NORTH RAILROAD AVE","10306","Staten Island","SI02","50","40.57548283","-74.11488041","POINT (-74.11488041 40.57548283)"
"Q4464","ERS","37 AVE & MAIN ST","11354","Queens","QN07","20","40.76154814","-73.83111885","POINT (-73.83111885 40.76154814)"
"Q5524","BARS","93 AVE & 212 PL","11428","Queens","QN13","23","40.71895498","-73.74725149","POINT (-73.74725149 40.71895498)"
"M1246","ERS","LEXINGTON AVE & E 97 ST","10029","Manhattan","MN11","5","40.78654012","-73.95043455","POINT (-73.95043455 40.78654012)"
"M0188","ERS","GREENE ST & CANAL ST","10013","Manhattan","MN02","1","40.72037709","-74.00325955","POINT (-74.00325955 40.72037709)"
"R0832","ERS","OCEAN TERR & COVERLY AVE","10301","Staten Island","SI02","50","40.60444076","-74.10206195","POINT (-74.10206195 40.60444076)"
"R2172","ERS","SOUTH AVE & FAHY AVE","10314","Staten Island","SI02","50","40.62044326","-74.16909","POINT (-74.16909 40.62044326)"
"R0625","BARS","SCARBORO AVE & ABBOTT ST","10305","Staten Island","SI01","49","40.61337531","-74.06324871","POINT (-74.06324871 40.61337531)"
"R1214","ERS","CAPODANNO BLVD & WENTWORTH AVE","10305","Staten Island","SI02","50","40.58825507","-74.06874839","POINT (-74.06874839 40.58825507)"
"B0900","ERS","BROOKLYN AVE & HERKIMER ST","11216","Brooklyn","BK03","36","40.67933611","-73.94404799","POINT (-73.94404799 40.67933611)"
"X3546","ERS","PARKSIDE PL & E 207 ST","10467","Bronx","BX07","11","40.87475871","-73.873861","POINT (-73.873861 40.87475871)"
"R0729","ERS","POST AVE & DECKER AVE","10302","Staten Island","SI01","49","40.63212122","-74.13283281","POINT (-74.13283281 40.63212122)"
"Q8531","ERS","88 AVE & 80 ST","11421","Queens","QN09","30","40.69004699","-73.8616573","POINT (-73.8616573 40.69004699)"
"B1279","ERS","7 AVE & 14 ST","11215","Brooklyn","BK06","39","40.66388588","-73.9840888","POINT (-73.9840888 40.66388588)"
"Q4165","BARS","NURGE AVE & 54 PL","11378","Queens","QN05","30","40.71466746","-73.91149345","POINT (-73.91149345 40.71466746)"
"Q6854","BARS","118 AVE & 219 ST","11411","Queens","QN13","27","40.69383985","-73.74182287","POINT (-73.74182287 40.69383985)"
"B3720","ERS","SUTTER AVE & E 98 ST","11212","Brooklyn","BK16","41","40.66521004","-73.92314719","POINT (-73.92314719 40.66521004)"
"Q5169","BARS","COOLIDGE AVE & 150 ST","11435","Queens","QN08","24","40.7149992","-73.81020986","POINT (-73.81020986 40.7149992)"
"B1801","ERS","BLAKE AVE & LINWOOD ST","11208","Brooklyn","BK05","42","40.66980442","-73.88154455","POINT (-73.88154455 40.66980442)"
"B3724","ERS","REMSEN AVE & WINTHROP ST","11212","Brooklyn","BK17","41","40.65947395","-73.92719711","POINT (-73.92719711 40.65947395)"
"B2414","ERS","CLARENDON RD & E 39 ST","11203","Brooklyn","BK17","45","40.6437801","-73.9401583","POINT (-73.9401583 40.6437801)"
"R1842","BARS","BUEL AVE & RICHMOND RD","10304","Staten Island","SI02","50","40.58934426","-74.10149482","POINT (-74.10149482 40.58934426)"
"M1244","ERS","CENTRAL PARK W & W 97 ST","10025","Manhattan",,"7","40.79236205","-73.96417599","POINT (-73.96417599 40.79236205)"
"Q4374","ERS","HILLSIDE AVE & PARSONS BLVD","11432","Queens","QN12","24","40.7077158","-73.80278721","POINT (-73.80278721 40.7077158)"
"R0325","ERS","LAWRENCE AVE & HARVEST AVE","10310","Staten Island","SI01","49","40.62767844","-74.10697483","POINT (-74.10697483 40.62767844)"
"Q2679","BARS","BAISLEY BLVD & SMITH ST","11434","Queens","QN12","28","40.67903088","-73.77841936","POINT (-73.77841936 40.67903088)"
"Q7557","BARS","DITMARS BLVD & 33 ST","11105","Queens","QN01","22","40.77536622","-73.90961676","POINT (-73.90961676 40.77536622)"
"Q1620","ERS","CROSS BAY BLVD 50' N OF 2 RD BROAD CHNL","11693","Queens","QN14","32","40.61440555","-73.82099393","POINT (-73.82099393 40.61440555)"
"Q5024","ERS","111 AVE & 177 ST","11433","Queens","QN12","27","40.69664765","-73.77627203","POINT (-73.77627203 40.69664765)"
"X4236","ERS","EDISON AVE & BAISLEY AVE","10461","Bronx","BX10","13","40.83582647","-73.82879835","POINT (-73.82879835 40.83582647)"
"Q6340","BARS","DOUGLASTON PWAY & 40 AVE","11363","Queens","QN11","19","40.7697944","-73.74956315","POINT (-73.74956315 40.7697944)"
"Q5501","BARS","HILLSIDE AVE & 208 ST","11427","Queens","QN08","23","40.72209073","-73.7579743","POINT (-73.7579743 40.72209073)"
"R3529","ERS","ARDEN AVE RD & ARTHUR KILL RD","10312","Staten Island","SI03","51","40.55886154","-74.19753735","POINT (-74.19753735 40.55886154)"
"B0024","BARS","FRANKLIN & DUPONT STS","11222","Brooklyn","BK01","33","40.73555242","-73.95852419","POINT (-73.95852419 40.73555242)"
"B1983","ERS","STANLEY AVE OPP LINCOLN AVE","11208","Brooklyn","BK05","42","40.66586559","-73.86476564","POINT (-73.86476564 40.66586559)"
"Q9682","ERS","JAMAICA AVE & LEFFERTS BLVD","11418","Queens","QN09","29","40.70000887","-73.8308864","POINT (-73.8308864 40.70000887)"
"Q6203","BARS","34 AVE & PARSONS BLVD","11354","Queens","QN07","20","40.7668872","-73.82395033","POINT (-73.82395033 40.7668872)"
"R2488","BARS","NEW DORP LA & 3 ST","10306","Staten Island","SI02","50","40.57502258","-74.11829687","POINT (-74.11829687 40.57502258)"
"R1155","BARS","HOLLAND AVE & RICHMOND TERR","10303","Staten Island","SI01","49","40.64051793","-74.17128737","POINT (-74.17128737 40.64051793)"
"Q7752","BARS","30 AVE & 93 ST","11369","Queens","QN03","21","40.76144373","-73.87601372","POINT (-73.87601372 40.76144373)"
"M0197","ERS","BAXTER ST & GRAND ST","10013","Manhattan","MN02","1","40.71958127","-73.99805387","POINT (-73.99805387 40.71958127)"
"Q5043","BARS","LIBERTY AVE & 185 ST","11412","Queens","QN12","27","40.70461711","-73.77178899","POINT (-73.77178899 40.70461711)"
"R1314","BARS","CASWELL AVE & BRYSON AVE","10314","Staten Island","SI01","50","40.61398123","-74.14456996","POINT (-74.14456996 40.61398123)"
"Q6140","BARS","39 AVE & CLEARVIEW XWAY E SVC RD","11361","Queens","QN11","19","40.76314252","-73.77870255","POINT (-73.77870255 40.76314252)"
"Q7509","BARS","27 AVE & 12 ST","11102","Queens","QN01","22","40.77360955","-73.92987945","POINT (-73.92987945 40.77360955)"
"Q1064","BARS","CORNAGA AVE & MOTT AVE","11691","Queens","QN14","31","40.60268742","-73.74954558","POINT (-73.74954558 40.60268742)"
"Q5572","BARS","94 RD & SPRINGFIELD BLVD","11428","Queens","QN13","23","40.72055737","-73.73602628","POINT (-73.73602628 40.72055737)"
"Q9871","BARS","GOETHALS AVE & PARSONS BLVD","11432","Queens","QN08","24","40.7184456","-73.80861284","POINT (-73.80861284 40.7184456)"
"Q0160","BARS","JFK - BLDG 261 LUFTHANSA CARGO","11430","Queens","JFK","28","40.66215305","-73.78734208","POINT (-73.78734208 40.66215305)"
"Q4592","ERS","FRESH POND RD & 60 DR","11378","Queens","QN05","30","40.71533785","-73.90126118","POINT (-73.90126118 40.71533785)"
"B1029","ERS","KINGSTON AVE & MAPLE ST","11203","Brooklyn","BK09","41","40.6613205","-73.9426882","POINT (-73.9426882 40.6613205)"
"M0095","ERS","CHURCH ST & BARCLAY ST","10007","Manhattan","MN01","1","40.71272457","-74.00966812","POINT (-74.00966812 40.71272457)"
"B1464","ERS","6 AVE & 48 ST","11220","Brooklyn","BK07","38","40.64489724","-74.00695079","POINT (-74.00695079 40.64489724)"
"R0754","BARS","PORT RICHMOND AVE & CASTLETON AVE","10302","Staten Island","SI01","49","40.63602507","-74.13476961","POINT (-74.13476961 40.63602507)"
"B0579","ERS","3 AVE & BUTLER ST","11217","Brooklyn","BK06","33","40.68088023","-73.9837114","POINT (-73.9837114 40.68088023)"
"Q9317","BARS","N/S ROOSEVELT AVE 1100' E OF 114 ST","11368","Queens",,"21","40.753621","-73.84939934","POINT (-73.84939934 40.753621)"
"B0162","BARS","MONITOR ST & RICHARDSON ST","11211","Brooklyn","BK01","34","40.71911169","-73.94153959","POINT (-73.94153959 40.71911169)"
"B2577","ERS","DAHILL RD & CATON AVE","11218","Brooklyn","BK12","39","40.64718167","-73.98132888","POINT (-73.98132888 40.64718167)"
"Q7416","BARS","STEINWAY ST & BROADWAY","11103","Queens","QN01","26","40.75897381","-73.91899822","POINT (-73.91899822 40.75897381)"
"Q2934","BARS","W/S VAN WYCK XWAY 130' N OF 82 AVE","11415","Queens","QN09","29","40.71418296","-73.82510741","POINT (-73.82510741 40.71418296)"
"B2865","ERS","20 AVE & 71 ST","11204","Brooklyn","BK11","47","40.61312289","-73.98939734","POINT (-73.98939734 40.61312289)"
"B0309","ERS","BEDFORD AVE & TAYLOR ST","11211","Brooklyn","BK01","33","40.70589987","-73.96309795","POINT (-73.96309795 40.70589987)"
"B1850","ERS","EUCLID AVE & ETNA ST","11208","Brooklyn","BK05","37","40.68650686","-73.87495084","POINT (-73.87495084 40.68650686)"
"Q4217","ERS","PENELOPE AVE & 82 PL","11379","Queens","QN05","30","40.72052635","-73.8722723","POINT (-73.8722723 40.72052635)"
"Q6284","BARS","BELL BLVD & 28 AVE","11360","Queens","QN11","19","40.7770256","-73.77553732","POINT (-73.77553732 40.7770256)"
"X4691","ERS","SEMINOLE AVE & CHOCTAW PL","10461","Bronx","BX11","13","40.85581495","-73.84948236","POINT (-73.84948236 40.85581495)"
"Q9523","ERS","66 AVE & FITCHETT ST","11374","Queens","QN06","29","40.71917052","-73.86126794","POINT (-73.86126794 40.71917052)"
"X3145","ERS","PARK AVE & E 180 ST","10457","Bronx","BX06","15","40.85208808","-73.89710539","POINT (-73.89710539 40.85208808)"
"Q5152","ERS","DORAN AVE & 89 ST","11385","Queens","QN05","30","40.71042682","-73.86217795","POINT (-73.86217795 40.71042682)"
"B2592","ERS","12 AVE & 55 ST","11219","Brooklyn","BK12","44","40.63299552","-73.9978127","POINT (-73.9978127 40.63299552)"
"X3210","ERS","BOSTON RD & BX PARK E","10467","Bronx","BX11","15","40.85738597","-73.87093273","POINT (-73.87093273 40.85738597)"
"Q3698","BARS","HARDING XWAY N & UNDERHILL AVE","11365","Queens","QN11","20","40.74309984","-73.78006329","POINT (-73.78006329 40.74309984)"
"B3950","ERS","GREENE AVE & CARLTON AVE","11238","Brooklyn","BK02","35","40.68606458","-73.97143375","POINT (-73.97143375 40.68606458)"
"B1368","ERS","OTSEGO ST & DIKEMAN ST","11231","Brooklyn","BK06","38","40.67437488","-74.00998996","POINT (-74.00998996 40.67437488)"
"B0507","ERS","COLUMBIA ST & KANE ST","11201","Brooklyn","BK06","39","40.68775179","-74.00138866","POINT (-74.00138866 40.68775179)"
"Q4674","ERS","55 RD & VAN HORN ST","11373","Queens","QN04","25","40.73341722","-73.87771964","POINT (-73.87771964 40.73341722)"
"R3949","BARS","S/S ARTHKILL RD & INDUST LOOP W/COKE ST","10309","Staten Island","SI03","51","40.54583095","-74.22982368","POINT (-74.22982368 40.54583095)"
"B1521","ERS","OCEAN PWAY & PARK CIRCLE","11218","Brooklyn","BK07","39","40.65108309","-73.97298199","POINT (-73.97298199 40.65108309)"
"Q7012","BARS","REVIEW AVE & LAUREL HILL BLVD","11101","Queens","QN02","26","40.72913196","-73.93100878","POINT (-73.93100878 40.72913196)"
"X4648","ERS","BRUCKNER BLVD S/B & CODDINGTON AVE","10461","Bronx","BX10","13","40.84129675","-73.82630353","POINT (-73.82630353 40.84129675)"
"B1033","ERS","KINGSTON AVE & PRESIDENT ST","11213","Brooklyn","BK09","35","40.66762256","-73.94236048","POINT (-73.94236048 40.66762256)"
"M1655","ERS","BRADHURST AVE & W 152 ST","10039","Manhattan","MN10","9","40.82765657","-73.93968953","POINT (-73.93968953 40.82765657)"
"Q3120","ERS","PENELOPE AVE & WOODHAVEN BLVD","11374","Queens","QN05","29","40.72266126","-73.86765927","POINT (-73.86765927 40.72266126)"
"R4809","ERS","JACOB ST & HAYWOOD ST","10307","Staten Island","SI03","51","40.51102918","-74.23270385","POINT (-74.23270385 40.51102918)"
"B0568","ERS","BOND ST & PACIFIC ST","11217","Brooklyn","BK02","33","40.68629411","-73.9852592","POINT (-73.9852592 40.68629411)"
"B0823","ERS","CENTRAL AVE & PUTNAM AVE","11221","Brooklyn","BK04","37","40.6921653","-73.91475403","POINT (-73.91475403 40.6921653)"
"X4288","ERS","CAMPBELL DRIVE & AGAR PL","10465","Bronx","BX10","13","40.83925204","-73.81738947","POINT (-73.81738947 40.83925204)"
"M0717","ERS","3 AVE & E 34 ST","10016","Manhattan","MN06","2","40.7457258","-73.97812128","POINT (-73.97812128 40.7457258)"
"B0665","ERS","NOSTRAND AVE & HART ST","11205","Brooklyn","BK03","36","40.69279366","-73.95205078","POINT (-73.95205078 40.69279366)"
"M1536","ERS","LEXINGTON AVE & E 131 ST","10037","Manhattan","MN11","9","40.80817513","-73.93466428","POINT (-73.93466428 40.80817513)"
"B3109","ERS","AVENUE M & E 48 ST","11234","Brooklyn","BK18","46","40.62123985","-73.9290765","POINT (-73.9290765 40.62123985)"
"Q6122","BARS","42 AVE & CLEARVIEW XWAY E SVC RD","11361","Queens","QN11","19","40.76132518","-73.77768883","POINT (-73.77768883 40.76132518)"
"X2205","ERS","ST ANNS AVE & E 146 ST","10454","Bronx","BX01","8","40.81230111","-73.91409757","POINT (-73.91409757 40.81230111)"
"R2671","BARS","GUYON AVE & PENDALE ST","10306","Staten Island","SI03","50","40.56086599","-74.12084284","POINT (-74.12084284 40.56086599)"
"B2339","ERS","CLARENDON RD & E 57 ST","11203","Brooklyn","BK17","45","40.64485405","-73.92284938","POINT (-73.92284938 40.64485405)"
"Q9125","ERS","MAIN ST & 79 AVE","11367","Queens","QN08","24","40.71869343","-73.81764807","POINT (-73.81764807 40.71869343)"
"Q6937","BARS","35 AVE & 165 ST","11358","Queens","QN07","19","40.76521152","-73.800495","POINT (-73.800495 40.76521152)"
"R2652","BARS","ISABELLA AVE & LEEDS ST","10306","Staten Island","SI03","50","40.5639654","-74.12355113","POINT (-74.12355113 40.5639654)"
"R0104","ERS","LAFAYETTE AVE & CHESTNUT PL","10301","Staten Island","SI01","49","40.63659955","-74.09338942","POINT (-74.09338942 40.63659955)"
"Q6546","ERS","E/S MAIN ST & HOOVER AVE","11435","Queens","QN08","24","40.71431158","-73.8162024","POINT (-73.8162024 40.71431158)"
"Q4240","ERS","58 AVE & 79 ST","11379","Queens","QN05","30","40.72686364","-73.88182559","POINT (-73.88182559 40.72686364)"
"B2055","ERS","PITKIN AVE & VERMONT ST","11207","Brooklyn","BK05","37","40.67217641","-73.89395536","POINT (-73.89395536 40.67217641)"
"Q0171","BARS","JFK - BLDG 66 S/S BRITISH AIRWAYS","11430","Queens","JFK","28","40.65805878","-73.7994334","POINT (-73.7994334 40.65805878)"
"M0492","ERS","E 20 ST 250' W OF FDR DR","10010","Manhattan","MN06","4","40.73321163","-73.97540652","POINT (-73.97540652 40.73321163)"
"B3966","ERS","N/S WORTMAN AVE 275' E OF VERMONT ST","11207","Brooklyn","BK05","42","40.65667679","-73.88593333","POINT (-73.88593333 40.65667679)"
"B1791","ERS","SUTTER AVE & ELTON ST","11208","Brooklyn","BK05","42","40.67122001","-73.88275459","POINT (-73.88275459 40.67122001)"
"Q2952","ERS","72 AVE & PARK DR E","11367","Queens","QN08","24","40.72496095","-73.82755528","POINT (-73.82755528 40.72496095)"
"Q7868","BARS","B'WAY & 61 ST","11377","Queens","QN02","26","40.75070188","-73.90119682","POINT (-73.90119682 40.75070188)"
"R1271","BARS","PARKINSON AVE & HYLAN BLVD","10305","Staten Island","SI02","50","40.59791241","-74.08360775","POINT (-74.08360775 40.59791241)"
"B0779","ERS","MYRTLE AVE & BROADWAY","11206","Brooklyn","BK03","34","40.69698654","-73.93522264","POINT (-73.93522264 40.69698654)"
"B1955","ERS","COZINE AVE & JEROME ST","11207","Brooklyn","BK05","42","40.65765395","-73.87916506","POINT (-73.87916506 40.65765395)"
"Q8995","ERS","165 AVE & 85 ST","11414","Queens","QN10","32","40.64807113","-73.8448243","POINT (-73.8448243 40.64807113)"
"Q0180","BARS","JFK - BLDG 69 ENT OPP BLDG 123","11430","Queens","JFK","28","40.65823201","-73.80193855","POINT (-73.80193855 40.65823201)"
"R0935","BARS","LA SALLE ST & WINANT ST","10303","Staten Island","SI01","49","40.63564155","-74.14668195","POINT (-74.14668195 40.63564155)"
"R2438","BARS","RIEDEL AVE & HITCHCOCK AVE/RVFD","10306","Staten Island","SI03","50","40.57313118","-74.12984403","POINT (-74.12984403 40.57313118)"
"Q9773","BARS","W/S CLEARVIEW XWAY & 73 AVE","11364","Queens","QN08","23","40.73739684","-73.76885672","POINT (-73.76885672 40.73739684)"
"M1735","ERS","AUDUBON AVE & W 179 ST","10033","Manhattan","MN12","10","40.84741225","-73.93330613","POINT (-73.93330613 40.84741225)"
"Q4035","ERS","SENECA AVE & TROUTMAN ST","11385","Queens","QN05","34","40.70982119","-73.91954602","POINT (-73.91954602 40.70982119)"
"Q1636","ERS","WALTON RD & 9 RD BROAD CHANNEL","11693","Queens","QN14","32","40.60657654","-73.81703103","POINT (-73.81703103 40.60657654)"
"B0341","ERS","LEE AVE & LORIMER ST","11206","Brooklyn","BK01","33","40.70021099","-73.95388643","POINT (-73.95388643 40.70021099)"
"B0839","ERS","BUSHWICK AVE & GRANITE ST","11207","Brooklyn","BK04","37","40.68323028","-73.90712597","POINT (-73.90712597 40.68323028)"
"R0783","BARS","FOREST AVE & CRYSTAL AVE","10302","Staten Island","SI01","50","40.62459281","-74.14128184","POINT (-74.14128184 40.62459281)"
"Q7277","BARS","SKILLMAN AVE & 27 ST","11101","Queens","QN02","26","40.7444045","-73.9403156","POINT (-73.9403156 40.7444045)"
"Q5326","BARS","HILLSIDE AVE & 198 ST","11423","Queens","QN12","23","40.71889039","-73.76446952","POINT (-73.76446952 40.71889039)"
"Q6293","BARS","TOTTEN RD 800' E OF BELL BLVD","11360","Queens","QN07","19","40.79067607","-73.78184453","POINT (-73.78184453 40.79067607)"
"Q9210","BARS","JUNCTION BLVD & 57 AVE","11373","Queens","QN04","21","40.73664322","-73.86582956","POINT (-73.86582956 40.73664322)"
"Q3268","ERS","55 AVE & 111 ST","11368","Queens",,"21","40.74218041","-73.85086918","POINT (-73.85086918 40.74218041)"
"X2334","ERS","BRUCKNER BLVD & TIFFANY ST","10459","Bronx","BX02","17","40.81783326","-73.89343682","POINT (-73.89343682 40.81783326)"
"R4645","BARS","HYLAN BLVD & CORNELIA AVE","10312","Staten Island","SI03","51","40.52257165","-74.19000394","POINT (-74.19000394 40.52257165)"
"Q3501","ERS","COLLEGE PT BLVD & HARDING XWAY N","11355","Queens","QN07","20","40.74383408","-73.83582202","POINT (-73.83582202 40.74383408)"
"Q4649","BARS","12 AVE 625' E OF 166 ST","11357","Queens","QN07","19","40.79165958","-73.7955057","POINT (-73.7955057 40.79165958)"
"Q6153","BARS","38 AVE & CORPORAL KENNEDY ST","11361","Queens","QN11","19","40.76523945","-73.77688333","POINT (-73.77688333 40.76523945)"
"Q9486","ERS","HARDING XWAY N & 148 ST","11355","Queens","QN07","20","40.74132873","-73.82145389","POINT (-73.82145389 40.74132873)"
"R1610","BARS","CHARTER OAK RD 500' E OF TODT HILL RD","10304","Staten Island","SI02","50","40.5884624","-74.11118346","POINT (-74.11118346 40.5884624)"
"B1553","ERS","BEDFORD AVE & SNYDER AVE","11226","Brooklyn","BK17","40","40.64864329","-73.95576233","POINT (-73.95576233 40.64864329)"
"R0381","ERS","CASTLETON AVE & BROADWAY","10310","Staten Island","SI01","49","40.6345681","-74.11719947","POINT (-74.11719947 40.6345681)"
"B0258","BARS","MANHATTAN AVE & GRAND ST","11206","Brooklyn","BK01","34","40.7114815","-73.94559625","POINT (-73.94559625 40.7114815)"
"R2092","BARS","BRYANT AVE & CLAWSON ST","10306","Staten Island","SI02","50","40.5748957","-74.10844067","POINT (-74.10844067 40.5748957)"
"X2588","ERS","CLAY AVE & E 168 ST","10456","Bronx","BX04","16","40.83257252","-73.91051469","POINT (-73.91051469 40.83257252)"
"Q7615","BARS","24 AVE & 78 ST","11370","Queens","QN03","22","40.76448657","-73.89075781","POINT (-73.89075781 40.76448657)"
"B0764","BARS","WYCKOFF AVE & LINDEN ST","11237","Brooklyn","BK04","37","40.70035835","-73.91256833","POINT (-73.91256833 40.70035835)"
"Q4154","ERS","METROPOLITAN AVE & NURGE AVE","11378","Queens","QN05","34","40.71333208","-73.91303759","POINT (-73.91303759 40.71333208)"
"Q9720","BARS","HARDING XWAY N & 183 ST","11365","Queens","QN11","20","40.73996589","-73.79137033","POINT (-73.79137033 40.73996589)"
"R0467","BARS","CHESTNUT AVE & BAY ST","10305","Staten Island","SI01","49","40.61751693","-74.0686563","POINT (-74.0686563 40.61751693)"
"Q1144","BARS","NAMEOKE AVE & MCBRIDE ST","11691","Queens","QN14","31","40.60849923","-73.75673459","POINT (-73.75673459 40.60849923)"
"B1689","ERS","DUMONT AVE & STONE AVE/GASTON BLVD","11212","Brooklyn","BK16","41","40.66452873","-73.90572","POINT (-73.90572 40.66452873)"
"Q9449","ERS","COLLEGE POINT BLVD & 58 AVE","11355","Queens",,"20","40.74620411","-73.83506575","POINT (-73.83506575 40.74620411)"
"M1825","ERS","BROADWAY AND 215TH ST","10034","Manhattan","MN12","10","40.8697071","-73.91581789","POINT (-73.91581789 40.8697071)"
"X2804","ERS","HERMANY AVE & CASTLE HILL AVE","10473","Bronx","BX09","18","40.82473484","-73.84936086","POINT (-73.84936086 40.82473484)"
"Q5215","ERS","SUTTER AVE & LEFFERTS BLVD","11420","Queens","QN10","28","40.67417408","-73.81974314","POINT (-73.81974314 40.67417408)"
"Q5453","BARS","94 AVE & 212 ST","11428","Queens","QN13","23","40.71740555","-73.74750267","POINT (-73.74750267 40.71740555)"
"Q0138","BARS","JFK - HANGER 17 RAMP","11430","Queens","JFK","31","40.65491326","-73.8129659","POINT (-73.8129659 40.65491326)"
"Q9615","ERS","PARK LA S & 107 ST","11385","Queens",,"32","40.70055443","-73.8429379","POINT (-73.8429379 40.70055443)"
"Q4898","ERS","89 AVE & 165 ST","11432","Queens","QN12","27","40.70772309","-73.79631661","POINT (-73.79631661 40.70772309)"
"Q9228","BARS","44 AVE & JUNCTION BLVD","11373","Queens","QN04","21","40.74493372","-73.86790964","POINT (-73.86790964 40.74493372)"
"B1245","ERS","6 AVE & PROSPECT PL","11217","Brooklyn","BK06","39","40.67933278","-73.97532193","POINT (-73.97532193 40.67933278)"
"B1021","ERS","UTICA AVE & RUTLAND RD","11203","Brooklyn","BK09","41","40.66059331","-73.9313257","POINT (-73.9313257 40.66059331)"
"R3391","BARS","ARTHUR KILL RD 1000' E OF MULDOON AVE","10312","Staten Island","SI03","51","40.56121134","-74.19515123","POINT (-74.19515123 40.56121134)"
"M0467","ERS","E 13 ST & AVE C/LOISAIDA AVE","10009","Manhattan","MN03","2","40.7277487","-73.97617988","POINT (-73.97617988 40.7277487)"
"M1813","ERS","SHERMAN AVE AND ISHAM ST","10034","Manhattan","MN12","10","40.86631435","-73.91859602","POINT (-73.91859602 40.86631435)"
"Q4850","ERS","6 RD & 151 PL","11357","Queens","QN07","19","40.79581801","-73.81189357","POINT (-73.81189357 40.79581801)"
"B1428","ERS","3 AVE & 21 ST","11232","Brooklyn","BK07","38","40.66420211","-73.99777888","POINT (-73.99777888 40.66420211)"
"B1745","ERS","RIVERDALE AVE & BRADFORD ST","11207","Brooklyn","BK05","42","40.66377829","-73.8899067","POINT (-73.8899067 40.66377829)"
"M2023","ERS","RECTOR PL & SOUTH END AVE","10280","Manhattan","MN01","1","40.70936109","-74.01656821","POINT (-74.01656821 40.70936109)"
"Q4996","ERS","71 ST & 58 RD","11378","Queens","QN05","30","40.72568109","-73.8903921","POINT (-73.8903921 40.72568109)"
"Q6968","BARS","NORTHER BLVD & CLEARVIEW XWAY E SVC RD","11361","Queens","QN11","19","40.75819406","-73.77683318","POINT (-73.77683318 40.75819406)"
"R0662","ERS","TOMPKINS AVE & SCHOOL RD","10305","Staten Island","SI01","50","40.60503038","-74.0657377","POINT (-74.0657377 40.60503038)"
"Q3941","BARS","OAK PARK DR 1800' E/O DOUGLASTON PKWY","11362","Queens","QN11","23","40.74588344","-73.73177141","POINT (-73.73177141 40.74588344)"
"M1420","ERS","W 119 ST & LENOX AVE/MALCOLM X BLVD","10026","Manhattan","MN10","9","40.8039572","-73.94827301","POINT (-73.94827301 40.8039572)"
"X4840","ERS","E 225 ST & SCHIEFFELIN PL","10466","Bronx","BX12","12","40.88229385","-73.84455741","POINT (-73.84455741 40.88229385)"
"Q6950","BARS","NORTHERN BLVD & 204 ST","11361","Queens","QN11","19","40.75791022","-73.77910055","POINT (-73.77910055 40.75791022)"
"M1198","ERS","AMSTERDAM AVE & W 91 ST","10025","Manhattan","MN07","6","40.79087073","-73.97268972","POINT (-73.97268972 40.79087073)"
"Q7562","BARS","23 AVE & 28 ST","11105","Queens","QN01","22","40.77554763","-73.91454791","POINT (-73.91454791 40.77554763)"
"B1755","ERS","ATLANTIC AVE & VAN SICLEN AVE","11207","Brooklyn","BK05","37","40.67643092","-73.89126688","POINT (-73.89126688 40.67643092)"
"B0030","BARS","WEST ST & KENT ST","11222","Brooklyn","BK01","33","40.73043302","-73.95935688","POINT (-73.95935688 40.73043302)"
"B2688","ERS","FORT HAMILTON PWAY & 60 ST","11219","Brooklyn","BK12","38","40.63306615","-74.00576273","POINT (-74.00576273 40.63306615)"
"B1970","ERS","SUNNYSIDE AVE & HENDRIX ST","11207","Brooklyn","BK05","37","40.68166746","-73.89201856","POINT (-73.89201856 40.68166746)"
"M0102","ERS","PEARL ST & DOVER ST","10038","Manhattan","MN01","1","40.70954194","-74.00164094","POINT (-74.00164094 40.70954194)"
"M2036","ERS","MURRAY ST & NORTH END AVE","10007","Manhattan","MN01","1","40.71599601","-74.01537262","POINT (-74.01537262 40.71599601)"
"Q5252","BARS","HILLSIDE AVE & 183 ST","11432","Queens","QN12","24","40.7138493","-73.77886958","POINT (-73.77886958 40.7138493)"
"Q4577","ERS","MYRTLE AVE & FRESH POND RD","11385","Queens","QN05","30","40.70079806","-73.89457449","POINT (-73.89457449 40.70079806)"
"Q3748","BARS","64 AVE 280' E OF 188 ST","11365","Queens","QN08","23","40.73931958","-73.78443546","POINT (-73.78443546 40.73931958)"
"Q4059","ERS","SENECA AVE & GREENE AVE","11385","Queens","QN05","34","40.70543961","-73.91213671","POINT (-73.91213671 40.70543961)"
"R0670","BARS","FINGERBOARD RD & HYLAN BLVD","10305","Staten Island","SI02","50","40.60176645","-74.07216766","POINT (-74.07216766 40.60176645)"
"B1284","ERS","6 AVE & 18 ST","11215","Brooklyn","BK07","38","40.66169904","-73.98947","POINT (-73.98947 40.66169904)"
"B2045","ERS","SUTTER AVE & ESSEX ST","11208","Brooklyn","BK05","42","40.67146797","-73.88107821","POINT (-73.88107821 40.67146797)"
"Q2218","ERS","QUEENS BLVD & 67 ST","11377","Queens","QN02","26","40.74053915","-73.89730929","POINT (-73.89730929 40.74053915)"
"B1674","ERS","GLENMORE AVE & WATKINS ST","11212","Brooklyn","BK16","37","40.67136417","-73.90830768","POINT (-73.90830768 40.67136417)"
"Q5738","ERS","122 AVE & GRAYSON ST","11413","Queens","QN12","27","40.68406251","-73.75818011","POINT (-73.75818011 40.68406251)"
"M0307","ERS","HUDSON ST & DOMINICK ST","10013","Manhattan","MN02","3","40.72519228","-74.00766959","POINT (-74.00766959 40.72519228)"
"M0807","ERS","UNITED NATIONS PLAZA & E 44 ST","10017","Manhattan","MN06","4","40.75001677","-73.96879849","POINT (-73.96879849 40.75001677)"
"Q4972","ERS","80 AVE & 60 LA","11385","Queens","QN05","30","40.6952573","-73.89388853","POINT (-73.89388853 40.6952573)"
"Q4383","BARS","STATION RD & UTOPIA PWAY","11358","Queens","QN11","19","40.76084505","-73.79330496","POINT (-73.79330496 40.76084505)"
"R0644","BARS","HOME AVE & EVELYN PL","10305","Staten Island","SI01","49","40.60899106","-74.06542608","POINT (-74.06542608 40.60899106)"
"R2372","BARS","GARY PL & PARK DR N/OVFD","10314","Staten Island","SI02","50","40.59985322","-74.16768941","POINT (-74.16768941 40.59985322)"
"M1556","ERS","AMSTERDAM AVE & W 134 ST","10031","Manhattan","MN09","7","40.81823558","-73.95272074","POINT (-73.95272074 40.81823558)"
"Q9510","ERS","WOODHAVEN BLVD OPP GOLDINGTON CT","11374","Queens","QN05","29","40.72090092","-73.86604176","POINT (-73.86604176 40.72090092)"
"X3098","ERS","BOYNTON AVE & E 173 ST","10472","Bronx","BX09","18","40.83348339","-73.87936805","POINT (-73.87936805 40.83348339)"
"B1940","ERS","FULTON ST & ELDERTS LA","11421","Queens","BK05","37","40.68526956","-73.86659848","POINT (-73.86659848 40.68526956)"
"R1249","BARS","NUGENT AVE & VULCAN ST","10305","Staten Island","SI02","50","40.5909766","-74.07879903","POINT (-74.07879903 40.5909766)"
"Q8588","ERS","89 AVE & 94 ST","11421","Queens","QN09","32","40.69145472","-73.85011641","POINT (-73.85011641 40.69145472)"
"Q2027","ERS","CROSS BAY BLVD & 157 AVE","11414","Queens","QN10","32","40.66252295","-73.8407028","POINT (-73.8407028 40.66252295)"
"M1149","ERS","5 AVE & E 84 ST","83","Manhattan","MN08","4","40.78022975","-73.96136873","POINT (-73.96136873 40.78022975)"
"Q5105","ERS","MYRTLE AVE & 74 ST","11385","Queens","QN05","30","40.70245683","-73.87446274","POINT (-73.87446274 40.70245683)"
"B1873","ERS","LORING AVE & ELDERTS LANE","11208","Brooklyn","BK05","42","40.66778255","-73.86241983","POINT (-73.86241983 40.66778255)"
"Q7425","BARS","34 AVE & 30 ST","11106","Queens","QN01","26","40.76004792","-73.92805141","POINT (-73.92805141 40.76004792)"
"R0220","ERS","HOWARD AVE & NOTRE DAME CONVENT GATE","10301","Staten Island","SI01","49","40.62829254","-74.08879772","POINT (-74.08879772 40.62829254)"
"Q7347","ERS","WOODSIDE AVE & 54 ST","11377","Queens","QN02","26","40.74739509","-73.90955355","POINT (-73.90955355 40.74739509)"
"Q0193","BARS","JFK - BLDG 96 AUTO SHOP RAMP","11430","Queens","JFK","31","40.64577024","-73.80313572","POINT (-73.80313572 40.64577024)"
"M1729","ERS","HAVEN AVE & W 177 ST","10033","Manhattan","MN12","10","40.84831673","-73.94205395","POINT (-73.94205395 40.84831673)"
"R4756","ERS","BEDELL ST & AMBOY RD","10309","Staten Island","SI03","51","40.52093005","-74.21735501","POINT (-74.21735501 40.52093005)"
"M0537","ERS","WASHINGTON ST & JANE ST","10014","Manhattan","MN02","3","40.73814169","-74.00815391","POINT (-74.00815391 40.73814169)"
"B0518","ERS","HENRY ST & CARROLL ST","11231","Brooklyn","BK06","39","40.68213315","-74.0003716","POINT (-74.0003716 40.68213315)"
"R1673","ERS","BOGERT AVE & MORSE AVE","10314","Staten Island","SI02","50","40.59902549","-74.11781606","POINT (-74.11781606 40.59902549)"
"Q5484","BARS","CAMDEN AVE & DUNKIRK ST","11433","Queens","QN12","27","40.70262043","-73.77353391","POINT (-73.77353391 40.70262043)"
"R2893","BARS","AULTMAN AVE & RICHMOND RD/RVFD","10306","Staten Island","SI02","50","40.57305161","-74.13646078","POINT (-74.13646078 40.57305161)"
"Q8655","BARS","FOCH BLVD & LONG ST","11434","Queens","QN12","28","40.68372017","-73.78467558","POINT (-73.78467558 40.68372017)"
"B0517","ERS","VAN BRUNT ST & PRESIDENT ST","11231","Brooklyn","BK06","39","40.68432596","-74.0054981","POINT (-74.0054981 40.68432596)"
"B0092","BARS","NORMAN AVE & LORIMER ST","11222","Brooklyn","BK01","33","40.72515214","-73.95259765","POINT (-73.95259765 40.72515214)"
"M1405","ERS","3 AVE & E 118 ST","10035","Manhattan","MN11","8","40.79925316","-73.93906264","POINT (-73.93906264 40.79925316)"
"X2693","ERS","NOBLE AVE BTW STORY AVE & LAFAYETTE AVE","10473","Bronx","BX09","18","40.82169765","-73.86796807","POINT (-73.86796807 40.82169765)"
"X4776","ERS","CROTONA AVE & E FORDHAM RD","10458","Bronx","BX06","15","40.85728511","-73.88202608","POINT (-73.88202608 40.85728511)"
"B1927","ERS","NEW JERSEY AVE & LINDEN BLVD","11207","Brooklyn","BK05","42","40.65892029","-73.88981946","POINT (-73.88981946 40.65892029)"
"Q3277","BARS","ASTORIA BLVD S & 74 ST","11370","Queens","QN03","22","40.76605292","-73.89430809","POINT (-73.89430809 40.76605292)"
"Q9152","ERS","68 AVE & 110 ST","11375","Queens","QN06","29","40.7276302","-73.84427654","POINT (-73.84427654 40.7276302)"
"Q9536","ERS","OLCOTT ST & SELFRIDGE ST","11375","Queens","QN06","29","40.71286491","-73.85662665","POINT (-73.85662665 40.71286491)"
"R0041","BARS","HYATT ST & ST MARKS PL","10301","Staten Island","SI01","49","40.64158514","-74.07789895","POINT (-74.07789895 40.64158514)"
"M0208","ERS","SOUTH ST & PIKE SLIP","10002","Manhattan","MN03","1","40.70991356","-73.99170057","POINT (-73.99170057 40.70991356)"
"Q5246","BARS","HILLSIDE AVE & 179 ST","11432","Queens","QN12","24","40.7124939","-73.78446145","POINT (-73.78446145 40.7124939)"
"R3489","ERS","AMBOY RD & GIFFORDS LA","10308","Staten Island","SI03","51","40.55076844","-74.1501602","POINT (-74.1501602 40.55076844)"
"M0525","ERS","BROADWAY & W 12 ST","10003","Manhattan","MN02","2","40.73321392","-73.99111355","POINT (-73.99111355 40.73321392)"
"Q7577","BARS","21 AVE & 26 ST","11105","Queens","QN01","22","40.78012257","-73.9115234","POINT (-73.9115234 40.78012257)"
"Q9846","ERS","ARCHER AVE & 160 ST","11433","Queens","QN12","27","40.70274056","-73.79841541","POINT (-73.79841541 40.70274056)"
"Q6148","ERS","NORTHERN BLVD & CROSS IS PWAY","11362","Queens","QN11","23","40.76216121","-73.75688313","POINT (-73.75688313 40.76216121)"
"Q5117","ERS","MYRTLE AVE & 65 PL","11385","Queens","QN05","30","40.70118443","-73.88893074","POINT (-73.88893074 40.70118443)"
"R1554","ERS","MANOR RD & OCEAN TERR","10314","Staten Island","SI02","50","40.60180976","-74.12059546","POINT (-74.12059546 40.60180976)"
"Q4083","ERS","FLUSHING AVE & 57 ST","11378","Queens","QN05","30","40.71695645","-73.9111864","POINT (-73.9111864 40.71695645)"
"Q7849","BARS","37 AVE & 65 ST","11377","Queens","QN02","26","40.74849388","-73.8979167","POINT (-73.8979167 40.74849388)"
"X3181","ERS","RYER AVE & E 182 ST","10457","Bronx","BX05","15","40.85566891","-73.89967156","POINT (-73.89967156 40.85566891)"
"M0141","ERS","CENTRE ST & PEARL ST","10007","Manhattan","MN01","1","40.71431273","-74.00259804","POINT (-74.00259804 40.71431273)"
"X3812","ERS","BARNES AVE & E 231 ST","10466","Bronx","BX12","12","40.89113488","-73.85526626","POINT (-73.85526626 40.89113488)"
"X2532","ERS","NELSON AVE & W 166 ST","10452","Bronx","BX04","8","40.83533188","-73.92699376","POINT (-73.92699376 40.83533188)"
"M1087","ERS","5 AVE & E 78 ST","10021","Manhattan",,"6","40.77631031","-73.9642282","POINT (-73.9642282 40.77631031)"
"R3295","ERS","HEREFORD ST & GIFFORDS LA","10308","Staten Island","SI03","51","40.56075226","-74.15452434","POINT (-74.15452434 40.56075226)"
"X4447","ERS","HARPER AVE & BOSTON RD","10466","Bronx","BX12","12","40.88386168","-73.83460131","POINT (-73.83460131 40.88386168)"
"Q7156","BARS","43 AVE & 13 ST","11101","Queens","QN02","26","40.75104683","-73.94645689","POINT (-73.94645689 40.75104683)"
"M1748","ERS","FORT WASHINGTON AVE & W 181 ST","10033","Manhattan","MN12","10","40.85090855","-73.93828417","POINT (-73.93828417 40.85090855)"
"Q1132","ERS","FAR ROCKAWAY BLVD & OCEAN CREST BLVD","11691","Queens","QN14","31","40.60113791","-73.75966397","POINT (-73.75966397 40.60113791)"
"B1363","ERS","COLUMBIA ST & BAY ST","11231","Brooklyn","BK06","38","40.67329787","-74.00834131","POINT (-74.00834131 40.67329787)"
"Q6432","BARS","HARDING XWAY S & 244 ST","11362","Queens","QN11","23","40.75787438","-73.73742699","POINT (-73.73742699 40.75787438)"
"Q9434","ERS","162 ST 600' S OF 65 AVE","11365","Queens","QN08","24","40.73510926","-73.80670336","POINT (-73.80670336 40.73510926)"
"X4436","ERS","BAYCHESTER AVE & TILLOTSON AVE","10475","Bronx","BX12","12","40.87925389","-73.83743419","POINT (-73.83743419 40.87925389)"
"Q4120","ERS","FOREST AVE & WOODBINE ST","11385","Queens","QN05","30","40.7064937","-73.90283956","POINT (-73.90283956 40.7064937)"
"B3570","ERS","N/SVC RD LIEF ERICSON DR & SHELL RD","11223","Brooklyn","BK13","47","40.58345612","-73.97435147","POINT (-73.97435147 40.58345612)"
"B3735","ERS","BEDFORD AVE & CLARENDON RD","11226","Brooklyn","BK14","40","40.64288759","-73.95452484","POINT (-73.95452484 40.64288759)"
"Q5689","BARS","113 AVE & 212 ST","11429","Queens","QN13","27","40.70437173","-73.74396692","POINT (-73.74396692 40.70437173)"
"R0698","BARS","CAPODANNO BLVD & DOTY AVE","10305","Staten Island","SI02","50","40.59234145","-74.06417896","POINT (-74.06417896 40.59234145)"
"Q7959","BARS","ELMHURST AVE & ITHACA ST","11373","Queens","QN04","25","40.74436091","-73.87878438","POINT (-73.87878438 40.74436091)"
"B2012","ERS","SNEDIKER AVE & NEWPORT ST","11207","Brooklyn","BK05","42","40.66086066","-73.89881854","POINT (-73.89881854 40.66086066)"
"Q0115","BARS","JFK - FUEL FARM BET TANK 87 & BLDG 158","NA","Queens","JFK","31","40.66010792","-73.81592596","POINT (-73.81592596 40.66010792)"
"Q9560","ERS","BURNS ST & 67 AVE","11375","Queens","QN06","29","40.72304091","-73.85629314","POINT (-73.85629314 40.72304091)"
"R4493","ERS","ARBUTUS AVE & HYLAN BLVD","10312","Staten Island","SI03","51","40.52608906","-74.18031091","POINT (-74.18031091 40.52608906)"
"Q7397","BARS","35 AVE & 42 ST","11101","Queens","QN01","26","40.75438765","-73.92052102","POINT (-73.92052102 40.75438765)"
"R1036","ERS","TARGEE ST & CLOVE RD","10304","Staten Island","SI02","50","40.60769129","-74.08944235","POINT (-74.08944235 40.60769129)"
"X3528","ERS","BRIGGS AVE & E MOSHOLU PWAY S","10458","Bronx","BX07","11","40.87295649","-73.88296699","POINT (-73.88296699 40.87295649)"
"Q7731","BARS","29 AVE & HUMPHREYS ST","11369","Queens","QN03","21","40.76211744","-73.86627495","POINT (-73.86627495 40.76211744)"
"Q6815","BARS","MURDOCK AVE & 223 ST","11429","Queens","QN13","27","40.70321954","-73.73426455","POINT (-73.73426455 40.70321954)"
"Q6623","BARS","KILDARE RD & SURREY PL","11432","Queens","QN08","24","40.72457137","-73.78680344","POINT (-73.78680344 40.72457137)"
"Q6813","BARS","113 AVE & 219 ST","11429","Queens","QN13","27","40.70408205","-73.73811825","POINT (-73.73811825 40.70408205)"
"R3078","BARS","SPRATT AVE & DURANT AVE","10306","Staten Island","SI03","51","40.55627411","-74.13174424","POINT (-74.13174424 40.55627411)"
"Q4497","BARS","45TH AVE & 149TH ST","11355","Queens","QN07","20","40.75604692","-73.81306995","POINT (-73.81306995 40.75604692)"
"R0897","BARS","ARLO RD & STRATFORD AVE","10301","Staten Island","SI01","49","40.61965424","-74.0946245","POINT (-74.0946245 40.61965424)"
"B1557","ERS","FLATBUSH AVE & REGENT PL","11226","Brooklyn","BK14","40","40.64651801","-73.95810672","POINT (-73.95810672 40.64651801)"
"B0694","ERS","MYRTLE AVE & THROOP AVE","11206","Brooklyn","BK03","36","40.69603085","-73.94352527","POINT (-73.94352527 40.69603085)"
"M0080","ERS","NASSAU ST & FULTON ST","10038","Manhattan","MN01","1","40.71022077","-74.00774467","POINT (-74.00774467 40.71022077)"
"X3973","ERS","KEPLER AVE & E 239 ST","10470","Bronx","BX12","11","40.8999468","-73.87109852","POINT (-73.87109852 40.8999468)"
"B2461","ERS","DITMAS AVE & E 19 ST","11226","Brooklyn","BK14","40","40.6387754","-73.96009053","POINT (-73.96009053 40.6387754)"
"Q6396","BARS","LITTLE NECK PWAY & BATES RD","11362","Queens","QN11","19","40.76849472","-73.72968233","POINT (-73.72968233 40.76849472)"
"X3783","ERS","FIELDSTON RD & W 246 ST","10471","Bronx","BX08","11","40.89353901","-73.90580491","POINT (-73.90580491 40.89353901)"
"Q1330","ERS","BEACH 86 ST & FREEWAY","11693","Queens","QN14","31","40.58894376","-73.81135772","POINT (-73.81135772 40.58894376)"
"Q5400","BARS","106 AVE & 227 ST","11429","Queens","QN13","27","40.70861209","-73.72878921","POINT (-73.72878921 40.70861209)"
"M0413","ERS","PITT ST & HOUSTON ST","10002","Manhattan","MN03","2","40.72070879","-73.98130824","POINT (-73.98130824 40.72070879)"
"Q0213","BARS","JFK - HANGER 6 S/E CORNER FED EXPRESS","11430","Queens","JFK","28","40.66005575","-73.78136483","POINT (-73.78136483 40.66005575)"
"Q4936","ERS","133 AVE & 125 ST","11420","Queens","QN10","28","40.67119596","-73.81389133","POINT (-73.81389133 40.67119596)"
"M0453","ERS","1 AVE & E 10 ST","10009","Manhattan","MN03","2","40.72876844","-73.98443161","POINT (-73.98443161 40.72876844)"
"Q4308","BARS","17 RD & CLINTONVILLE ST","11357","Queens","QN07","19","40.78296243","-73.80823641","POINT (-73.80823641 40.78296243)"
"R2368","ERS","RICHMOND AVE & AMSTERDAM PL/OVFD","10314","Staten Island","SI02","50","40.60048689","-74.16320322","POINT (-74.16320322 40.60048689)"
"M0995","ERS","COLUMBUS AVE & W 68 ST","10023","Manhattan","MN07","6","40.77485168","-73.98065976","POINT (-73.98065976 40.77485168)"
"M0225","ERS","E BROADWAY & JEFFERSON ST","10002","Manhattan","MN03","1","40.71418552","-73.98870253","POINT (-73.98870253 40.71418552)"
"M1413","ERS","RIVERSIDE DR & W 119 ST","10024","Manhattan","MN09","7","40.81073566","-73.96437577","POINT (-73.96437577 40.81073566)"
"M1273","ERS","MADISON AVE & E 101 ST","10029","Manhattan","MN11","8","40.79041877","-73.95183464","POINT (-73.95183464 40.79041877)"
"X2254","ERS","WALES AVE & E 151 ST","10455","Bronx","BX01","8","40.8147089","-73.90658384","POINT (-73.90658384 40.8147089)"
"R2638","BARS","MALDEN PL & PRIMROSE PL","10306","Staten Island","SI03","50","40.5620479","-74.11621912","POINT (-74.11621912 40.5620479)"
"Q7873","ERS","37 AVE & 75 ST","11372","Queens","QN03","25","40.74906071","-73.89081892","POINT (-73.89081892 40.74906071)"
"M1327","ERS","MADISON AVE & E 109 ST","10029","Manhattan","MN11","8","40.79554066","-73.94809544","POINT (-73.94809544 40.79554066)"
"B0712","ERS","PARK ST & BEAVER ST","11206","Brooklyn","BK04","34","40.70024914","-73.93772796","POINT (-73.93772796 40.70024914)"
"M0996","ERS","BROADWAY & W 68 ST","10023","Manhattan","MN07","6","40.77548698","-73.98216367","POINT (-73.98216367 40.77548698)"
"R1485","ERS","CAPODANNO BLVD & CROMWELL AVE","10305","Staten Island","SI02","50","40.57991639","-74.07735256","POINT (-74.07735256 40.57991639)"
"R0879","BARS","LONGVIEW RD & CEDAR TERR","10304","Staten Island","SI01","49","40.6120947","-74.08973222","POINT (-74.08973222 40.6120947)"
"Q1381","BARS","ROCKAWAY BEACH BLVD & BEACH 118 ST","11694","Queens","QN14","32","40.57923518","-73.83892954","POINT (-73.83892954 40.57923518)"
"M0451","ERS","AVENUE D & E 10 ST","10009","Manhattan","MN03","2","40.7248774","-73.97516417","POINT (-73.97516417 40.7248774)"
"Q6601","BARS","HILLSIDE AVE & 170 ST","11432","Queens","QN12","27","40.71106937","-73.79202855","POINT (-73.79202855 40.71106937)"
"B0185","BARS","GARDNER AVE & MASPETH AVE","11211","Brooklyn","BK01","34","40.71893488","-73.92841713","POINT (-73.92841713 40.71893488)"
"Q1365","BARS","BEACH CHANNEL DR & BEACH 108 ST","11694","Queens","QN14","32","40.58393346","-73.83092888","POINT (-73.83092888 40.58393346)"
"Q9303","BARS","NORTHERN BLVD & 127 ST","11368","Queens",,"21","40.761739","-73.84371658","POINT (-73.84371658 40.761739)"
"B3809","ERS","RICHARDS ST & SULLIVAN ST","11231","Brooklyn","BK06","38","40.67683437","-74.01079333","POINT (-74.01079333 40.67683437)"
"R2658","BARS","ISABELLA AVE & RIGA ST","10306","Staten Island","SI03","50","40.55865267","-74.1147669","POINT (-74.1147669 40.55865267)"
"R4534","BARS","NASSAU PL & ARTHUR KILL RD","10307","Staten Island","SI03","51","40.51872918","-74.24023846","POINT (-74.24023846 40.51872918)"
"Q5390","BARS","KEESEVILLE AVE & MAYVILLE ST","11412","Queens","QN12","27","40.69867828","-73.76615111","POINT (-73.76615111 40.69867828)"
"Q5065","ERS","110 RD & 167 ST","11433","Queens","QN12","27","40.69421059","-73.78522102","POINT (-73.78522102 40.69421059)"
"B4072","ERS","VAN SICLEN AV BET SCHOEDERS & VANDALIA AVE","11239","Brooklyn","BK05","42","40.65244795","-73.88090506","POINT (-73.88090506 40.65244795)"
"R1377","BARS","FISKE AVE & LEONARD AVE","10314","Staten Island","SI01","50","40.61762946","-74.13356815","POINT (-74.13356815 40.61762946)"
"X2974","ERS","E TREMONT AVE & SOUTHERN BLVD","10460","Bronx","BX06","17","40.84271041","-73.88565994","POINT (-73.88565994 40.84271041)"
"Q7939","ERS","B'WAY & ELMHURST AVE","11373","Queens","QN04","25","40.74195593","-73.88097007","POINT (-73.88097007 40.74195593)"
"M1343","ERS","MADISON AVE & E 111 ST","10029","Manhattan","MN11","9","40.79679715","-73.94717623","POINT (-73.94717623 40.79679715)"
"M0136","ERS","W BROADWAY & READE ST","10013","Manhattan","MN01","1","40.71601382","-74.00882328","POINT (-74.00882328 40.71601382)"
"Q3144","ERS","QUEENS BLVD & 70 AVE","11375","Queens","QN06","29","40.7218475","-73.84652305","POINT (-73.84652305 40.7218475)"
"B1990","ERS","JAMAICA AVE & MILLER AVE","11207","Brooklyn","BK05","37","40.68016138","-73.89318538","POINT (-73.89318538 40.68016138)"
"Q8945","ERS","152 AVE & 126 ST","11420","Queens","QN10","28","40.66379131","-73.81523453","POINT (-73.81523453 40.66379131)"
"R3252","BARS","WILSON AVE & NOTRE DAME AVE","10308","Staten Island","SI03","51","40.54907707","-74.15675182","POINT (-74.15675182 40.54907707)"
"X3651","ERS","WHITE PLAINS RD & E 219 ST","10467","Bronx","BX12","12","40.88357438","-73.86280342","POINT (-73.86280342 40.88357438)"
"Q9195","ERS","62 DR & 99 ST","11374","Queens","QN06","29","40.73366789","-73.85765183","POINT (-73.85765183 40.73366789)"
"Q7050","BARS","53 DR & 63 ST","11378","Queens","QN05","30","40.72934291","-73.90261846","POINT (-73.90261846 40.72934291)"
"Q6555","BARS","HOOVER AVE & 135 ST","11435","Queens","QN08","24","40.71360203","-73.82259801","POINT (-73.82259801 40.71360203)"
"R3051","BARS","EMMET & SOUTH RAILROAD AVES","10306","Staten Island","SI03","51","40.56036268","-74.13186704","POINT (-74.13186704 40.56036268)"
"Q6979","BARS","46 AVE & 220 ST","11364","Queens","QN11","23","40.75971471","-73.76125541","POINT (-73.76125541 40.75971471)"
"Q8947","ERS","150 AVE & 134 ST","11430","Queens","QN10","28","40.66385258","-73.80647434","POINT (-73.80647434 40.66385258)"
"Q4786","ERS","110 AVE & BREWER BLVD","11433","Queens","QN12","27","40.69339784","-73.78893104","POINT (-73.78893104 40.69339784)"
"Q6044","BARS","40 AVE & MORGAN ST","11363","Queens","QN11","19","40.77431082","-73.7395852","POINT (-73.7395852 40.77431082)"
"Q8887","ERS","ROCKAWAY BLVD & 142 ST","11436","Queens","QN12","28","40.67425599","-73.79898974","POINT (-73.79898974 40.67425599)"
"M1424","ERS","PLEASANT AVE & E 119 ST","10035","Manhattan","MN11","8","40.79698743","-73.93174315","POINT (-73.93174315 40.79698743)"
"B2184","ERS","AVENUE M & E 104 ST","11236","Brooklyn","BK18","46","40.64050165","-73.88812747","POINT (-73.88812747 40.64050165)"
"B0655","ERS","GREENE AVE & CLASSON AVE","11238","Brooklyn","BK03","35","40.68741563","-73.95971375","POINT (-73.95971375 40.68741563)"
"M1541","ERS","AMSTERDAM AVE & W 132 ST","10027","Manhattan","MN09","9","40.81696524","-73.95364428","POINT (-73.95364428 40.81696524)"
"M2019","ERS","W THAMES ST & BATTERY PL","10280","Manhattan","MN01","1","40.70813393","-74.01662579","POINT (-74.01662579 40.70813393)"
"B2676","ERS","2 AVE & 58 ST","11220","Brooklyn","BK07","38","40.64459805","-74.02159803","POINT (-74.02159803 40.64459805)"
"M0264","ERS","SUFFOLK ST & BROOME ST","10002","Manhattan","MN03","1","40.71715657","-73.98704017","POINT (-73.98704017 40.71715657)"
"Q7291","ERS","QUEENS BLVD & 48 ST","11104","Queens","QN02","26","40.74318389","-73.91667041","POINT (-73.91667041 40.74318389)"
"R3785","ERS","LISA LA & EBEY LA","10312","Staten Island","SI03","51","40.54892172","-74.1965295","POINT (-74.1965295 40.54892172)"
"Q8628","ERS","LINDEN BLVD & BEDELL ST","11434","Queens","QN12","28","40.68843485","-73.7876421","POINT (-73.7876421 40.68843485)"
"B1415","ERS","3 AVE & 37 ST","11232","Brooklyn","BK07","38","40.65487207","-74.00672309","POINT (-74.00672309 40.65487207)"
"Q9611","ERS","JAMAICA AVE & 104 ST","11418","Queens","QN09","32","40.69527439","-73.84304344","POINT (-73.84304344 40.69527439)"
