"origid","name","address","borough","zipcode","facility_type","latitude","longitude","community_board","council_district","census_tract","bin","bbl","nta"
"52-3106-01","NYC Department of Education","65 COURT ST","BROOKLYN","11201","Radioactive Materials","40.692012","-73.991227","302","33","36047000900","3002557","3002660020","BK09"
"40540850","GREENSPAN BRIAN DDS","1655 55 STREET","BROOKLYN","11204","Dental X-Ray","40.626889","-73.987687","312","44","36047047000","3130500","3054850065","BK88"
"50034527","BRIAN GREENSPAN DDS PC","1655 55TH ST","BROOKLYN","11204","Dental CBCT X-Ray","40.626889","-73.987687","312","44","36047047000","3130500","3054850065","BK88"
"50074073","NYU SCHOOL OF MEDICINE","1300 AVENUE P","BROOKLYN","11229","Hospital X-Ray","40.609958","-73.960260","315","48","36047055400","3182372","3067760001","BK25"
"40498136","KRIETCHMAN RAYMOND S. DD","1302 81 ST ST.","BROOKLYN","11228","Dental X-Ray","40.616681","-74.010604","310","43","36047015000","3163596","3062920006","BK30"
"50079268","NYU SCHOOL OF MEDICINE/ENVIRONMENTAL PEDIATRICS","5610 2ND AVE RM 113","BROOKLYN","11220","Non-Hospital X-Ray","40.645615","-74.020554","307","38","36047002200","3398930","3008360030","BK32"
"40501918","DOUECK JACQUES DDS","563 KINGS HIGHWAY","BROOKLYN","11223","Dental X-Ray","40.604721","-73.968546","315","44","36047042200","3177382","3066610042","BK25"
"40500516","HIRSCH J. & SCHWARTZ R","2348 RALPH AVE","BROOKLYN","11234","Dental X-Ray","40.620582","-73.917384","318","46","36047069000","3336930","3078840065","BK58"
"50091685","SKYLINE DENTAL PARTNERS PLLC","2348 RALPH AVE","BROOKLYN","11234","Dental X-Ray","40.620582","-73.917384","318","46","36047069000","3336930","3078840065","BK58"
"50046422","LENOX HILL RADIOLOGY & MEDICAL IMAGINE ASSOCIATES PC","1014 BROOKLYN AVE","BROOKLYN","11203","Non-Hospital X-Ray","40.648886","-73.943573","317","45","36047085600","3110192","3049060013","BK91"
"41037046","CHARNOFF DANIEL - MD & W","2985 QUENTIN ROAD","BROOKLYN","11229","Non-Hospital X-Ray","40.611402","-73.941819","318","46","36047064400","3212048","3077020009","BK45"
"41217328","ROSENKRANZ ROBERT - DDS P","300 8 AVENUE","BROOKLYN","11215","Dental X-Ray","40.669288","-73.976284","306","39","36047015500","3025434","3010800035","BK37"
"50079147","ROBERT ROSENKRANZ DDS PC","300 8TH AVE BSMT","BROOKLYN","11215","Dental CBCT X-Ray","40.669288","-73.976284","306","39","36047015500","3025434","3010800035","BK37"
"40497484","BRUCE J LISH DDS PLLC","7224 AVENUE T","BROOKLYN","11234","Dental X-Ray","40.621920","-73.908154","318","46","36047070000","3237406","3084130041","BK45"
"50086514","CITY MEDICAL OF UPPER EAST SIDE PLLC","874 FLATBUSH AVE","BROOKLYN","11226","Non-Hospital X-Ray","40.650797","-73.958827","314","40","36047050801","3116592","3050820047","BK42"
"40608123","BAKMAN VALENTIN - DDS","1505 GRAVESAND NECK ROAD","BROOKLYN","11229","Dental X-Ray","40.594896","-73.955462","315","48","36047058600","3200794","3073760059","BK17"
"50058220","SUNSET PARK HEALTH COUNCIL INC","309 47TH ST","BROOKLYN","11220","Dental X-Ray","40.649042","-74.012289","307","38","36047008000","3011821","3007550022","BK32"
"41595579","JOSEPH ADDABBO FAMILY HEALTH CENTER INC.","120 RICHARDS STREET 2ND FLOOR","BROOKLYN","11231","Dental X-Ray","40.677824","-74.009644","306","38","36047005300","3008506","3005460033","BK33"
"40957890","DR. JOHNSON ALPHEIA","999 FULTON STREET","BROOKLYN","11238","Dental X-Ray","40.682663","-73.962935","302","35","36047020100","3056736","3019800161","BK69"
"50081746","LIFE VETERINARY CLINIC PC","1087 FLUSHING AVE","BROOKLYN","11237","Veterinary X-Ray","40.704819","-73.928504","301","34","36047045300","3070752","3030140014","BK77"
"41608252","SARJI JIM - DDS","443 9 STREET","BROOKLYN","11215","Dental X-Ray","40.666657","-73.981079","306","39","36047015300","3025917","3010900072","BK37"
"41149104","FRIEDMAN ALAN - DDS","3103 AVENUE N 1ST FLOOR","BROOKLYN","11210","Dental X-Ray","40.617346","-73.943935","318","45","36047074600","3210382","3076670008","BK58"
"41118571","KANEVSKY ALEXANDER - DDS","312 NEPTUNE AVENUE","BROOKLYN","11235","Dental X-Ray","40.580983","-73.964515","313","48","36047036400","3244401","3086647504","BK19"
"40609821","DEBOCK MARK S. - DDS","7500 4 AVENUE","BROOKLYN","11209","Dental X-Ray","40.630724","-74.025136","310","43","36047006600","3148731","3059400038","BK31"
"40506752","GREENSPAN HOWARD DC","2692 FORD ST","BROOKLYN","11235","Non-Hospital X-Ray","40.587843","-73.935665","315","48","36047059800","3205652","3074780052","BK17"
"40501927","KENNETH MARCUS - DDS","1750 OCEAN PARKWAY","BROOKLYN","11223","Dental X-Ray","40.605912","-73.967019","315","44","36047042200","3177428","3066620033","BK25"
"40913606","SZCZUPAKIEWICZ JOSEPH - DMD","1530 54 STREET 1ST FLOOR","BROOKLYN","11219","Dental X-Ray","40.629162","-73.989751","312","44","36047023800","3130428","3054840023","BK88"
"41602135","KORNGOLD MICHAEL - DDS","1801 AVENUE M","BROOKLYN","11230","Dental X-Ray","40.618340","-73.957121","314","44","36047053800","3180710","3067380049","BK43"
"40584459","ESKENAZI ELLIOT - DDS","2904 AVENUE X","BROOKLYN","11235","Dental X-Ray","40.593712","-73.941370","315","48","36047059402","3203600","3074221001","BK17"
"40649981","ABELLARD BEAUVOIR - DDS","47 EAST 32 STREET","BROOKLYN","11226","Dental X-Ray","40.649788","-73.947530","317","40","36047082400","3109354","3048860051","BK95"
"40501150","SUSSMAN STANLEY DDS","1802 55 STREET","BROOKLYN","11204","Dental X-Ray","40.624662","-73.984038","312","44","36047046800","3130884","3054940032","BK88"
"50036883","NORTH BROOKLYN DENTAL CARE","169 KENT ST","BROOKLYN","11222","Non-Hospital X-Ray","40.730976","-73.953755","301","33","36047057500","3064648","3025510058","BK76"
"50081490","BRYAN STIMMLER","169 KENT ST","BROOKLYN","11222","Dental CBCT X-Ray","40.730976","-73.953755","301","33","36047057500","3064648","3025510058","BK76"
"40505696","DIXIT CHAITANYA DPM","2235 WEST 9 STREET","BROOKLYN","11223","Podiatric X-Ray","40.593851","-73.979919","315","47","36047038600","3193240","3071420027","BK26"
"41439368","LANGROODI HOUMAN - DDS","2233 WEST 9 STREET","BROOKLYN","11223","Dental X-Ray","40.593860","-73.979919","315","47","36047038600","3193240","3071420027","BK26"
"41127138","KHODOSH ALBERT - D.D.S.","2085 EAST 27 STREET","BROOKLYN","11229","Dental X-Ray","40.600367","-73.944778","315","46","36047057400","3198787","3073320055","BK44"
"41142644","SOKOL JOEL L. - DMD","636 74 STREET","BROOKLYN","11209","Dental X-Ray","40.628255","-74.018986","310","43","36047013400","3148441","3059320023","BK31"
"41590528","SAM FISCH","919 2 AVENUE","NEW YORK","10017","Non-Hospital X-Ray","40.754119","-73.969086","106","4","36061009000","1038040","1013227502","MN19"
"40807400","LIKHOLETOVA TAMARA - D.D.S.","3051 OCEAN AVENUE","BROOKLYN","11235","Dental X-Ray","40.586881","-73.949026","315","48","36047060000","3205067","3074650040","BK17"
"41386871","ERACLEOUS VASOS - DDS","2584 EAST 19 STREET","BROOKLYN","11235","Dental X-Ray","40.588913","-73.950652","315","48","36047059200","3204121","3074390144","BK17"
"40635369","BOULOS ADLY - DDS","3123 CONEY ISLAND AVE","BROOKLYN","11235","Dental X-Ray","40.579823","-73.959770","313","48","36047061003","3245305","3087060049","BK19"
"50016023","PETER A. COSTALOS DMD PC","466 BAY RIDGE PKWY FL 1","BROOKLYN","11209","Dental X-Ray","40.630000","-74.023507","310","43","36047013400","3148775","3059410034","BK31"
"40500124","VOGEL MARK DDS","3502 KINGS HIGHWAY STE A9","BROOKLYN","11234","Dental X-Ray","40.620558","-73.940698","318","45","36047073800","3209847","3076530001","BK58"
"50061252","SUNSET PARK HEALTH COUNCIL INC","427 38TH ST FL 3","BROOKLYN","11232","Dental X-Ray","40.652701","-74.004743","307","38","36047008400","3346119","3007010001","BK32"
"40602679","KURLAND HOWARD J. - DDS","717 WYTHE AVENUE","BROOKLYN","11249","Dental X-Ray","40.701038","-73.960750","301","33","36047053700","3060475","3022107503","BK72"
"40497125","BERNARD N. DD GRAYSON","1951 FLATBUSH AVE","BROOKLYN","11234","Dental X-Ray","40.622118","-73.936323","318","45","36047073600","3217250","3078200052","BK58"
"50041283","CITY MEDICAL OF UPPER EAST SIDE PLLC","2175 86TH ST","BROOKLYN","11214","Non-Hospital X-Ray","40.602225","-73.994245","311","47","36047029000","3165897","3063470043","BK28"
"40537089","OSKOTSKAYA YELENA-D.D.S","7101 4 AVENUE","BROOKLYN","11209","Dental X-Ray","40.633593","-74.023927","310","43","36047013000","3146596","3058920006","BK31"
"41554125","DR. RAFLA DEMETRIOU","8715 5 AVENUE","BROOKLYN","11209","Non-Hospital X-Ray","40.620713","-74.026876","310","43","36047016000","3153766","3060510001","BK31"
"77-0000046","Leading Edge Radiation Oncology Services (LEROS)","8715 FIFTH AVENUE","BROOKLYN","11209","Linear Accelerator","40.620713","-74.026876","310","43","36047016000","3153766","3060510001","BK31"
"91-3241-01","Sameer Rafla M.D.","8715 FIFTH AVE","BROOKLYN","11209","Radioactive Materials","40.620713","-74.026876","310","43","36047016000","3153766","3060510001","BK31"
"40500964","LAWRENCE & TURE NALITT","820 BROADWAY","BROOKLYN","11206","Dental X-Ray","40.699327","-73.939466","303","36","36047028501","3329565","3015790022","BK78"
"50068680","UP DENTAL PLLC","1916 KINGS HWY FL 2","BROOKLYN","11229","Dental X-Ray","40.610362","-73.954386","315","48","36047055000","3182549","3067820074","BK44"
"50092923","BROOKLYN OAK DENTAL CARE PC","319 6TH AVE","BROOKLYN","11215","Dental X-Ray","40.671880","-73.980721","306","39","36047015500","3020982","3009760001","BK37"
"41191389","ZHANG H.- MD HE F.-","833 58 STREET FLOOR 1","BROOKLYN","11220","Non-Hospital X-Ray","40.636139","-74.007534","312","38","36047010400","3140215","3056930064","BK34"
"91-3250-01","Paul Lee M.D.","833 58TH STREET","BROOKLYN","11220","Radioactive Materials","40.636139","-74.007534","312","38","36047010400","3140215","3056930064","BK34"
"41224034","MCDONALD MARJORIE - DDS","1908 FLATBUSH AVENUE","BROOKLYN","11210","Dental X-Ray","40.623178","-73.937471","318","45","36047073800","3217009","3078100036","BK58"
"41087026","CHAVKIN ROSS - DDS","372 86 STREET","BROOKLYN","11209","Dental X-Ray","40.622925","-74.028898","310","43","36047006000","3153490","3060440037","BK31"
"50092324","COSMOPOLITAN DENTAL PC.","372 86TH ST APT 1","BROOKLYN","11209","Dental CBCT X-Ray","40.622925","-74.028898","310","43","36047006000","3153490","3060440037","BK31"
"50092325","COSMOPOLITAN DENTAL PC","372 86TH ST","BROOKLYN","11209","Dental X-Ray","40.622925","-74.028898","310","43","36047006000","3153490","3060440037","BK31"
"40506132","DARREN FITZPATRICK MD","3201 KINGS HWY","BROOKLYN","11234","Hospital X-Ray","40.617911","-73.943009","318","45","36047074600","3210431","3076680024","BK58"
"91-3022-01","Mount Sinai Brooklyn","3201 KINGS HIGHWAY","BROOKLYN","11234","Radioactive Materials","40.617911","-73.943009","318","45","36047074600","3210431","3076680024","BK58"
"40503502","MIKHAIL PLOSKIN - DDS","6723 19th Ave","BROOKLYN","11204","Dental X-Ray","40.616511","-73.989439","311","47","36047025600","3134704","3055700001","BK28"
"40501530","GRAZIANO ROBERT DDS","302 95 STREET","BROOKLYN","11209","Dental X-Ray","40.617006","-74.033199","310","43","36047005400","3155577","3061170005","BK31"
"40495208","AHMED SHAHED-MD","2102 KINGS HIGHWAY","BROOKLYN","11229","Non-Hospital X-Ray","40.611001","-73.952411","315","48","36047055000","3182578","3067840001","BK44"
"40536428","MORGERA FRANK-D.C.","337 COURT STREET","BROOKLYN","11231","Non-Hospital X-Ray","40.682652","-73.995745","306","39","36047007500","3007005","3004280004","BK33"
"40586064","KAGANOVSKY LAZAR Y. - M.D.","2700 OCEAN AVE","BROOKLYN","11229","Non-Hospital X-Ray","40.595662","-73.950712","315","48","36047059200","3200952","3073800040","BK17"
"41700938","LAM WAN C. - DDS P","828 55 STREET","BROOKLYN","11220","Dental X-Ray","40.637844","-74.005859","312","38","36047010600","3139498","3056790018","BK34"
"40502587","LERNER B. & GAMSS A.","777 MONTGOMERY ST","BROOKLYN","11213","Dental X-Ray","40.664749","-73.938860","309","35","36047033300","3038208","3014170087","BK63"
"41634474","FREYBERG ILYA - DDS","789 FLATBUSH AVENUE","BROOKLYN","11226","Dental X-Ray","40.653405","-73.959409","314","40","36047079602","3116606","3050830016","BK60"
"50072211","CHINAR MAHADKAR","789 FLATBUSH AVE OFC","BROOKLYN","11226","Dental X-Ray","40.653405","-73.959409","314","40","36047079602","3116606","3050830016","BK60"
"50003526","PM PEDIATRICS","240 ATLANTIC AVE","BROOKLYN","11201","Non-Hospital X-Ray","40.689305","-73.991234","302","33","36047004300","3424484","3002787501","BK38"
"50064579","A CARING DOCTOR (MINNESOTA) P.A.","238 ATLANTIC AVE","BROOKLYN","11201","Veterinary X-Ray","40.689322","-73.991288","302","33","36047004300","3424484","3002787501","BK38"
"41052776","KUGELEV MIKHAIL - DDS","1580 DAHILL ROAD","BROOKLYN","11204","Dental X-Ray","40.609347","-73.974170","311","44","36047043400","3253559","3066060015","BK29"
"50087232","ALWAYS SMILE DENTAL PLLC","1580 DAHILL RD STE 1","BROOKLYN","11204","Dental X-Ray","40.609347","-73.974170","311","44","36047043400","3253559","3066060015","BK29"
"41677680","KENNY H. - DDS HO","816 59 STREET","BROOKLYN","11220","Dental X-Ray","40.635716","-74.008377","312","38","36047010400","3140848","3057070013","BK34"
"50088662","PROHEALTH CARE ASSOCIATES LLP","1783 STILLWELL AVE","BROOKLYN","11223","Non-Hospital X-Ray","40.602960","-73.986434","311","44","36047040400","3176370","3066430055","BK29"
"91-3725-01","Shahrokh Abiri M.D.","1783 STILLWELL AVENUE","BROOKLYN","11214","Radioactive Materials","40.602960","-73.986434","311","44","36047040400","3176370","3066430055","BK29"
"40984754","MITTAL SURESH C. - DDS","153 4 AVENUE","BROOKLYN","11217","Dental X-Ray","40.679171","-73.981840","306","39","36047013100","3019322","3009460009","BK37"
"50056641","QUENTIN SMILE DENTAL SERVICES P.C.","2148 OCEAN AVE STE 401","BROOKLYN","11229","Dental X-Ray","40.609489","-73.953331","315","48","36047055000","3413743","3067820038","BK44"
"50066950","QUENTIN SMILE DENTAL SERVICES P.C.","2148 OCEAN AVE STE 401","BROOKLYN","11229","Dental CBCT X-Ray","40.609489","-73.953331","315","48","36047055000","3413743","3067820038","BK44"
"50082805","MARIO VOLOSHIN","2148 OCEAN AVE","BROOKLYN","11229","Podiatric X-Ray","40.609489","-73.953331","315","48","36047055000","3413743","3067820038","BK44"
"40736174","BRONSTEIN TATIANA - DDS","1714 BATH AVENUE","BROOKLYN","11214","Dental X-Ray","40.604961","-74.007963","311","43","36047017600","3168562","3064330036","BK27"
"41240364","HALPERT NANDOR - DDS","2811 OCEAN AVENUE SUITE 2","BROOKLYN","11229","Dental X-Ray","40.593074","-73.950203","315","48","36047059401","3202165","3074050038","BK17"
"50048759","ITNY DENTAL PC","163 8TH ST","BROOKLYN","11215","Dental X-Ray","40.671799","-73.989942","306","39","36047012100","3330546","3009970001","BK37"
"40508344","NORWEGIAN CHRISTIAN HOME","1270 67 STREET","BROOKLYN","11219","Dental X-Ray","40.625281","-74.003505","310","43","36047019600","3330934","3057670028","BK30"
"40955892","JOHNSON CLAYTON - DDS","910 PARK PL APT 1B SUITE 1B","BROOKLYN","11216","Dental X-Ray","40.673289","-73.947861","308","36","36047031701","3031550","3012417501","BK61"
"41705929","JOHNSON GOLDA O. - MD","910 PARK PLACE SUITE 1B","BROOKLYN","11216","Non-Hospital X-Ray","40.673289","-73.947861","308","36","36047031701","3031550","3012417501","BK61"
"40505433","ROSEN ALAN DPM","5402 FLATLANDS AVENUE","BROOKLYN","11234","Podiatric X-Ray","40.628654","-73.923852","318","46","36047072000","3336786","3077800005","BK58"
"40725631","VISINTINI FRANK - DDS","7710 4 AVENUE","BROOKLYN","11209","Dental X-Ray","40.629220","-74.025737","310","43","36047006400","3149797","3059600043","BK31"
"50054845","JAKE WONG DDS PC","8684 15TH AVE","BROOKLYN","11228","Dental X-Ray","40.609759","-74.011241","311","43","36047017000","3166134","3063590070","BK27"
"40812967","GELMAN YEVGENIYA - D.D","7601 3RD AVE","BROOKLYN","11209","Dental X-Ray","40.630641","-74.028116","310","43","36047006400","3149191","3059500011","BK31"
"40706700","ELIAV IGOR D.D.S.","203 NASSAU AVE","BROOKLYN","11222","Dental X-Ray","40.725600","-73.944735","301","33","36047058900","3066437","3026540031","BK76"
"50073968","GARRY SHNAYDER","1512 AVENUE Z","BROOKLYN","11235","Dental X-Ray","40.588000","-73.953962","315","48","36047059000","3204953","3074600006","BK17"
"50073973","GARRY SHNAYDER","1512 AVENUE Z","BROOKLYN","11235","Dental CBCT X-Ray","40.588000","-73.953962","315","48","36047059000","3204953","3074600006","BK17"
"41515604","MARINE PARK DENTAL","2865 NOSTRAND AVENUE","BROOKLYN","11229","Dental X-Ray","40.614541","-73.944514","318","45","36047064400","3211327","3076910030","BK45"
"40496125","IRWIN DDS GOLDSCHEIN","4901 FORT HAMILTON PARKWAY","BROOKLYN","11219","Dental X-Ray","40.638294","-73.997759","312","44","36047022000","3137614","3056390040","BK88"
"40505663","ESPOSITO ANTHONY DPM","2305 AVENUE U","BROOKLYN","11229","Podiatric X-Ray","40.599726","-73.948358","315","48","36047057600","3198518","3073280050","BK44"
"50037944","QIAO GUO","5417 5TH AVE","BROOKLYN","11220","Dental X-Ray","40.642712","-74.012796","307","38","36047010000","3014643","3008240003","BK34"
"41317067","WALTNER JONATHAN - DDS","390 BERRY STREET","BROOKLYN","11249","Dental X-Ray","40.710035","-73.965589","301","33","36047054900","3059507","3021300021","BK73"
"40503242","MARINA HOROWITZ DDS","300 OCEAN PARKWAY","BROOKLYN","11218","Dental X-Ray","40.642087","-73.973876","312","39","36047049400","3125450","3053570030","BK41"
"40504020","GOLDFARB A. & KAUDERER C. DDS/DPM","7713 13 AVENUE","BROOKLYN","11228","Dental X-Ray","40.619006","-74.008767","310","43","36047019800","3161194","3062440005","BK30"
"40571711","KREYMAN ZAKHAR DDS","2001 AVENUE P SUITE A2","BROOKLYN","11229","Dental X-Ray","40.610982","-73.953452","314","48","36047054600","3182092","3067670052","BK43"
"41736428","UVAYDOV IOSIF - DDS","2001 AVENUE P","BROOKLYN","11229","Dental X-Ray","40.610982","-73.953452","314","48","36047054600","3182092","3067670052","BK43"
"50008176","MARINE PARK VETERINARY GROUP PC","6315 AVENUE N","BROOKLYN","11234","Veterinary X-Ray","40.619602","-73.916543","318","46","36047069602","3396632","3083630005","BK45"
"40575378","JOHN VALENTINO","472 BAY RIDGE PKWY","BROOKLYN","11209","Dental X-Ray","40.629942","-74.023410","310","43","36047013400","3148777","3059410036","BK31"
"50034242","SHAMIS CHIROPRACTIC PC","2409 AVENUE Z","BROOKLYN","11235","Non-Hospital X-Ray","40.588965","-73.945334","315","48","36047059401","3425904","3074417501","BK17"
"40499273","LUTWAK ELLIS DDS","207 OCEAN PARKWAY","BROOKLYN","11218","Dental X-Ray","40.644632","-73.974354","312","39","36047049400","3347526","3053390001","BK41"
"40501267","VAYNSHTEYN SOFYA & BLINSHT","207 OCEAN PARKWAY","BROOKLYN","11218","Dental X-Ray","40.644632","-73.974354","312","39","36047049400","3347526","3053390001","BK41"
"41235062","ALAN S. BRONER - DDS","773 MONTGOMERY STREET","BROOKLYN","11213","Dental X-Ray","40.664754","-73.938953","309","35","36047033300","3038211","3014170089","BK63"
"41644946","KFG OPERATING I LLC","155 DEAN STREET","BROOKLYN","11217","Dental X-Ray","40.686258","-73.987203","302","33","36047004100","3392440","3001890001","BK38"
"40502258","ALLAN LEBOVITZ - DDS","1490 OCEAN AVENUE","BROOKLYN","11230","Dental X-Ray","40.626121","-73.956479","314","45","36047076200","3179781","3067120001","BK43"
"40502307","EINHORN JACK DDS","1929 AVENUE J","BROOKLYN","11230","Dental X-Ray","40.625652","-73.957178","314","45","36047076200","3179781","3067120001","BK43"
"50053604","HOWARD BERGER","2095 FLATBUSH AVE","BROOKLYN","11234","Non-Hospital X-Ray","40.618690","-73.932548","318","45","36047065000","3219627","3078690001","BK58"
"91-3151-01","David Rosenthal M.D.","2095 FLATBUSH AVE.","BROOKLYN","11234","Radioactive Materials","40.618690","-73.932548","318","45","36047065000","3219627","3078690001","BK58"
"40504479","MOLLICA RAYMOND DPM","8223 14 AVENUE","BROOKLYN","11228","Podiatric X-Ray","40.614839","-74.009512","311","43","36047018400","3164068","3063040001","BK28"
"40498785","STERN WILLIAM - DDS","1607 55 STREET","BROOKLYN","11204","Dental X-Ray","40.627397","-73.988530","312","44","36047047000","3130515","3054850084","BK88"
"50090913","WILLIAM STERN","1607 55TH ST","BROOKLYN","11204","Dental CBCT X-Ray","40.627397","-73.988530","312","44","36047047000","3130515","3054850084","BK88"
"41633620","PATRICIA FERNANDEZ CEO","1456 FULTON STREET","BROOKLYN","11216","Dental X-Ray","40.679998","-73.942458","303","36","36047027100","3399697","3018630160","BK61"
"50033745","MULTICARE MEDICAL NY PLLC","1009 BRIGHTON BEACH AVE","BROOKLYN","11235","Non-Hospital X-Ray","40.578058","-73.959372","313","48","36047061004","3245413","3087070452","BK19"
"41549228","PAUL MARKEL","81 WILLOUGHBY STREET","BROOKLYN","11201","Dental X-Ray","40.692184","-73.985753","302","33","36047001100","3000350","3001480046","BK38"
"41735438","RASKIN SIMON - DPM PC","491 FLUSHING AVENUE","BROOKLYN","11205","Podiatric X-Ray","40.699167","-73.955475","301","33","36047053100","3061401","3022630074","BK75"
"50053925","MICHAEL CARAMICO","415 BAY RIDGE PKWY","BROOKLYN","11209","Dental X-Ray","40.630521","-74.024336","310","43","36047013400","3148354","3059300084","BK31"
"41350018","EZRA MEDICAL CENTER","1312 38 STREET","BROOKLYN","11218","Non-Hospital X-Ray","40.640868","-73.985194","312","39","36047022600","3123349","3052990011","BK88"
"41424122","LREFUAH MEDICAL & DIAGN","1312 38 STREET","BROOKLYN","11218","Non-Hospital X-Ray","40.640868","-73.985194","312","39","36047022600","3123349","3052990011","BK88"
"41645860","L'REFUAH MEDICAL & REHAB","1312 38 STREET","BROOKLYN","11218","Non-Hospital X-Ray","40.640868","-73.985194","312","39","36047022600","3123349","3052990011","BK88"
"40504385","HORN STEVEN DPM","704 KINGS HIGHWAY","BROOKLYN","11223","Podiatric X-Ray","40.606178","-73.965459","315","44","36047041800","3177515","3066640051","BK25"
"50006144","OCEANSIDE ANIMAL CLINIC","704 KINGS HWY BSMT 1","BROOKLYN","11223","Veterinary X-Ray","40.606178","-73.965459","315","44","36047041800","3177515","3066640051","BK25"
"50073446","DAVID WALTUCH","1475 48TH ST DEPT 1","BROOKLYN","11219","Dental X-Ray","40.633361","-73.987833","312","44","36047023400","3137287","3056300048","BK88"
"40505978","JACOBSON LINDA DVM","291 KINGS HIGHWAY","BROOKLYN","11223","Veterinary X-Ray","40.605143","-73.979746","311","44","36047042600","3176813","3066500016","BK29"
"40499725","CHOKSHI DIVAKAR D.D.S.","73 EASTERN PARKWAY","BROOKLYN","11238","Dental X-Ray","40.672739","-73.966257","308","35","36047021500","3029633","3011790083","BK64"
"40497388","ALBANO JOSEPH & JOHN","2001 EAST 55 STREET","BROOKLYN","11234","Dental X-Ray","40.613232","-73.921471","318","46","36047067000","3242191","3085470043","BK45"
"41668768","VAYSMAN YELENA - DDS","1201 OCEAN PARKWAY","BRROKLYN","11230","Dental X-Ray","40.619041","-73.969487","312","44","36047045200","3171753","3065420001","BK46"
"50036092","NEW YORK-PRESBYTERIAN/BROOKLYN METHODIST","50 COURT ST STE 600","BROOKLYN","11201","Non-Hospital X-Ray","40.692314","-73.991100","302","33","36047000900","3002549","3002650043","BK09"
"91-3696-01","Ozgen Dogan M.D.","50 COURT ST.","BROOKLYN","11201","Radioactive Materials","40.692314","-73.991100","302","33","36047000900","3002549","3002650043","BK09"
"40502336","LIBIN LIANA DDS","1513 VOORHIES AVE","BROOKLYN","11235","Dental X-Ray","40.585752","-73.953672","315","48","36047060600","3204938","3074590061","BK17"
"41749640","CHAPMAN KENNETH - MD","1513 VOORHIES AVENUE","BROOKLYN","11235","Non-Hospital X-Ray","40.585752","-73.953672","315","48","36047060600","3204938","3074590061","BK17"
"50046413","LENOX HILL RADIOLOGY & MEDICAL ASSOCIATES PC","3245 NOSTRAND AVE","BROOKLYN","11229","Dental CBCT X-Ray","40.604716","-73.942689","315","46","36047056600","3256875","3073090001","BK44"
"41700933","MACDERMOTT MARTIN C. - DDS","120 MONTAGUE STREET","BROOKLYN","11201","Dental X-Ray","40.694894","-73.994699","302","33","36047000501","3002065","3002480034","BK09"
"41683093","BRAYLOVSKAYA MARIYA - DDS","2250 86 STREET","BROOKLYN","11214","Dental X-Ray","40.601151","-73.992542","311","47","36047029600","3167143","3063820045","BK28"
"41693057","SAPIENZA THOMAS M - DDS","7505 FORT HAMILTON PARKWAY","BROOKLYN","11228","Dental X-Ray","40.625681","-74.016618","310","43","36047020600","3148931","3059450008","BK30"
"50083246","SUNSET PARK HEALTH COUNCIL INC PS92","601 PARKSIDE AVE","BROOKLYN","11226","Dental X-Ray","40.656046","-73.953742","309","40","36047080200","3115866","3050490055","BK60"
"50079506","BRIGHT SKY DENTAL PC","1152 BROADWAY","BROOKLYN","11221","Dental X-Ray","40.693121","-73.928445","303","36","36047028900","3043494","3016080027","BK35"
"40505586","TARTACK IRA DPM","2650 OCEAN PARKWAY","BROOKLYN","11235","Podiatric X-Ray","40.585466","-73.966438","313","47","36047037401","3196066","3072380115","BK26"
"50017237","OLEG KRUGLYANSKY DDS PC","2650 OCEAN PKWY APT 1M","BROOKLYN","11235","Dental X-Ray","40.585466","-73.966438","313","47","36047037401","3196066","3072380115","BK26"
"40502464","ROYZMAN Z. & POZNYANSKY","8100 19 AVENUE","BROOKLYN","11214","Dental X-Ray","40.608697","-73.997601","311","47","36047027800","3163821","3062960038","BK28"
"40501439","LEV J. & ROSEN J","4401 AVENUE D","BROOKLYN","11203","Dental X-Ray","40.641800","-73.934996","317","45","36047083800","3112156","3049610051","BK91"
"40717290","NIRENSTEIN J. & LEKHT A.","2841 BRAGG STREET","BROOKLYN","11235","Dental X-Ray","40.584682","-73.933079","315","48","36047062200","3247938","3088070142","BK17"
"40501915","SORKIN MILA - DDS","2667 CONEY ISLAND AVE","BROOKLYN","11223","Dental X-Ray","40.591705","-73.960678","315","48","36047058400","3201703","3073950032","BK25"
"40506247","INTERFAITH MEDICAL CENTER","1545 ATLANTIC AVENUE RADIOLOGY","BROOKLYN","11213","Hospital X-Ray","40.677788","-73.937041","303","36","36047027100","3048072","3017050001","BK61"
"50038156","SMILE BROOKLYN DENTAL PC","1545 ATLANTIC AVE","BROOKLYN","11213","Dental X-Ray","40.677788","-73.937041","303","36","36047027100","3048072","3017050001","BK61"
"50038159","SMILE BROOKLYN DENTAL PC","1545 ATLANTIC AVE","BROOKLYN","11213","Dental CBCT X-Ray","40.677788","-73.937041","303","36","36047027100","3048072","3017050001","BK61"
"91-2945-01","Interfaith Medical Center","1545 ATLANTIC AVENUE","BROOKLYN","11213","Radioactive Materials","40.677788","-73.937041","303","36","36047027100","3048072","3017050001","BK61"
"40846688","INTERFAITH MEDICAL CENTER(","528 PROSPECT PLACE","BROOKLYN","11238","Non-Hospital X-Ray","40.675572","-73.958927","308","35","36047030500","3393245","3011630010","BK61"
"41380931","ZWEIHORN CHANINAH - DDS","4119 13 AVENUE","BROOKLYN","11219","Dental X-Ray","40.639345","-73.987612","312","39","36047023200","3135716","3055940003","BK88"
"40503050","STEINBERG DANIEL DMD","405 AVENUE I","BROOKLYN","11230","Dental X-Ray","40.626346","-73.973057","312","44","36047046201","3170447","3065070025","BK42"
"50091549","SUNSET PARK HEALTH COUNCIL INC","850 KENT AVE","BROOKLYN","11205","Dental X-Ray","40.695417","-73.959571","303","33","36047123700","3054671","3018970013","BK75"
"41113252","UCHITELEV VSEVOLOD - DDS","907 ST MARKS AVENUE","BROOKLYN","11213","Dental X-Ray","40.674749","-73.941522","308","36","36047031100","3030805","3012230005","BK61"
"41725400","PORTMAN RIMMA - DDS","144 NORTH 8 STREET","BROOKLYN","11215","Dental X-Ray","40.718799","-73.957807","301","33","36047055300","3061917","3023197501","BK73"
"50060512","BEDFORD STUYVESANT VETERINARY CLINIC","1403 FULTON ST","BROOKLYN","11216","Veterinary X-Ray","40.680155","-73.945068","303","36","36047026900","3053471","3018540061","BK75"
"50069971","LIVE WELL DENTAL SERVICES PLLC","86 PIERREPONT ST","BROOKLYN","11201","Dental X-Ray","40.695418","-73.993848","302","33","36047000502","3001992","3002430027","BK09"
"50094870","LIVE WELL DENTAL SERVICES PLLC","86 PIERREPONT ST","BROOKLYN","11201","Dental CBCT X-Ray","40.695418","-73.993848","302","33","36047000502","3001992","3002430027","BK09"
"50018346","BIOMECHANIX INC.","409 FULTON ST","BROOKLYN","11201","Non-Hospital X-Ray","40.692003","-73.988692","302","33","36047001100","3000281","3001440001","BK38"
"40501418","BLUSTIN VLADIMIR DDS","1916 AVENUE K","BROOKLYN","11230","Dental X-Ray","40.623236","-73.956823","314","45","36047076000","3180555","3067300059","BK43"
"40507092","NYC DEPT OF HEALTH","295 FLATBUSH AVENUE EXTENSION","BROOKLYN","11201","Non-Hospital X-Ray","40.691986","-73.982496","302","35","36047001500","3058406","3020790021","BK38"
"50051380","BROOKLYN MEDICAL PC","410 DITMAS AVE","BROOKLYN","11218","Non-Hospital X-Ray","40.635892","-73.974830","312","39","36047048400","3127139","3053980004","BK41"
"50008480","CITY MEDICAL OF UPPER EAST SIDE PLLC","8712 4TH AVE","BROOKLYN","11209","Non-Hospital X-Ray","40.621860","-74.028749","310","43","36047006000","3153726","3060490041","BK31"
"41175953","BONET MIRIAM - DDS","264 JAMAICA AVENUE","BROOKLYN","11207","Dental X-Ray","40.681012","-73.891390","305","37","36047114600","3086852","3039190010","BK83"
"50033021","ALISON ANIMAL HOSPITAL","224 PROSPECT PARK W FRNT","BROOKLYN","11215","Veterinary X-Ray","40.659952","-73.980757","307","39","36047016900","3026919","3011090045","BK40"
"40495883","ZAWAHIR M. & ZAWAHIR R.","656 72 STREET","BROOKLYN","11209","Non-Hospital X-Ray","40.629460","-74.017974","310","43","36047013400","3147542","3059110031","BK31"
"40903840","ANTHONY G. - MD SALEH","7206 7 AVENUE","BROOKLYN","11209","Non-Hospital X-Ray","40.629224","-74.017865","310","43","36047013400","3147542","3059110031","BK31"
"50013574","BOSS DENTAL P.C","1504 AVENUE U FRNT","BROOKLYN","11229","Dental X-Ray","40.598851","-73.956169","315","48","36047058000","3337284","3073480001","BK44"
"40498076","BIENENSTOCK MARTIN DDS","2940 OCEAN PKWY","BROOKLYN","11235","Dental X-Ray","40.579480","-73.967816","313","48","36047035602","3196582","3072740020","BK23"
"40498237","GRAYSON ISABEL W. - DDS","539 EAST 18 STREET","BROOKLYN","11226","Dental X-Ray","40.637719","-73.960842","314","40","36047051800","3120230","3052040050","BK42"
"50053527","MODERN PHYSICIAN SERVICES PC","366 KNICKERBOCKER AVENUE","BROOKLYN","11237","Non-Hospital X-Ray","40.700549","-73.921429","304","37","36047043100","3074148","3032570029","BK77"
"50058909","COMMUNITY URGENT CARE P.C.","5902 18TH AVE","BROOKLYN","11204","Non-Hospital X-Ray","40.622522","-73.986772","312","44","36047024400","3131783","3055110038","BK88"
"40503523","AVRAMENKO LAWRENCE DDS","501 BRIGHTON BEACH AVE","BROOKLYN","11235","Dental X-Ray","40.577449","-73.962227","313","48","36047036200","3326870","3086750043","BK19"
"50046489","PROSPECT AVE MEDICAL P.C.","501 BRIGHTON BEACH AVE FL 2","BROOKLYN","11235","Non-Hospital X-Ray","40.577449","-73.962227","313","48","36047036200","3326870","3086750043","BK19"
"50089060","CONEY ISLAND DENTAL P.C.","501 BRIGHTON BEACH AVE","BROOKLYN","11235","Dental X-Ray","40.577449","-73.962227","313","48","36047036200","3326870","3086750043","BK19"
"50065963","PROHEALTH CARE ASSOCIATES","2005 CONEY ISLAND AVE","BROOKLYN","11223","Non-Hospital X-Ray","40.608496","-73.962080","315","48","36047055400","3182313","3067740052","BK25"
"40839592","ICL HEALTH CARE CHOICES INC.","6209 16TH AVE","BROOKLYN","11204","Dental X-Ray","40.623596","-73.993242","311","38","36047024800","3132709","3055310006","BK28"
"40968160","BACKER STEVEN - DDS","690 FLATBUSH AVENUE","BROOKLYN","11225","Dental X-Ray","40.656526","-73.960095","309","40","36047079802","3114644","3050260250","BK60"
"41681503","GORODINSKY EDWARD - DDS","389 COURT STREET","BROOKLYN","11231","Dental X-Ray","40.680078","-73.996990","306","39","36047007700","3007780","3004590004","BK33"
"50010800","CITYWIDE HEALTH FACILITY INC","105 KINGS HWY","BROOKLYN","11214","Non-Hospital X-Ray","40.606196","-73.987791","311","44","36047042800","3329040","3062537502","BK29"
"50046617","NYU LUTHERAN ASSOCIATES- 77TH STREET PODIATRY","441 77TH ST","BROOKLYN","11209","Podiatric X-Ray","40.628773","-74.024609","310","43","36047013600","3149279","3059510068","BK31"
"50019140","NYU LANGONE BROOKLYN MEDICAL ASSOCIATES - MARINE PARK","4013 AVENUE U","BROOKLYN","11234","Non-Hospital X-Ray","40.608458","-73.924664","318","46","36047066200","3241851","3085400005","BK45"
"91-3712-01","Robert Hyman M.D.","8115 7TH AVENUE","BROOKLYN","11238","Radioactive Materials","40.621999","-74.019769","310","43","36047014000","3151846","3060010005","BK30"
"40507055","ENRICO DC FERDICO","1736 86 STREET","BROOKLYN","11214","Non-Hospital X-Ray","40.607964","-74.003836","311","43","36047017800","3166546","3063670044","BK27"
"41735441","RASKIN SIMON - DPM PC","1471 46 STREET","BROOKLYN","11219","Dental X-Ray","40.634519","-73.986730","312","44","36047023200","3136782","3056180051","BK88"
"50003070","CHANDHOKE NIRMOLRATTAN","1154 FULTON STREET","BROOKLYN","11216","Dental X-Ray","40.680950","-73.954849","303","36","36047022700","3057752","3020170024","BK69"
"50092041","NIRMOLAR DENTAL PC","1154 FULTON ST","BROOKLYN","11216","Dental CBCT X-Ray","40.680950","-73.954849","303","36","36047022700","3057752","3020170024","BK69"
"41064085","DMITRIY & ZATS TOKAR","1918 AVENUE U","BROOKLYN","11229","Dental X-Ray","40.599278","-73.952272","315","48","36047057800","3199757","3073520007","BK44"
"41587087","PREVENTIVE DIAGNOSTICS INC.","12 SPENCER STREET FL 2ND","BROOKLYN","11205","Non-Hospital X-Ray","40.698512","-73.955970","303","33","36047123700","3048278","3017150029","BK75"
"50070056","BP IMMEDIATE MEDICAL CARE P.C.","735 BEDFORD AVE","BROOKLYN","11205","Non-Hospital X-Ray","40.698413","-73.956897","303","33","36047123700","3048278","3017150029","BK75"
"50036501","AI MEDICAL URGENT CARE PLLC","76 BELMONT AVE","BROOKLYN","11212","Non-Hospital X-Ray","40.668853","-73.907430","316","41","36047090600","3081146","3035260310","BK81"
"91-3646-01","Ijaz Ahmad M.D.","76/78 BELMONT AVE","BROOKLYN","11212","Radioactive Materials","40.668853","-73.907430","316","41","36047090600","3081146","3035260310","BK81"
"50035633","NASSAU DENTAL PARK PC","4522 18TH AVE","BROOKLYN","11204","Dental X-Ray","40.630159","-73.978431","312","44","36047047600","3128550","3054350052","BK88"
"50071404","ERIC LEIBOWITZ","4522 18TH AVE","BROOKLYN","11204","Dental X-Ray","40.630159","-73.978431","312","44","36047047600","3128550","3054350052","BK88"
"40505564","VADER BONNIE DPM","621 AMBOY STREET","BROOKLYN","11212","Podiatric X-Ray","40.654841","-73.910855","316","42","36047089000","3082922","3036320018","BK96"
"40507507","DC37 JORALEMON DENTA","186 JORALEMON STREET","BROOKLYN","11201","Dental X-Ray","40.692662","-73.991843","302","33","36047000900","3002548","3002650040","BK09"
"40605524","GODDARD DAVID - M.D.","186 JORALEMON ST FL 8TH 8TH FLOOR","BROOKLYN","11201","Non-Hospital X-Ray","40.692662","-73.991843","302","33","36047000900","3002548","3002650040","BK09"
"41476824","MENEZES NELSON S. - M.D.","186 JORALEMON STREET","BROOKLYN","11201","Non-Hospital X-Ray","40.692662","-73.991843","302","33","36047000900","3002548","3002650040","BK09"
"41565601","DR. DAVID PULVER","186 JORALEMON STREET 5TH FLOOR","BROOKLYN","11201","Non-Hospital X-Ray","40.692662","-73.991843","302","33","36047000900","3002548","3002650040","BK09"
"50075677","NYU SCHOOL OF MEDICINE","186 JORALEMON ST FL 8","BROOKLYN","11201","Non-Hospital X-Ray","40.692662","-73.991843","302","33","36047000900","3002548","3002650040","BK09"
"50063452","DECENT DENTAL SERVICES P.C.","5801 5TH AVE","BROOKLYN","11220","Dental X-Ray","40.640538","-74.015058","307","38","36047010200","3016046","3008560008","BK34"
"41302643","VLADISLAV UMANSKY - DDS","1620 OCEAN AVENUE SUITE A-1","BROOKLYN","11230","Dental X-Ray","40.622445","-73.955782","314","45","36047076000","3320893","3067300063","BK43"
"50047899","ALL CREATURES VETERINARY HOSPITAL OF BROOKLYN PLLC","643 WASHINGTON AVE FRNT","BROOKLYN","11238","Veterinary X-Ray","40.678137","-73.963818","308","35","36047020500","3414921","3011470009","BK64"
"40731676","CHUDINOVA SOFIYA - DDS","2200 OCEAN AVENUE SUITE 1U","BROOKLYN","11229","Dental X-Ray","40.607935","-73.953037","315","48","36047055000","3183163","3068020014","BK44"
"41247957","HO KENNY - DDS","8618 25 AVENUE","BROOKLYN","11214","Dental X-Ray","40.597421","-73.987732","311","47","36047030000","3185643","3068660051","BK29"
"50046883","THE BROOKLYN HOSPITAL CENTER AT CHURCH AVE","2244 CHURCH AVE","BROOKLYN","11226","Dental X-Ray","40.650424","-73.957825","314","40","36047079400","3117228","3051030042","BK95"
"52-3186-01","New York City Transit Authority","130 LIVINGSTON STREET","BROOKLYN","11201","Radioactive Materials","40.690782","-73.988753","302","33","36047003700","3319419","3001630001","BK38"
"40502558","SPERANZA RONALD - DDS","2361 85TH ST","BROOKLYN","11214","Dental X-Ray","40.600421","-73.989690","311","47","36047029800","3185229","3068550053","BK29"
"50004024","SCHIFF CARL","4915 10TH AVE","BROOKLYN","11219","Non-Hospital X-Ray","40.638870","-73.998858","312","44","36047011400","3137601","3056390001","BK88"
"40504975","SINGER SOLOMON DPM","1421 48 STREET","BROOKLYN","11219","Podiatric X-Ray","40.633874","-73.988680","312","44","36047023400","3137300","3056300068","BK88"
"40501999","PEREZ NELSON","8820 20TH AVE","BROOKLYN","11214","Dental X-Ray","40.600056","-74.002982","311","43","36047028200","3169913","3064660020","BK27"
"40500696","YABLONOVICH GERARDO DDS","1559 49 STREET","BROOKLYN","11219","Dental X-Ray","40.631623","-73.986464","312","44","36047023400","3327495","3054470051","BK88"
"50052576","PRABODH LATHIGARA","1507 DEKALB AVE","BROOKLYN","11237","Dental X-Ray","40.701872","-73.921644","304","37","36047042900","3073623","3032360047","BK77"
"50059611","ORTHO CLUB PC","1122 AVENUE Z FL 1","BROOKLYN","11235","Dental X-Ray","40.587448","-73.958992","315","48","36047060600","3204814","3074557503","BK17"
"50067110","CONCORD NURSING HOME INC","300 MADISON ST","BROOKLYN","11216","Dental X-Ray","40.685206","-73.946287","303","36","36047026700","3051657","3018240012","BK75"
"50083680","ICL HEALTHCARE CHOICES INC","179 JAMAICA AVE","BROOKLYN","11207","Non-Hospital X-Ray","40.679640","-73.894262","305","37","36047114201","3080618","3034870010","BK83"
"40991994","DR. LEVIT LEONID - DDS","3045 OCEAN PARKWAY SUITE 1D","BROOKLYN","11235","Dental X-Ray","40.576647","-73.968441","313","48","36047036200","3244590","3086690068","BK19"
"50079448","LEONID LEVIT DENTAL PC","3045 OCEAN PKWY APT 1D","BROOKLYN","11235","Dental CBCT X-Ray","40.576647","-73.968441","313","48","36047036200","3244590","3086690068","BK19"
"50014485","ANIMAL CLINIC OF MARINE PARK","3616 QUENTIN RD","BROOKLYN","11234","Veterinary X-Ray","40.614765","-73.936600","318","46","36047065600","3213057","3077190048","BK45"
"41736648","MENON RAKESH - M.D.","187 CONKLIN AVE","BROOKLYN","11236","Non-Hospital X-Ray","40.644033","-73.901803","318","46","36047096800","3229686","3081840055","BK50"
"50007574","PROSPECT PARK OPERATING LLC","1455 CONEY ISLAND AVE","BROOKLYN","11230","Non-Hospital X-Ray","40.621803","-73.964601","314","44","36047053400","3180225","3067220073","BK43"
"50003993","BIRCH GREGORY","6414 BAY PKWY BSMT","BROOKLYN","11204","Podiatric X-Ray","40.614300","-73.980972","311","47","36047025400","3133703","3055500036","BK28"
"41587620","USTININA YELENA - DDS P","2084 EAST 17 STREET","BROOKLYN","11229","Dental X-Ray","40.599600","-73.954631","315","48","36047058000","3198174","3073210040","BK44"
"50045672","NYU LUTHERN MEDICAL CENTER PS 288","2950 W 25TH ST","BROOKLYN","11224","Dental X-Ray","40.574411","-73.991940","313","47","36047034200","3189538","3070540045","BK21"
"50068539","SUNSET PARK HEALTH COUNCIL INC. PS 288","2950 W 25TH ST","BROOKLYN","11224","Dental X-Ray","40.574411","-73.991940","313","47","36047034200","3189538","3070540045","BK21"
"40594459","KHABENSKIY ALEKSANDR-D.D.S.","1615 QUENTIN ROAD STE A1","BROOKLYN","11229","Dental X-Ray","40.608398","-73.957023","315","48","36047055200","3182454","3067790042","BK44"
"50078181","HARMONY DENTAL STUDIO PLLC","622 AVENUE U","BROOKLYN","11223","Dental X-Ray","40.597896","-73.964862","315","47","36047039200","3193032","3071330008","BK25"
"40500110","DIAMONDSTEIN NELSON DDS","9229 FLATLANDS AVE","BROOKLYN","11236","Dental X-Ray","40.641301","-73.904333","318","46","36047096400","3254767","3081800001","BK50"
"40504540","PAWSON J. & SURAN S. DPM","9229 FLATLANDS AVE","BROOKLYN","11236","Podiatric X-Ray","40.641301","-73.904333","318","46","36047096400","3254767","3081800001","BK50"
"41338083","ZAK OKSANA - DDS","7806 FLATLAND AVENUE","BROOKLYN","11236","Dental X-Ray","40.634634","-73.914618","318","46","36047095600","3224809","3080150041","BK50"
"41319960","JUPITER BARRY - MD","2569 OCEAN AVENUE","BROOKLYN","11229","Non-Hospital X-Ray","40.598704","-73.951264","315","48","36047057800","3391180","3073537501","BK44"
"40502460","LEE ELLEN-D.D.S.","9311 3 AVENUE","BROOKLYN","11209","Dental X-Ray","40.618505","-74.033074","310","43","36047005800","3155240","3061070008","BK31"
"40657417","SHAPIRO EUGENE - DPM","301 OCEANVIEW AVENUE","BROOKLYN","11235","Podiatric X-Ray","40.579018","-73.964843","313","48","36047036400","3244362","3086630307","BK19"
"40500165","AURBACH SIDNEY DDS","425 NEPTUNE AVE","BROOKLYN","11224","Dental X-Ray","40.580037","-73.969407","313","47","36047035601","3320734","3072530001","BK23"
"40503748","SCHWARTZ STEVEN R DDS","2844 OCEAN PARKWAY","BROOKLYN","11235","Dental X-Ray","40.581022","-73.967459","313","47","36047035601","3320735","3072530001","BK23"
"40561891","KHRAKOVSKY VADIM DDS","2791 WEST 5 STREET","BROOKLYN","11224","Dental X-Ray","40.580307","-73.971664","313","47","36047035601","3320736","3072530001","BK23"
"40842992","NATAPOV BORIS - DDS","2844 OCEAN PARKWAY","BROOKLYN","11235","Dental X-Ray","40.581022","-73.967459","313","47","36047035601","3320735","3072530001","BK23"
"50061525","A+ PODIATRIC CARE P.C.","2844 OCEAN PKWY STE 6","BROOKLYN","11235","Podiatric X-Ray","40.581022","-73.967459","313","47","36047035601","3320735","3072530001","BK23"
"50064058","BRIGHT SMILE DENTAL PC","2791 W 5TH ST","BROOKLYN","11224","Dental CBCT X-Ray","40.580307","-73.971664","313","47","36047035601","3320736","3072530001","BK23"
"41744042","CARUSO JILL - DVM","2455 MCDONALD AVENUE","BROOKLYN","11223","Veterinary X-Ray","40.591975","-73.973932","315","47","36047038600","3194370","3071730001","BK26"
"50050628","YAKOV S EISENBERGER DDS","1365 48TH ST","BROOKLYN","11219","Dental X-Ray","40.634786","-73.990193","312","44","36047023400","3137252","3056290051","BK88"
"50076371","SUNSET PARK HEALTH COUNCIL INC","700 CORTELYOU RD","BROOKLYN","11218","Dental X-Ray","40.638686","-73.971651","312","40","36047049000","3126842","3053910001","BK41"
"40838867","ESSES ABRAHAM - D.D.S","2245 OCEAN AVENUE","BROOKLYN","11229","Dental X-Ray","40.607115","-73.952857","315","48","36047055000","3183215","3068030062","BK44"
"40970169","ROBERT B. SOUFERIAN- DDS","8301 3RD AVE","BROOKLYN","11209","Dental X-Ray","40.625587","-74.030181","310","43","36047006200","3152411","3060170010","BK31"
"41422176","KOHN DESIDER - D.M.D","5118 14 AVENUE","BROOKLYN","11219","Dental X-Ray","40.632423","-73.991252","312","44","36047023600","3138390","3056560045","BK88"
"41083867","MAIMONIDES DIVISION OF RADIATION ON FPP","6300 8 AVENUE","BROOKLYN","11220","Non-Hospital X-Ray","40.633715","-74.011425","310","38","36047011800","3143889","3057940100","BK34"
"50093280","ALLIANCE HEALTHCARE SERVICES INC","6300 8TH AVE","BROOKLYN","11220","Non-Hospital X-Ray","40.633715","-74.011425","310","38","36047011800","3143889","3057940100","BK34"
"77-0000047","Maimonides Medical Center/Maimonides Cancer Center","6300 8TH AVENUE","BROOKLYN","11220","Linear Accelerator","40.633715","-74.011425","310","38","36047011800","3143889","3057940100","BK34"
"50083542","SIMON RASKIN DPM PC","1078 FULTON ST","BROOKLYN","11238","Podiatric X-Ray","40.681569","-73.957805","303","36","36047022700","3397114","3020167501","BK69"
"41326646","WOHL THEODORE - DMD","1680 EAST 19 STREET","BROOKLYN","11229","Dental X-Ray","40.609199","-73.954502","315","48","36047055200","3182489","3067810037","BK44"
"40734278","COPULSKY ROBERT - M.D.","3131 KINGS HIGHWAY SUITE C11","BROOKLYN","11234","Non-Hospital X-Ray","40.617700","-73.943186","318","45","36047074600","3210426","3076670074","BK58"
"50063298","ICAHN SCHOOL OF MEDICINE AT MOUNT SINAI","3131 KINGS HWY STE A4","BROOKLYN","11234","Non-Hospital X-Ray","40.617700","-73.943186","318","45","36047074600","3210426","3076670074","BK58"
"91-3198-01","Barry L. Huppert M.D.","3131 KINGS HIGHWAY","BROOKLYN","11234","Radioactive Materials","40.617700","-73.943186","318","45","36047074600","3210426","3076670074","BK58"
"50074607","SUNSET PARK HEALTH COUNCIL INC SOUTHWEST BROOKLYN DENTAL PRACTICE PLLC","215 54TH ST","BROOKLYN","11220","Dental X-Ray","40.646532","-74.018702","307","38","36047002000","3337290","3008130074","BK32"
"50074609","SUNSET PARK HEALTH COUNCIL INC SOUTTHWEST BROOKLYN DENTAL PRACTICE PLLC","215 54TH ST","BROOKLYN","11220","Dental CBCT X-Ray","40.646532","-74.018702","307","38","36047002000","3337290","3008130074","BK32"
"41093540","LEFKOWITZ MATHEW - MD","185 MONTAGUE STREET 6TH FLOOR","BROOKLYN","11201","Non-Hospital X-Ray","40.694120","-73.991832","302","33","36047000900","3002009","3002440013","BK09"
"41423412","ENDODONTIC ASSOCIATES AT H","185 MONTAGUE STREET 9TH FLOOR","BROOKLYN","11201","Dental X-Ray","40.694120","-73.991832","302","33","36047000900","3002009","3002440013","BK09"
"41534648","ZIDILE MICHAEL - DDS","185 MONTAGUE STREET","BROOKLYN","11201","Dental X-Ray","40.694120","-73.991832","302","33","36047000900","3002009","3002440013","BK09"
"50088589","BROOKLYN PERIDONTICS AND IMPLANT DENTISTRY PC","185 MONTAGUE ST FL 9","BROOKLYN","11201","Dental CBCT X-Ray","40.694120","-73.991832","302","33","36047000900","3002009","3002440013","BK09"
"50038042","ENDODONTIC ASSOCIATES AT HANSON PLACE PC","185 MONTAGUE ST FL 9","BROOKLYN","11201","Dental CBCT X-Ray","40.694120","-73.991832","302","33","36047000900","3002009","3002440013","BK09"
"50060285","IRWIN KOLIN D.D.S. P.C.","185 MONTAGUE ST FL 8","BROOKLYN","11201","Dental X-Ray","40.694120","-73.991832","302","33","36047000900","3002009","3002440013","BK09"
"50060653","STANLEY HARRIS","185 MONTAGUE ST FL 8","BROOKLYN","11201","Dental X-Ray","40.694120","-73.991832","302","33","36047000900","3002009","3002440013","BK09"
"50038048","CITY PRACTICE GROUP OF NEW YORK LLC","1305 KINGS HWY","BROOKLYN","11229","Non-Hospital X-Ray","40.608103","-73.959887","315","48","36047055400","3182394","3067760044","BK25"
"50065749","HOWARD HSU DDS PC","7121 20TH AVE FL 1","BROOKLYN","11204","Dental X-Ray","40.612954","-73.989559","311","47","36047026600","3158029","3061850002","BK28"
"40502824","DIGREGORIO JOHN J. - DDS","574 BAY RIDGE PARKWAY","BROOKLYN","11209","Dental X-Ray","40.628512","-74.021043","310","43","36047013400","3148847","3059420038","BK31"
"50081208","JOHN DIGREGORIO","574 BAY RIDGE PKWY","BROOKLYN","11209","Dental CBCT X-Ray","40.628512","-74.021043","310","43","36047013400","3148847","3059420038","BK31"
"91-3500-01","K. Peter Rentrop M.D.","2329 NOSTRAND AVENUE","BROOKLYN","11210","Radioactive Materials","40.627953","-73.947086","318","45","36047074200","3207055","3075940022","BK58"
"40498432","TAGLIANETTI ROBERT DDS","7825 4TH AVE","BROOKLYN","11209","Dental X-Ray","40.628413","-74.026043","310","43","36047013600","3150336","3059700001","BK31"
"50075400","AESTHETIC AND IMPLANT DENTAL ARTS PC","7825 4TH AVE APT A2","BROOKLYN","11209","Dental X-Ray","40.628413","-74.026043","310","43","36047013600","3150336","3059700001","BK31"
"50080042","AESTHETIC AND IMPLANT DENTAL ARTS PC","7825 4TH AVE APT A2","BROOKLYN","11209","Dental CBCT X-Ray","40.628413","-74.026043","310","43","36047013600","3150336","3059700001","BK31"
"41290531","DIAZ ORLANDO R. - DV","760 GRAND ST","BROOKLYN","11211","Veterinary X-Ray","40.711741","-73.942784","301","34","36047049500","3069613","3027890018","BK90"
"40502962","INGBERMAN S. DDS","749 OCEAN PKWY","BROOKLYN","11230","Dental X-Ray","40.630210","-73.971600","314","40","36047048200","3128121","3054280001","BK42"
"50074362","M & M DENTAL OFFICE PC","106 BEVERLEY RD","BROOKLYN","11218","Dental X-Ray","40.642939","-73.978870","312","39","36047048600","3125226","3053530001","BK41"
"41457474","ACCORD PHYSICIANS PLLC","2632 EAST 14 STREET","BROOKLYN","11235","Non-Hospital X-Ray","40.586903","-73.955097","315","48","36047060600","3394282","3074580018","BK17"
"40935054","BELENKIY SERGEY - DMD","10 PLAZA ST E STE 1F SUITE 1F","BROOKLYN","11238","Dental X-Ray","40.675474","-73.970647","308","39","36047015900","3029306","3011690001","BK37"
"41259718","SCANTLEBURY SOPHIA - DDS","10 PLAZA ST EAST STE 1H","BROOKLYN","11238","Dental X-Ray","40.675474","-73.970647","308","39","36047015900","3029306","3011690001","BK37"
"41442675","YANG JANE - DDS","5115 8 AVENUE","BROOKLYN","11220","Dental X-Ray","40.640410","-74.004432","312","38","36047010800","3138130","3056510004","BK34"
"40503312","GRINBERG SOLOMON DDS","1414 AVENUE P","BROOKLYN","11229","Dental X-Ray","40.610317","-73.959287","315","48","36047055400","3182408","3067770005","BK25"
"50065393","BAY RIDGE CHIROPRACTIC P.C.","7601 5TH AVE","BROOKLYN","11209","Non-Hospital X-Ray","40.628589","-74.022995","310","43","36047013600","3149302","3059520010","BK31"
"50050611","OCEAN-SIDE DENTAL PC","3260 CONEY ISLAND AVE APT A4","BROOKLYN","11235","Dental X-Ray","40.576480","-73.959531","313","48","36047036002","3245127","3086920041","BK19"
"40714468","SANTANA JOSE E. - DDS","7115 5 AVENUE","BROOKLYN","11209","Dental X-Ray","40.632355","-74.021455","310","43","36047013000","3146647","3058930008","BK31"
"41180548","AVANESSOV VALENTIN - M.D.","3059 BRIGHTON 13 STREET","BROOKLYN","11235","Non-Hospital X-Ray","40.578875","-73.956297","313","48","36047061004","3245651","3087160078","BK19"
"41745528","KYAZIMOVA GYULNARA","1906 MERMAID AVENUE","BROOKLYN","11224","Dental X-Ray","40.576480","-73.986033","313","47","36047032600","3398528","3070600010","BK21"
"50058230","SUNSET PARK HEALTH COUNCIL INC","6214 4TH AVE","BROOKLYN","11220","Dental X-Ray","40.639571","-74.019760","307","38","36047007200","3143927","3057990038","BK32"
"50078929","PM PEDIATRICS REALTY-BENSONHURST LLC","1823 86TH ST","BROOKLYN","11214","Non-Hospital X-Ray","40.606990","-74.002186","311","47","36047027800","3165786","3063440066","BK28"
"40501377","CHUBAK BRUCE DDS","1358 43RD ST","BROOKLYN","11219","Dental X-Ray","40.637629","-73.987386","312","39","36047023200","3136201","3056050037","BK88"
"50080455","NASSI FIGDOR","540 E NEW YORK AVE","BROOKLYN","11225","Dental X-Ray","40.661927","-73.944716","309","40","36047080600","3392222","3047937503","BK60"
"50096576","ZWANGER & PESIRI RADIOLOGY GROUP LLP","1128 EASTERN PKWY","BROOKLYN","11213","Non-Hospital X-Ray","40.668765","-73.930659","309","41","36047034900","3037571","3013970006","BK61"
"40503225","NARAYAN PATEL","326 7 STREET","BROOKLYN","11215","Dental X-Ray","40.670207","-73.984946","306","39","36047013700","3021885","3009990010","BK37"
"40556866","IFTIKHAR DIN & KAZEEM S","326 7 STREET","BROOKLYN","11215","Non-Hospital X-Ray","40.670207","-73.984946","306","39","36047013700","3021885","3009990010","BK37"
"41127198","RAMOS JR. MAXIMO J. - D.M","2375 OCEAN AVENUE CORNER AVE SOUTH - APT. 1F CORNER AVE","BROOKLYN","11229","Dental X-Ray","40.603458","-73.952172","315","48","36047056000","3197060","3072990001","BK44"
"50005161","FAMILY SMILE DENTAL","1985 OCEAN AVE APT 1D","BROOKLYN","11230","Dental X-Ray","40.613126","-73.954002","314","48","36047054600","3182067","3067670001","BK43"
"41384570","NY METHODIST FAMIL","1910 NOSTRAND AVENUE","BROOKLYN","11226","Dental X-Ray","40.639109","-73.948331","317","45","36047082800","3256665","3052160058","BK95"
"40506220","KINGSBROOK JEWISH MEDICAL CENTER","585 SCHNECTADY AVENUE","BROOKLYN","11203","Hospital X-Ray","40.659322","-73.934111","309","41","36047087800","3327565","3046020005","BK60"
"41709175","BRADY LINDA - MD","585 SCHENECTADY AVENUE","BROOKLYN","11203","Dental X-Ray","40.659322","-73.934111","309","41","36047087800","3327565","3046020005","BK60"
"91-3018-01","Kingsbrook Jewish Medical Center","585 SCHENECTADY AVENUE","BROOKLYN","11203","Radioactive Materials","40.659322","-73.934111","309","41","36047087800","3327565","3046020005","BK60"
"50046439","LENOX HILL RADIOLOGY & MEDICAL IMAGING ASSOCIATES PC","1000 CHURCH AVE","BROOKLYN","11218","Non-Hospital X-Ray","40.646651","-73.970166","314","40","36047152200","3116361","3050710080","BK42"
"40505233","LOUIS DPM JABLIN","6105 FIFTH AVENUE","BROOKLYN","11220","Podiatric X-Ray","40.638795","-74.016866","307","38","36047012200","3143771","3057920008","BK32"
"50059830","STARRET CITY MEDICAL PC","10510 FLATLANDS AVE","BROOKLYN","11236","Non-Hospital X-Ray","40.647622","-73.894522","318","46","36047098400","3398452","3082130038","BK50"
"41630598","KHAYTSIN EUGENE - DDS P","154 AVENUE T","BROOKLYN","11223","Dental X-Ray","40.598539","-73.979485","311","47","36047040000","3191059","3070980001","BK29"
"50080787","EUGENE KHAYTSIN-DDS","154 AVENUE T","BROOKLYN","11223","Dental CBCT X-Ray","40.598539","-73.979485","311","47","36047040000","3191059","3070980001","BK29"
"40505966","SILVERMAN LEONARD DVM","105 PROSPECT PARK WEST","BROOKLYN","11215","Veterinary X-Ray","40.666601","-73.975200","306","39","36047016500","3025648","3010850044","BK37"
"50040662","SERENITY LASER DENTAL PC","3065 NOSTRAND AVE","BROOKLYN","11229","Dental X-Ray","40.609674","-73.943596","315","46","36047064000","3183778","3068150057","BK45"
"41287961","SCANLON MICHAEL E. - DP","405 CHURCH AVENUE","BROOKLYN","11218","Podiatric X-Ray","40.644113","-73.976340","312","39","36047049600","3124652","3053370031","BK41"
"41240461","AGUDELO LILANA - DDS","528 3 AVENUE","BROOKLYN","11215","Dental X-Ray","40.669359","-73.992787","306","39","36047011700","3023075","3010260037","BK37"
"50078471","BIG APPLE MEDICAL WALK IN URGENT CARE PLLC","3805 CHURCH AVE","BROOKLYN","11203","Non-Hospital X-Ray","40.651188","-73.941726","317","41","36047081400","3394917","3048750040","BK91"
"40501427","ABRAMS MICHAEL DDS","6910 AVENUE U","BROOKLYN","11234","Dental X-Ray","40.618981","-73.908752","318","46","36047070000","3237617","3084290036","BK45"
"40857926","IANNACONE RONALD F.- DPM","6910 AVENUE U SUITE LA","BROOKLYN","11234","Podiatric X-Ray","40.618981","-73.908752","318","46","36047070000","3237617","3084290036","BK45"
"40500795","BRAUN SIDNEY DDS","1242 56TH ST","BROOKLYN","11219","Dental X-Ray","40.631830","-73.997413","312","44","36047021600","3140064","3056900023","BK88"
"40499075","COHEN HOWARD A. DDS","1642 REMSEN AVE","BROOKLYN","11236","Dental X-Ray","40.631572","-73.896338","318","46","36047102600","3227990","3080860045","BK50"
"50078874","CITY MEDICAL OF UPPER EAST SIDE PLLC","2183A RALPH AVE","BROOKLYN","11234","Non-Hospital X-Ray","40.624752","-73.917801","318","46","36047069601","3235399","3083440020","BK45"
"40984760","GREENBERG E. & GRINBERG","194 QUENTIN ROAD","BROOKLYN","11223","Dental X-Ray","40.605950","-73.979130","311","44","36047042600","3176853","3066510001","BK29"
"40505968","GUSMORINO PETER DVM","9605 GLENWOOD ROAD","BROOKLYN","11236","Veterinary X-Ray","40.644723","-73.902973","318","42","36047096800","3321379","3081650007","BK50"
"40502657","MANLEY JOEL - DDS","169 KINGSTON AVENUE","BROOKLYN","11213","Dental X-Ray","40.674184","-73.941735","308","36","36047034300","3031055","3012300005","BK61"
"41725403","STEVEN KLEIN - DDS","380 HENRY STREET","BROOKLYN","11201","Dental X-Ray","40.688142","-73.997505","306","39","36047004900","3003212","3003000017","BK33"
"40523403","KLEBANOV IGOR-D.D.S.","7913 BAY PARKWAY #1A","BROOKLYN","11214","Dental X-Ray","40.605751","-73.989841","311","44","36047027000","3162925","3062770001","BK28"
"40956915","PHOTOPOULOS CONSTANCE - DDS","7702 4 AVENUE","BROOKLYN","11209","Dental X-Ray","40.629261","-74.025719","310","43","36047006400","3149794","3059600040","BK31"
"40506216","WYCKOFF HEIGHTS HOSPITA","374 STOCKHOLM STREET RADIOLOGY","BROOKLYN","11237","Hospital X-Ray","40.704636","-73.917699","304","37","36047044300","3074262","3032600001","BK77"
"41642899","MOUNZER TCHELEBI - MD","374 STOCKHOLM STREET","BROOKLYN","11237","Non-Hospital X-Ray","40.704636","-73.917699","304","37","36047044300","3074262","3032600001","BK77"
"77-0000056","TMA LLC Radiation Oncology Services","374 STOCKHOLM STREET","BROOKLYN","11237","Linear Accelerator","40.704636","-73.917699","304","37","36047044300","3074262","3032600001","BK77"
"91-2846-01","Wyckoff Heights Medical Center","374 STOCKHOLM STREET","BROOKLYN","11237","Radioactive Materials","40.704636","-73.917699","304","37","36047044300","3074262","3032600001","BK77"
"41389478","TOLCHINSKY EVELINA - DDS","100 PINEAPPLE WALK","BROOKLYN","11201","Dental X-Ray","40.697916","-73.992001","302","33","36047000100","3001727","3002320001","BK09"
"50088633","SPINE SPORTS & INTERVENTIONAL PAIN MEDICINE PC","186 MONTAGUE ST FL 3","BROOKLYN","11201","Non-Hospital X-Ray","40.694026","-73.991565","302","33","36047000900","3002106","3002500034","BK09"
"50048513","SERGE KUPETZ","2882 W 15TH ST UPPR LEVEL","BROOKLYN","11224","Dental X-Ray","40.577468","-73.982778","313","47","36047034800","3391739","3070227501","BK21"
"41555875","DR. KENNETH HUMPHRE","317 ATLANTIC AVENUE","BROOKLYN","11201","Veterinary X-Ray","40.688224","-73.988137","302","33","36047004300","3000640","3001760045","BK38"
"41422091","MILLENNIUM AMBULATORY SURG","1408 OCEAN AVENUE","BROOKLYN","11230","Non-Hospital X-Ray","40.627581","-73.956755","314","45","36047076200","3179802","3067120062","BK43"
"41476825","NORTH STAR MEDICAL P.C.","1408 OCEAN AVENUE","BROOKLYN","11230","Non-Hospital X-Ray","40.627581","-73.956755","314","45","36047076200","3179802","3067120062","BK43"
"50098802","SUNSET PARK HEALTH COUNCIL INC","3117 AVENUE W","BROOKLYN","11229","Dental X-Ray","40.596757","-73.933499","315","46","36047057000","3201629","3073930001","BK17"
"50060646","HIGH TECH DENTAL PC","231 S 3RD ST","BROOKLYN","11211","Dental X-Ray","40.711001","-73.958357","301","34","36047052300","3396899","3024200030","BK73"
"91-3677-01","Aasha Gopal M.D.","231 SOUTH 3RD ST","BROOKLYN","11211","Radioactive Materials","40.711001","-73.958357","301","34","36047052300","3396899","3024200030","BK73"
"40505645","OWUSU STEPHEN DPM","106 PENNSYLVANIA AVENUE","BROOKLYN","11207","Podiatric X-Ray","40.675209","-73.896728","305","37","36047119800","3083503","3036860024","BK82"
"50066019","MOUNT ZION PODIATRY P.C.","106 PENNSYLVANIA AVE STE 1","BROOKLYN","11207","Podiatric X-Ray","40.675209","-73.896728","305","37","36047119800","3083503","3036860024","BK82"
"50061263","SUNSET PARK HEALTH COUNCIL INC","71 SULLIVAN ST","BROOKLYN","11231","Dental X-Ray","40.677343","-74.011558","306","38","36047005300","3008585","3005660001","BK33"
"40502567","SLUTZKY MICHAEL DDS","1779 63RD ST","BROOKLYN","11204","Dental X-Ray","40.620710","-73.989647","311","38","36047024800","3132769","3055320047","BK28"
"50003129","BRIDGE FAMILY DENTAL","8116 3 AVENUE","BROOKLYN","11209","Dental X-Ray","40.626913","-74.029663","310","43","36047004600","3151628","3059960046","BK31"
"41416224","LEVIT LEONID - DDS","411 CHURCH AVENUE","BROOKLYN","11218","Dental X-Ray","40.644185","-73.976170","312","39","36047049600","3124650","3053370028","BK41"
"41744040","KUCKELMAN LINDA I - DVM","753 FRANKLIN AVENUE","BROOKLYN","11238","Veterinary X-Ray","40.672983","-73.957122","308","35","36047021900","3031772","3012450006","BK61"
"40684176","KOZLOWSKI LEO M. - DDS","1704 AVENUE J","BROOKLYN","11230","Dental X-Ray","40.625400","-73.959329","314","44","36047053200","3253673","3067190045","BK43"
"50017943","BROOKLYN URGENT MEDICAL CARE","633 DRIGGS AVE","BROOKLYN","11211","Non-Hospital X-Ray","40.715146","-73.958455","301","34","36047051900","3062373","3023537501","BK73"
"41717416","KHABIHDIT HASBANI DAOUD - M.D.","731 CONEY ISLAND AVE","BROOKLYN","11218","Dental X-Ray","40.639596","-73.968865","314","40","36047152200","3118201","3051410123","BK42"
"91-3658-01","Aasha Gopal M.D.","699 STANLEY AVE","BROOKLYN","11207","Radioactive Materials","40.659759","-73.882984","305","42","36047110400","3097694","3043540033","BK82"
"41168000","DELLAPIETRA ANDREW - DDS","795 FLUSHING AVENUE","BROOKLYN","11206","Dental X-Ray","40.700981","-73.940875","301","34","36047049100","3071667","3031270030","BK90"
"41249122","GROSSMAN MARGUERITE - DD","1441 43RD ST FL 1ST 1ST FLOOR","BROOKLYN","11219","Dental X-Ray","40.636482","-73.985455","312","44","36047023200","3136002","3056000060","BK88"
"50073095","NEW YORK CITY HEALTH + HOSPITALS","275 ATLANTIC AVE","BROOKLYN","11201","Non-Hospital X-Ray","40.688896","-73.989969","302","33","36047004300","3000605","3001750001","BK38"
"50009367","PROHEALTH URGENT CARE MEDICINE PLLC","330 COURT ST","BROOKLYN","11231","Non-Hospital X-Ray","40.682877","-73.995663","306","39","36047006700","3000000","3003397503","BK33"
"50064794","CARROLL GARDENS ORTHODONTICS PLLC","291 Union St","BROOKLYN","11231","Dental X-Ray","40.682554","-73.996420","306","39","36047006700","3398702","3003397503","BK33"
"40522768","MOSERY RAFAEL DDS","415 BEVERLY ROAD","BROOKLYN","11218","Dental X-Ray","40.643084","-73.976164","312","39","36047049400","3124671","3053370076","BK41"
"50057525","LDFCB DENTISTRY LLC","1526 50TH ST","BROOKLYN","11219","Dental X-Ray","40.631355","-73.987567","312","44","36047023600","3129339","3054580017","BK88"
"41500663","SAFONOVA NATALIYA - DDS/","2211 OCEAN AVENUE","BROOKLYN","11229","Dental X-Ray","40.607724","-73.952976","315","48","36047055000","3183224","3068030075","BK44"
"50094655","ALEXANDER KORDONSKY DDS PC","65 MASPETH AVE STE 1B","BROOKLYN","11211","Dental X-Ray","40.715742","-73.940353","301","34","36047047700","3325355","3028930042","BK90"
"40503286","GROSSBERG RONALD DDS","319 COURT STREET","BROOKLYN","11231","Dental X-Ray","40.683273","-73.995450","306","39","36047007500","3006814","3004210003","BK33"
"50006021","ODA PRIMARY HEALTHCARE NETWORK","58 RUTLEDGE ST","BROOKLYN","11249","Dental X-Ray","40.700456","-73.959514","301","33","36047053700","3060943","3022247506","BK72"
"50039547","SGRNC LLC","2266 CROPSEY AVE","BROOKLYN","11214","Dental X-Ray","40.596054","-73.997249","311","43","36047029400","3329130","3064710013","BK28"
"41590566","MICHAEL GITLIN - DDS","178 BRIGHTON 11 STREET","BROOKLYN","11235","Dental X-Ray","40.578760","-73.958576","313","48","36047061004","3245410","3087070449","BK19"
"50042644","PROHEALTH URGENT CARE MEDICINE PLLC","6906 18TH AVE","BROOKLYN","11204","Non-Hospital X-Ray","40.616723","-73.992627","311","43","36047026000","3156698","3061600042","BK28"
"41702286","MASKELL ALAN & SEAN - D","722 BROADWAY","BROOKLYN","11206","Dental X-Ray","40.701223","-73.942754","301","33","36047050700","3061508","3022760020","BK75"
"41149056","HIRSCH JONATHAN M. - M","2136 OCEAN AVENUE","BROOKLYN","11229","Non-Hospital X-Ray","40.609709","-73.953374","315","48","36047055000","3182524","3067820032","BK44"
"50043024","R J MEDICAL & URGENT CARE PLLC","464-466 BAY RIDGE AVE","BROOKLYN","11220","Non-Hospital X-Ray","40.633914","-74.022003","310","43","36047013000","3145750","3058730035","BK31"
"40503665","PERCY THOMAS - DDS","5520 GLENWOOD ROAD","BROOKLYN","11234","Dental X-Ray","40.635488","-73.923606","318","46","36047072400","3213825","3077390043","BK58"
"40502467","FEILHARDT SEYMOUR DMD","2292 RALPH AVENUE","BROOKLYN","11234","Dental X-Ray","40.622301","-73.917566","318","46","36047069200","3219138","3078570001","BK58"
"40501700","DEVIN PLATT - DDS","270 FLATBUSH AVE","BROOKLYN","11217","Dental X-Ray","40.678980","-73.973771","306","39","36047016100","3347102","3009360021","BK64"
"40502472","BARRY DDS PEARLMAN","1507 AVENUE M","BROOKLYN","11230","Dental X-Ray","40.618041","-73.959801","314","44","36047076800","3180675","3067350050","BK43"
"50046444","LENOX HILL RADIOLOGY & MEDICAL IMAGING ASSOC PC","2475 RALPH AVE","BROOKLYN","11234","Non-Hospital X-Ray","40.617684","-73.917067","318","46","36047068600","3236311","3083830014","BK45"
"50015560","HERTELOO PETER","1702 ROCKAWAY PKWY","BROOKLYN","11236","Dental X-Ray","40.639941","-73.896541","318","46","36047099000","3321557","3082420050","BK50"
"41610253","FATAKHOV ROBERT - DDS","5205 CHURCH AVENUE","BROOKLYN","11203","Dental X-Ray","40.652210","-73.928305","317","41","36047086800","3102222","3046780044","BK96"
"41301268","PIKMAN BORIS - DDS","205 AVENUE U 2ND FLOOR","BROOKLYN","11223","Dental X-Ray","40.596642","-73.976371","311","47","36047040000","3191278","3071010051","BK29"
"41674096","AMRANI SAAR - DMD MD","1610 EAST 19 STREET","BROOKLYN","11229","Dental X-Ray","40.610736","-73.954792","315","48","36047055200","3182481","3067810007","BK44"
"50079413","KINGS HIGHWAY ORAL MAXILLOFACIAL SURGERY PC","1610 E 19TH ST","BROOKLYN","11229","Dental CBCT X-Ray","40.610736","-73.954792","315","48","36047055200","3182481","3067810007","BK44"
"40505655","BELL BURT DPM","3065 BRIGHTON 5 STREET","BROOKLYN","11235","Podiatric X-Ray","40.577955","-73.962558","313","48","36047036200","3244868","3086750045","BK19"
"50046440","LENOX HILL RADIOLOGY AND MEDICAL IMAGING ASSOCIATES P.C.","6740 3RD AVE","BROOKLYN","11220","Non-Hospital X-Ray","40.637073","-74.025513","310","43","36047007000","3144616","3058530045","BK31"
"41595990","KIPNIS MARINA - DDS P","2110 BATH AVENUE","BROOKLYN","11214","Dental X-Ray","40.599787","-73.999150","311","47","36047029200","3168940","3064450131","BK27"
"50070489","TU'S DENTAL PLLC","2110 BATH AVE FL 1","BROOKLYN","11214","Dental X-Ray","40.599787","-73.999150","311","47","36047029200","3168940","3064450131","BK27"
"40501880","RACIOPPI PAUL A. JR.-D.D","461 BAY RIDGE PKWY","BROOKLYN","11209","Dental X-Ray","40.630071","-74.023590","310","43","36047013400","3148334","3059300063","BK31"
"50089650","BAY PODIATRY ASSOCIATES PLLC","8635 21ST AVE STE 1C","BROOKLYN","11214","Podiatric X-Ray","40.602524","-73.996827","311","47","36047029000","3166996","3063780019","BK28"
"50017523","CITY MEDICAL OF UPPER EAST SIDE PLLC","228 COURT ST","BROOKLYN","11201","Non-Hospital X-Ray","40.686226","-73.994047","306","39","36047004500","3003421","3003070035","BK33"
"40796675","RINCON GABRIEL - DDS","474 54 STREET","BROOKLYN","11220","Dental X-Ray","40.643286","-74.013361","307","38","36047007600","3014604","3008230038","BK32"
"40503938","MORSY HUSSEIN DDS","1301 KINGS HIGHWAY","BROOKLYN","11229","Dental X-Ray","40.608092","-73.959912","315","48","36047055400","3329257","3067760045","BK25"
"41358554","TYULENEVA OLGA - M.D.","1120 BRIGHTON BEACH AVENUE 1-Z","BROOKLYN","11235","Non-Hospital X-Ray","40.577768","-73.956175","313","48","36047061002","3245724","3087210350","BK19"
"40909299","KOLESNIKOV VADIM - MD","2560 OCEAN AVENUE","BROOKLYN","11229","Non-Hospital X-Ray","40.598882","-73.951322","315","48","36047057800","3199761","3073520011","BK44"
"41009885","LADYZHENSKAYA YELENA-DDS & DR","8520 20 AVENUE 2ND FLOOR","BROOKLYN","11214","Dental X-Ray","40.605041","-73.997821","311","47","36047028400","3329076","3063450039","BK28"
"50058214","SUNSET PARK HEALTH COUNCIL INC","4211 14TH AVE","BROOKLYN","11219","Dental X-Ray","40.637486","-73.985955","312","44","36047023200","3135976","3056000001","BK88"
"50058517","AMAZING SMILES ORTHODONTICS PC","2078 E 65TH ST","BROOKLYN","11234","Dental X-Ray","40.617326","-73.912223","318","46","36047069800","3237029","3084070038","BK45"
"41317930","MOYSEYSTEV KONSTANTIN - DD","1371 ROCKAWAY PKWY","BROOKLYN","11236","Dental X-Ray","40.646315","-73.903612","318","42","36047097400","3229405","3081660030","BK50"
"40501653","YOUNG HENRY DDS","415 73 STREET","BROOKLYN","11209","Dental X-Ray","40.631880","-74.023890","310","43","36047013000","3147448","3059090074","BK31"
"41424858","LEVIN ALEXANDER & JOS","1302 NEWKIRK AVENUE 1C","BROOKLYN","11230","Dental X-Ray","40.634745","-73.964936","314","40","36047052000","3121110","3052340001","BK42"
"40503033","FIELDS MITCHELL R. D","455 OCEAN PARKWAY 1D","BROOKLYN","11218","Dental X-Ray","40.637415","-73.972966","312","39","36047049000","3126839","3053900074","BK41"
"41143873","JEFFREY M. DRESSEL DDS","62 SECOND PLACE","BROOKLYN","11231","Dental X-Ray","40.679930","-73.998857","306","39","36047006500","3005271","3003660006","BK33"
"41528734","DR.MINDY HOMER","62 SECOND PLACE","BROOKLYN","11231","Dental X-Ray","40.679930","-73.998857","306","39","36047006500","3005271","3003660006","BK33"
"50086301","A&R DENTAL GROUP PC","2748 OCEAN AVE APT 2","BROOKLYN","11229","Dental X-Ray","40.594227","-73.950443","315","48","36047059200","3202119","3074040015","BK17"
"41014878","CAMPBELL DOUGLAS - DPM","4801 FORT HAMILTON PKWY","BROOKLYN","11219","Podiatric X-Ray","40.638777","-73.997042","312","44","36047022000","3137333","3056320044","BK88"
"41643658","ROGER GRANNUM - DDS PC","730 BROADWAY 1ST FLOOR","BROOKLYN","11206","Dental X-Ray","40.701116","-73.942581","301","33","36047050700","3061511","3022760024","BK75"
"40513962","KHRAKOVSKY VADIM DDS","2981 AVENUE U","BROOKLYN","11229","Dental X-Ray","40.600669","-73.939779","315","46","36047056600","3199077","3073370047","BK44"
"40498568","SANJURJO LEO DDS","128 STRYKER ST","BROOKLYN","11223","Dental X-Ray","40.590597","-73.972938","315","47","36047038600","3194399","3071730040","BK26"
"41723755","SEMLA-PULASKI HALINA M. - DPM","117 NASSAU AVENUE","BROOKLYN","11222","Podiatric X-Ray","40.724304","-73.949213","301","33","36047057100","3337790","3026480030","BK76"
"41440597","LUSTER JUANA E.- DDS","1376 EAST 15 STREET","BROOKLYN","11230","Dental X-Ray","40.616318","-73.959727","314","48","36047076800","3180896","3067430039","BK43"
"41325812","PASQUALE M. - D DESANTO","8404 13 AVENUE","BROOKLYN","11228","Podiatric X-Ray","40.615133","-74.012819","310","43","36047014800","3164870","3063210041","BK30"
"40539390","PARSHINA VIKTORIYA DDS","2615 EAST 16 STREET 3 FL","BROOKLYN","11235","Dental X-Ray","40.587715","-73.953339","315","48","36047060600","3204966","3074600099","BK17"
"50083706","OLEG PEN","2615 E 16TH ST FL 3","BROOKLYN","11235","Dental X-Ray","40.587715","-73.953339","315","48","36047060600","3204966","3074600099","BK17"
"41207565","SHEN DAI - DDS","726 60 STREET FLOOR 1","BROOKLYN","11220","Dental X-Ray","40.636372","-74.011029","307","38","36047011800","3143594","3057850015","BK34"
"40501962","MAGID BORIS-DDS","887 MANHATTAN AVE","BROOKLYN","11222","Dental X-Ray","40.729916","-73.954141","301","33","36047056500","3064834","3025630044","BK76"
"41003275","VOLOTSENKO DMITRIY","9516 CHURCH AVENUE","BROOKLYN","11212","Dental X-Ray","40.655276","-73.916094","317","42","36047089000","3103564","3047160042","BK96"
"41310259","MOUAZEB MAYA - DDS","709 AVENUE U","BROOKLYN","11223","Dental X-Ray","40.598020","-73.963886","315","47","36047039400","3192104","3071100050","BK25"
"50049690","CARROLL GARDENS DENTAL ASSOCIATES PC","402 COURT ST","BROOKLYN","11231","Dental X-Ray","40.680547","-73.996788","306","39","36047006500","3004973","3003560034","BK33"
"40608641","EISENBERG STEVEN - DDS","3901 NOSTRAND AVE STE LL5 SUITE LL5","BROOKLYN","11235","Dental X-Ray","40.588548","-73.939599","315","48","36047059800","3205436","3074750001","BK17"
"40872360","JEFFREY DACHER - DPM","3901 NOSTRAND AVE","BROOKLYN","11235","Podiatric X-Ray","40.588548","-73.939599","315","48","36047059800","3205436","3074750001","BK17"
"50058209","SUNSET PARK HEALTH COUNCIL INC","825 4TH AVE","BROOKLYN","11232","Dental X-Ray","40.657914","-74.000652","307","38","36047010100","3009847","3006690001","BK32"
"41679287","DR. JOSEPH A. LICHT","1420 AVENUE P","BROOKLYN","11229","Dental X-Ray","40.610323","-73.959248","315","48","36047055400","3397656","3067777501","BK25"
"40500354","OSHRAIN RICHARD DDS","2270 KIMBALL ST","BROOKLYN","11234","Dental X-Ray","40.607280","-73.923653","318","46","36047066200","3242303","3085560080","BK45"
"41053168","RAZIEL AHRON - DDS P.","3915 AVENUE V","BROOKLYN","11234","Dental X-Ray","40.606374","-73.923557","318","46","36047066200","3242303","3085560080","BK45"
"91-3409-01","Joshua Halpern M.D.","2270 KIMBALL STREET","BROOKLYN","11234","Radioactive Materials","40.607280","-73.923653","318","46","36047066200","3242303","3085560080","BK45"
"50032803","TANENBAUM HAROLD","2270 KIMBALL ST BLDG SUITE102","BROOKLYN","11234","Non-Hospital X-Ray","40.607280","-73.923653","318","46","36047066200","3242303","3085560080","BK45"
"50059552","LANCE ADELSON","2270 KIMBALL ST STE 211","BROOKLYN","11234","Dental X-Ray","40.607280","-73.923653","318","46","36047066200","3242303","3085560080","BK45"
"77-0000058","Accord Physicians PLLC","2270 KIMBALL STREET","BROOKLYN","11234","Linear Accelerator","40.607280","-73.923653","318","46","36047066200","3242303","3085560080","BK45"
"91-3037-01","Charles Traube M.D.","2270 KIMBALL ST","BROOKLYN","11234","Radioactive Materials","40.607280","-73.923653","318","46","36047066200","3242303","3085560080","BK45"
"50003102","JING ZHAO DDS PC","2270 KIMBALL ST STE 202","BROOKLYN","11234","Dental X-Ray","40.607280","-73.923653","318","46","36047066200","3242303","3085560080","BK45"
"50018384","ATLANTIC DERMATOLOGIC ASSOCIATES LLP","2270 KIMBALL ST STE 201","BROOKLYN","11234","Non-Hospital X-Ray","40.607280","-73.923653","318","46","36047066200","3242303","3085560080","BK45"
"40501812","COHEN PAUL DDS","447 FULTON STREET FL 2","BROOKLYN","11201","Dental X-Ray","40.691410","-73.987210","302","33","36047001100","3000385","3001510011","BK38"
"50036625","SBK DENTAL LLC","385 4TH AVE UNIT 2","BROOKLYN","11215","Dental X-Ray","40.672076","-73.987267","306","39","36047013700","3420412","3009930006","BK37"
"50015548","CITY MEDICAL OF UPPER EAST SIDE PLLC","154 N 7TH ST","BROOKLYN","11249","Non-Hospital X-Ray","40.718104","-73.958175","301","33","36047055300","3398112","3023270019","BK73"
"40506008","KESCHNER MICHAEL DVM","290 MC DONALD AVENUE","BROOKLYN","11218","Veterinary X-Ray","40.646906","-73.980231","312","39","36047049800","3124106","3053230015","BK41"
"50047467","NEW YORK PROFESSIONAL MEDICAL SERVICES LLC","2444 86TH ST","BROOKLYN","11214","Non-Hospital X-Ray","40.598615","-73.988362","311","47","36047030000","3185589","3068650043","BK29"
"41078346","LO ANGELA- DDS","612 60 STREET","BROOKLYN","11220","Dental X-Ray","40.637832","-74.013450","307","38","36047011800","3143524","3057840012","BK34"
"41320497","FUKS LEONID - DDS","4205 18 AVENUE","BROOKLYN","11218","Dental X-Ray","40.631495","-73.975563","314","44","36047048000","3127668","3054160018","BK42"
"40502856","BORNFELD STEVEN & MARK","1865 OCEAN AVENUE","BROOKLYN","11230","Dental X-Ray","40.616505","-73.954644","314","48","36047075800","3210009","3076560073","BK43"
"40864660","ABDELWAHAB HUSSEIN DDS","3105 CHURCH AVENUE","BROOKLYN","11226","Dental X-Ray","40.650873","-73.948426","317","40","36047081800","3108559","3048690027","BK95"
"40891088","TEMBA F. & ALI A. -","2060 EAST 19 STREET","BROOKLYN","11229","Dental X-Ray","40.600200","-73.952801","315","48","36047057800","3198233","3073230025","BK44"
"50080069","BROOKLYN PLAZA MEDICAL CENTER INC.","297 MYRTLE AVE","BROOKLYN","11205","Non-Hospital X-Ray","40.693377","-73.976074","302","35","36047002901","3335246","3020400001","BK68"
"40498825","COHEN PAUL DDS","327 PENNSYLVANIA AVE","BROOKLYN","11207","Dental X-Ray","40.669600","-73.895269","305","42","36047115600","3084071","3037550002","BK85"
"41498917","SANDS FREDERICK B -","175 MONROE STREET","BROOKLYN","11216","Dental X-Ray","40.685324","-73.951915","303","36","36047024300","3390168","3018120168","BK75"
"50085802","MOUAZEB DENTAL PC","701 AVENUE U","BROOKLYN","11223","Dental X-Ray","40.598011","-73.963947","315","47","36047039400","3192107","3071100053","BK25"
"40620236","FAMILY & PEDIATRIC DEN","4303 13 AVENUE","BROOKLYN","11219","Dental X-Ray","40.638288","-73.988708","312","39","36047023200","3136178","3056050009","BK88"
"40498626","LUBLIN T. & LUBLIN","6820 AVENUE U","BROOKLYN","11234","Dental X-Ray","40.618515","-73.909462","318","46","36047070600","3237588","3084280045","BK45"
"41002325","TABAK ANATOLY & TABAK","3130 BRIGHTON 6 STREET SUITE 1D","BROOKLYN","11235","Dental X-Ray","40.576445","-73.961256","313","48","36047036002","3245101","3086890055","BK19"
"50060169","SOYFER ALEKSANDR DDS","3130 BRIGHTON 6TH ST STE 1G","BROOKLYN","11235","Dental X-Ray","40.576445","-73.961256","313","48","36047036002","3245101","3086890055","BK19"
"40502628","GUTMAN RONALD J. DMD","865 FLATBUSH AVE","BROOKLYN","11226","Dental X-Ray","40.651033","-73.958866","314","40","36047079602","3116852","3050890010","BK60"
"40500570","JULIAN SEEWALD - DDS","167 RUTLEDGE ST","BROOKLYN","11211","Dental X-Ray","40.702261","-73.956757","301","33","36047053300","3060792","3022180042","BK72"
"40500001","SEEWALD JULIAN DDS","2928 AVENUE R","BROOKLYN","11229","Dental X-Ray","40.607401","-73.943057","315","48","36047056400","3184617","3068360001","BK44"
"50046907","NYU LUTHERAN MEDICAL CENTER","46 MCKEEVER PL FL 1","BROOKLYN","11225","Dental X-Ray","40.665035","-73.959031","309","35","36047032500","3034356","3013010001","BK63"
"50068542","SUNSET PARK HEALTH COUNCIL INC. PS 375/352","46 MCKEEVER PL","BROOKLYN","11225","Dental X-Ray","40.665035","-73.959031","309","35","36047032500","3034356","3013010001","BK63"
"40503095","FRENCH-MCLEAN DIANE DDS","551 EAST 26 STREET","BROOKLYN","11210","Dental X-Ray","40.637214","-73.951993","314","45","36047078800","3120884","3052280018","BK42"
"40503705","FERRIOLA JEANNINE-D.D.S.","1701 BAYRIDGE P'KWAY N","BROOKLYN","11204","Dental X-Ray","40.614620","-73.998008","311","43","36047026400","3159610","3062150001","BK28"
"40820560","GEORGE DIACOUMAKOS","7815 5 AVENUE","BROOKLYN","11209","Dental X-Ray","40.627060","-74.023622","310","43","36047013600","3150393","3059710005","BK31"
"50061092","5TH AVENUE DENTAL ASSOCIATES LLP","7815 5TH AVE","BROOKLYN","11209","Dental CBCT X-Ray","40.627060","-74.023622","310","43","36047013600","3150393","3059710005","BK31"
"40508701","COOPERSMITH ZELMAN","2021 AVENUE X","BROOKLYN","11235","Non-Hospital X-Ray","40.592794","-73.949850","315","48","36047059401","3202163","3074050032","BK17"
"91-2792-01","Allen Zelman M.D.","2021 AVENUE X","BROOKLYN","11235","Radioactive Materials","40.592794","-73.949850","315","48","36047059401","3202163","3074050032","BK17"
"50008506","GUO QIAO","5906 7TH AVE","BROOKLYN","11220","Dental X-Ray","40.637297","-74.011281","307","38","36047010200","3016349","3008650043","BK34"
"40503214","HERSKOVITS GARY-D.D.S.","9412 4TH AVE","BROOKLYN","11209","Dental X-Ray","40.616526","-74.030905","310","43","36047005400","3155498","3061140036","BK31"
"40501438","CHU STEVEN K. DDS","3371 FULTON STREET","BROOKLYN","11208","Dental X-Ray","40.683901","-73.871342","305","37","36047118400","3092271","3041310013","BK83"
"50082838","NEW YORK PRESBYTERIAN BROOKLYN METHODIST","38 6TH AVE FL 3","BROOKLYN","11217","Hospital X-Ray","40.681782","-73.974142","306","35","36047012902","3418421","3011180003","BK37"
"41712368","LAU JANICE - DDS","148 ATLANTIC AVENUE","BROOKLYN","11201","Dental X-Ray","40.690376","-73.994883","306","39","36047004500","3002951","3002850023","BK33"
"40500639","KOHN ALAN - DDS","800 OCEAN PARKWAY","BROOKLYN","11230","Dental X-Ray","40.628805","-73.971352","314","44","36047046201","3170327","3065030020","BK42"
"40526262","KAUFMAN MARK DDS","1805 AVENUE J","BROOKLYN","11230","Dental X-Ray","40.625521","-73.958374","314","44","36047076200","3179746","3067110007","BK43"
"40729476","COMITO JR. MICHAEL J. - DD","438 BAYRIDGE PARKWAY","BROOKLYN","11209","Dental X-Ray","40.630274","-74.023961","310","43","36047013400","3148763","3059410022","BK31"
"50060970","AVICHAI STERN DDS PLLC","161 HAVEMEYER ST STE 1","BROOKLYN","11211","Dental X-Ray","40.711306","-73.957714","301","34","36047052300","3063164","3024210003","BK73"
"50061154","AVICHAI STERN DDS PLLC","161 HAVEMEYER ST STE 2","BROOKLYN","11211","Dental CBCT X-Ray","40.711306","-73.957714","301","34","36047052300","3063164","3024210003","BK73"
"41459234","SM DENTAL PC","65 ORIENTAL BOULEVARD","BROOKLYN","11235","Dental X-Ray","40.576831","-73.953411","315","48","36047061004","3245696","3087190038","BK19"
"40513748","ROYZMAN Z. & POZNYANSKY S. DDS","8405 BAY PARKWAY","BROOKLYN","11214","Dental X-Ray","40.602985","-73.992715","311","47","36047029600","3165445","3063360006","BK28"
"50051661","INESSA SAFAROV","2901 OCEAN AVE","BROOKLYN","11235","Dental X-Ray","40.590244","-73.949665","315","48","36047059401","3204594","3074411270","BK17"
"50060946","JUSTIN W BENZVI-DDS","344 AVENUE P","BROOKLYN","11204","Dental X-Ray","40.608571","-73.975135","311","44","36047042400","3175781","3066300014","BK29"
"40505439","GOLOMBECK NEIL-D.P.M.","4715 13 AVENUE","BROOKLYN","11219","Podiatric X-Ray","40.636002","-73.991093","312","44","36047023400","3137230","3056290004","BK88"
"50046426","LENOX HILL RADIOLOGY & MEDICAL IMAGING ASSOCIATES P.C.","2832 LINDEN BLVD","BROOKLYN","11208","Non-Hospital X-Ray","40.669900","-73.859689","305","42","36047122000","3098765","3044950001","BK82"
"50086063","SUNSET PARK HEALTH COUNCIL INC","514 49TH ST BSMT","BROOKLYN","11220","Dental X-Ray","40.645329","-74.009193","307","38","36047009800","3012967","3007840010","BK34"
"50086064","SUNSET PARK HEALTH COUNCIL INC","514 49TH ST BSMT","BROOKLYN","11220","Dental CBCT X-Ray","40.645329","-74.009193","307","38","36047009800","3012967","3007840010","BK34"
"41509821","REFUAH FAMILY DENTAL P.C.","5407 13 AVENUE","BROOKLYN","11219","Dental X-Ray","40.632159","-73.995097","312","44","36047023800","3139406","3056770006","BK88"
"40504056","BUKRINSKY VLADIMIR DDS","1632 EAST 18 STREET","BROOKLYN","11229","Dental X-Ray","40.610305","-73.955675","315","48","36047055200","3182465","3067800012","BK44"
"40505481","ARNOWITZ & MONAKHOURY DPM","1407 AVENUE U","BROOKLYN","11229","Podiatric X-Ray","40.598758","-73.957155","315","48","36047058000","3198081","3073190046","BK44"
"40505990","KAUFMAN C. & JAFFE K. DVM","94 AVENUE U","BROOKLYN","11223","Veterinary X-Ray","40.596121","-73.980908","315","47","36047040200","3192318","3071170004","BK29"
"41571757","FELTON ELAINE - DVM","80 NORTH 1 STREET","BROOKLYN","11249","Veterinary X-Ray","40.716218","-73.963624","301","34","36047055500","3062585","3023790007","BK73"
"40502493","SLOBODSKY STEVE-D.D.S.","2102 BAYRIDGE PARKWAY","BROOKLYN","11204","Dental X-Ray","40.609287","-73.989206","311","44","36047026800","3160422","3062300006","BK28"
"50011116","METROTECH SMILE DENTAL P.C.","350 FULTON ST","BROOKLYN","11201","Dental X-Ray","40.691907","-73.988490","302","33","36047003700","3000419","3001530015","BK38"
"40501839","MICHAEL REGIS - DDS","83 EAST 38 STREET","BROOKLYN","11203","Dental X-Ray","40.655426","-73.942339","317","41","36047081400","3107844","3048430043","BK91"
"50097333","KOHN AND KOLLANDER DENTAL PLLC","2425 KINGS HWY STE A10","BROOKLYN","11229","Dental X-Ray","40.612556","-73.949698","314","48","36047054800","3321003","3067710013","BK44"
"41632170","IRKYAM AULOVA - DDS","2540 OCEAN AVENUE","BROOKLYN","11229","Dental X-Ray","40.599862","-73.951508","315","48","36047057800","3198274","3073240042","BK44"
"40495927","BHANSALI PUSHP MD","2428 OCEAN AVENUE","BROOKLYN","11229","Non-Hospital X-Ray","40.602530","-73.952018","315","48","36047056000","3197030","3072980035","BK44"
"41653802","PERRY COURTNEY - DVM","1103 CHURCH AVENUE","BROOKLYN","11218","Veterinary X-Ray","40.647054","-73.969168","314","40","36047050600","3116382","3050720039","BK42"
"41603182","LANGROODI HOUMAN - DDS","1122 EASTERN PARKWAY","BROOKLYN","11213","Dental X-Ray","40.668815","-73.931582","309","35","36047035100","3330834","3013960040","BK61"
"41469192","WALTROUS KEVIN O - DMD","431 METROPOLITAN AVENUE","BROOKLYN","11211","Dental X-Ray","40.714079","-73.954120","301","33","36047051900","3062284","3023390025","BK73"
"50055460","PEARLY WHITES DENTAL P.C.","857 UNION ST","BROOKLYN","11215","Dental X-Ray","40.674328","-73.975085","306","39","36047015900","3024550","3010630001","BK37"
"50008987","ACE DENTAL OFFICE P.C.","608 E NEW YORK AVE","BROOKLYN","11203","Dental X-Ray","40.662082","-73.942297","309","41","36047080600","3327794","3047940001","BK60"
"41521425","GEYLIKMAN MICHAEL - DDS","2415 AVENUE U","BROOKLYN","11229","Dental X-Ray","40.599838","-73.947356","315","48","36047057600","3336577","3073290049","BK44"
"41610732","SALIFU MORO - MD","3839 FLATLANDS AVENUE","BROOKLYN","11234","Non-Hospital X-Ray","40.620891","-73.935899","318","45","36047073800","3217186","3078170006","BK58"
"50064377","CITY MEDICAL OF UPPER EAST SIDE PLLC","2125 NOSTRAND AVE","BROOKLYN","11210","Non-Hospital X-Ray","40.633547","-73.947730","314","45","36047078600","3205915","3075580051","BK42"
"40996169","TKACHINKO YELENA - DDS","138 BROADWAY ENTER FROM BEDFORD AVE/ UNIT 1 ENTER FROM","BROOKLYN","11211","Dental X-Ray","40.710276","-73.963768","301","34","36047054900","3335294","3021327502","BK73"
"40503619","KIRZHNER ALEXANDER DDS","9401 SEAVIEW AVENUE","BROOKLYN","11236","Dental X-Ray","40.632326","-73.891999","318","46","36047102400","3234364","3082970009","BK50"
"41244292","OCHER - PC ELENA","7401 4 AVENUE","BROOKLYN","11209","Non-Hospital X-Ray","40.631402","-74.024823","310","43","36047013400","3148297","3059300001","BK31"
"40954099","GERALDINE F. SIMEON","114 CLINTON STREET SUITE 1E","BROOKLYN","11201","Dental X-Ray","40.693173","-73.992957","302","33","36047000502","3002212","3002540001","BK09"
"41184117","ZHUKOVSKY LEONARD - D.D.S","1812 QUENTIN ROAD SUITE M1","BROOKLYN","11229","Dental X-Ray","40.608589","-73.955111","315","48","36047055200","3183131","3068017501","BK44"
"40683376","DOBROVA A. & KATS M. - DDS","108 BEVERLY ROAD","BROOKLYN","11218","Dental X-Ray","40.642936","-73.978859","312","39","36047048600","3125227","3053530003","BK41"
"40546376","BENJAMIN MAURICE DDS","624 KINGS HIGHWAY","BROOKLYN","11223","Dental X-Ray","40.605862","-73.966388","315","44","36047041800","3177466","3066630035","BK25"
"50084496","ALL AMERICAN SMILE DENTAL STUDIOS PC","624 KINGS HWY","BROOKLYN","11223","Dental CBCT X-Ray","40.605862","-73.966388","315","44","36047041800","3177466","3066630035","BK25"
"41477819","PARK SLOPE DENTAL AS","592 5 AVENUE","BROOKLYN","11215","Dental X-Ray","40.664410","-73.990333","307","39","36047014100","3024139","3010520053","BK37"
"50085558","KONSTANTINOS KALLINIKOS","626 SHEEPSHEAD BAY RD OFC 310","BROOKLYN","11224","Podiatric X-Ray","40.578979","-73.975261","313","48","36047035400","3426835","3072790006","BK23"
"41093672","MOUSTAFAEVA ELVISSA - DDS","132 OCEAN VIEW AVE","BROOKLYN","11235","Dental X-Ray","40.578480","-73.967342","313","48","36047036200","3244567","3086690001","BK19"
"41261039","GOUZ ANDRIJ - DDS","502A ATLANTIC AVE","BROOKLYN","11217","Dental X-Ray","40.685618","-73.981478","302","33","36047003900","3339429","3001850118","BK38"
"40503803","REICH ESTHER DMD","1305 PRESIDENT STREET","BROOKLYN","11213","Dental X-Ray","40.667843","-73.946319","309","35","36047033500","3033319","3012770061","BK63"
"40501638","LICHT ROBERT J. DDS","6410 VETERANS AVE","BROOKLYN","11234","Dental X-Ray","40.619645","-73.915570","318","46","36047069800","3236428","3083860031","BK45"
"41469844","CHAKOTE VAIJINATH - M.D.","6410 VETERANS AVE","BROOKLYN","11234","Non-Hospital X-Ray","40.619645","-73.915570","318","46","36047069800","3236428","3083860031","BK45"
"40503588","MILMAN LYOBOV DDS","2260 BENSON AVE","BROOKLYN","11214","Dental X-Ray","40.599197","-73.993896","311","47","36047029600","3168100","3064170039","BK28"
"40502315","JOSHI SATISH DDS","2139 BEVERLY ROAD","BROOKLYN","11226","Dental X-Ray","40.644608","-73.957620","314","40","36047079200","3117859","3051320046","BK95"
"41396822","NADLER GARY - DDS","357 MCDONALD AVE","BROOKLYN","11218","Dental X-Ray","40.645393","-73.979925","312","39","36047049800","3336257","3053240051","BK41"
"50095775","MK SMILE DENTAL PC","2860 OCEAN AVE APT A1","BROOKLYN","11235","Dental X-Ray","40.591602","-73.949944","315","48","36047059200","3203147","3074210016","BK17"
"40916973","PATRICK J. SCIORTINO - DDS","459 BAY RIDGE PKWY","BROOKLYN","11209","Dental X-Ray","40.630090","-74.023623","310","43","36047013400","3148335","3059300064","BK31"
"50039701","PRO HEALTH URGENT CARE MEDICINE PLLC","4108 AVENUE U","BROOKLYN","11234","Non-Hospital X-Ray","40.608919","-73.923918","318","46","36047066200","3242315","3085580044","BK45"
"41301451","NASIMOV EMIL - DDS","261 OCEAN PKWY","BROOKLYN","11218","Dental X-Ray","40.642905","-73.974009","312","39","36047049400","3125471","3053580001","BK41"
"50083335","SUNSET PARK HEALTH COUNCIL INC PS12 MS 484","430 HOWARD AVE","BROOKLYN","11233","Dental X-Ray","40.673073","-73.919594","316","41","36047036300","3039174","3014570032","BK79"
"41456614","KADAA ALBERT E - DDS","2162 EAST 7 STREET","BROOKLYN","11223","Dental X-Ray","40.597523","-73.964030","315","47","36047039200","3193035","3071330011","BK25"
"50046432","LENOX HILL RADIOLOGY & MEDICAL IMAGING ASSOCIATES PC","1414 NEWKIRK AVE","BROOKLYN","11226","Non-Hospital X-Ray","40.635198","-73.963992","314","40","36047052000","3121146","3052350005","BK42"
"40500928","OLIPHANT ANDREW DDS","1201 CORTELYOU RD","BROOKLYN","11218","Dental X-Ray","40.640106","-73.966919","314","40","36047152200","3118320","3051430084","BK42"
"40503755","CHIHA ANTOINE-D.D.S.","8440 FT. HAMILTON P'KWAY","BROOKLYN","11209","Dental X-Ray","40.621227","-74.023299","310","43","36047014200","3152871","3060270045","BK31"
"40728318","NICHOLAS - DDS VERNICE","355 OVINGTON AVENUE SUITE 201","BROOKLYN","11209","Dental X-Ray","40.634188","-74.024874","310","43","36047006800","3145714","3058727501","BK31"
"41531716","VINCENT A. SETTECASE","355 OVINGTON AVENUE STE 100 & 101","BROOKLYN","11209","Dental X-Ray","40.634188","-74.024874","310","43","36047006800","3145714","3058727501","BK31"
"50046258","PREMIER HEALTHCARE INC","175 REMSEN ST","BROOKLYN","11201","Dental X-Ray","40.693307","-73.991634","302","33","36047000900","3002095","3002500007","BK09"
"40701808","MELISO VINCENT -DPM","411 GRAHAM AVENUE","BROOKLYN","11211","Podiatric X-Ray","40.717188","-73.944832","301","34","36047049700","3068306","3027440022","BK90"
"40592570","GORDEN Z. & YEROSHALMI R. DDS","1537 51 STREET","BROOKLYN","11219","Dental X-Ray","40.630712","-73.987974","312","44","36047023600","3129367","3054580064","BK88"
"41625434","AMINOV STELLA - DDS","1390 PENNSYLVANIA AVE","BROOKLYN","11239","Dental X-Ray","40.647788","-73.881704","305","42","36047105804","3345673","3044520015","BK93"
"50090618","STARRETT CITY DENTAL GROUP ASSOCIATES P.C.","1390 PENNSYLVANIA AVE","BROOKLYN","11239","Dental CBCT X-Ray","40.647788","-73.881704","305","42","36047105804","3345673","3044520015","BK93"
"40501678","AVI DDS KARLOVSKY","2374 RALPH AVENUE","BROOKLYN","11234","Dental X-Ray","40.620154","-73.917338","318","46","36047069000","3220534","3078840078","BK58"
"40506392","KAPLAN A. & GOTTLIEB J. D.C.","2378 A RALPH AVENUE","BROOKLYN","11234","Non-Hospital X-Ray","40.620088","-73.917331","318","46","36047069000","3220534","3078840078","BK58"
"50033851","SANTI PODIATRY GROUP","240 E 5TH ST","BROOKLYN","11218","Podiatric X-Ray","40.646707","-73.976152","312","39","36047050000","3124259","3053270021","BK40"
"40503025","KOTLYAR YURY DDS","2044 OCEAN AVENUE SUITE A-10","BROOKLYN","11230","Dental X-Ray","40.612086","-73.953826","314","48","36047054600","3182045","3067660036","BK43"
"40503837","GERTSBERG YAKOV DDS","561 EAST 3 STREET","BROOKLYN","11218","Dental X-Ray","40.638618","-73.976493","312","39","36047048800","3253197","3053720049","BK41"
"40563988","LUKOVSKY MICHAEL & LUDMILA DDS","1101 FLATBUSH AVE","BROOKLYN","11226","Dental X-Ray","40.643507","-73.957783","314","40","36047079200","3118899","3051650069","BK95"
"40910387","DRS. RABICHEV ALEX & ANNA - D","2583 OCEAN AVENUE","BROOKLYN","11229","Dental X-Ray","40.598451","-73.951218","315","48","36047057800","3199831","3073530062","BK44"
"40503090","SHAH VIRENDRA DDS","4607 5 AVENUE","BROOKLYN","11220","Dental X-Ray","40.647234","-74.008094","307","38","36047009600","3011893","3007570006","BK34"
"40499486","GENTILE GARY DDS","239 KINGS HIGHWAY","BROOKLYN","11223","Dental X-Ray","40.605361","-73.981831","311","44","36047042600","3176663","3066480001","BK29"
"41068089","SEDGH SHAHRYAR - DDS","738 BROADWAY","BROOKLYN","11206","Dental X-Ray","40.700943","-73.942303","301","33","36047050700","3061512","3022760028","BK75"
"41343481","SHYKNEVSKY - DDS JOSEPH","1707 AVENUE P","BROOKLYN","11229","Dental X-Ray","40.610640","-73.956521","314","48","36047054400","3181971","3067640052","BK43"
"50060231","JS ATLANTIC DENTAL PC","1707 AVENUE P","BROOKLYN","11229","Dental X-Ray","40.610640","-73.956521","314","48","36047054400","3181971","3067640052","BK43"
"40508196","CROWN NURSING HOME (","3457 NOSTRAND AVENUE","BROOKLYN","11229","Dental X-Ray","40.599712","-73.941742","315","46","36047057000","3200284","3073630009","BK17"
"41704379","GARY L. THOMAS - DDS","304 DEKALB AVENUE","BROOKLYN","11205","Dental X-Ray","40.689622","-73.966508","302","35","36047019700","3321860","3019310022","BK69"
"41680884","RAPHAEL - DDS GADEH","813 QUENTIN ROAD SUITE 100","BROOKLYN","11223","Dental X-Ray","40.607561","-73.964601","315","44","36047042000","3176237","3066400038","BK25"
"50084945","NYU LANGONE PREMIER IMAGING AT MIDWOOD","813 QUENTIN RD","BROOKLYN","11223","Non-Hospital X-Ray","40.607561","-73.964601","315","44","36047042000","3176237","3066400038","BK25"
"40565955","MEDISYS FAMILY CARE CEN","3080 ATLANTIC AVENUE RADIOLOGY","BROOKLYN","11208","Non-Hospital X-Ray","40.678924","-73.881245","305","37","36047116800","3327125","3039730024","BK82"
"50017175","GOLDSTEP AMBULATORY SURGERY CENTER LLC","3007 FARRAGUT RD FL 4","BROOKLYN","11210","Non-Hospital X-Ray","40.636287","-73.947828","317","45","36047078800","3113775","3049940006","BK42"
"50017215","BE WELL PRIMARY HEALTH CARE CENTER LLC","3007 FARRAGUT RD","BROOKLYN","11210","Non-Hospital X-Ray","40.636287","-73.947828","317","45","36047078800","3113775","3049940006","BK42"
"41532073","DR. LINDA I. KUCKEL","277 FLATBUSH AVENUE","BROOKLYN","11217","Veterinary X-Ray","40.679438","-73.974081","308","35","36047016100","3028342","3011500015","BK64"
"41747177","KELLER MELINDA - DC","5911 16 AVENUE","BROOKLYN","11204","Non-Hospital X-Ray","40.625256","-73.991516","312","44","36047024200","3131706","3055100001","BK88"
"50039764","PRIMARY DIAGNOSTIC IMAGING PC","1608 59TH ST","BROOKLYN","11204","Non-Hospital X-Ray","40.625201","-73.990965","312","44","36047024200","3131706","3055100001","BK88"
"40507621","HOME MENORAH NURSING","1516 ORIENTAL BOULEVARD # 446","BROOKLYN","11235","Dental X-Ray","40.578348","-73.939421","315","48","36047061600","3246887","3087600200","BK17"
"41682027","LAWRENCE HARVEY - CEO","592 ROCKAWAY AVENUE 1ST FLOOR","BROOKLYN","11212","Dental X-Ray","40.665520","-73.909680","316","41","36047092400","3081790","3035600026","BK81"
"50067289","PURE DENTISTRY CARE PC","641 53RD ST","BROOKLYN","11220","Dental X-Ray","40.641524","-74.008897","307","38","36047010000","3014047","3008090057","BK34"
"40495676","SHAPIRO GOLDMAN & TAWIL","130 BRIGHTON BEACH AVE","BROOKLYN","11235","Non-Hospital X-Ray","40.576348","-73.967314","313","48","36047036001","3245027","3086800027","BK19"
"40501379","NASHTATIK OLEG DDS","2006 AVENUE M","BROOKLYN","11210","Dental X-Ray","40.618572","-73.954834","314","48","36047075800","3210001","3076560037","BK43"
"40500836","LEZHANSKY VALENTIN DDS","3060 OCEAN AVENUE","BROOKLYN","11235","Dental X-Ray","40.586733","-73.949023","315","48","36047060000","3205035","3074640035","BK17"
"50095133","VALENTINE LEZHANSKY","3060 OCEAN AVE STE LN","BROOKLYN","11235","Dental CBCT X-Ray","40.586733","-73.949023","315","48","36047060000","3205035","3074640035","BK17"
"40502134","DYM HARRY DDS","1001 EAST 29 STREET","BROOKLYN","11210","Dental X-Ray","40.626309","-73.947793","314","45","36047075000","3207862","3076110044","BK43"
"40880773","PINNACLE DIAGNOSTIC RADI","848 49TH ST","BROOKLYN","11220","Non-Hospital X-Ray","40.641014","-74.002047","312","38","36047010800","3253375","3056370024","BK34"
"91-3579-01","Joshua Kerstein M.D.","848 49TH ST","BROOKLYN","11220","Radioactive Materials","40.641014","-74.002047","312","38","36047010800","3253375","3056370024","BK34"
"41681604","FIRDMAN VADIM - DDS","1724 AVENUE Z","BROOKLYN","11235","Dental X-Ray","40.588200","-73.952143","315","48","36047060000","3204970","3074620007","BK17"
"50088501","INTERFAITH MEDICAL CENTER","1536 BEDFORD AVE","BROOKLYN","11216","Dental CBCT X-Ray","40.670723","-73.955065","308","35","36047021900","3032563","3012590036","BK61"
"40963641","DUONE WRIGHT","1536 BEDFORD AVE","BROOKLYN","11216","Dental X-Ray","40.670723","-73.955065","308","35","36047021900","3032563","3012590036","BK61"
"50085868","NP VIP DENTAL CARE PC","1901 AVENUE N STE 1","BROOKLYN","11230","Dental X-Ray","40.616064","-73.955606","314","48","36047053800","3181131","3067480052","BK43"
"50038541","ENDODONTIC CARE NY","2523 OCEAN AVE","BROOKLYN","11229","Dental X-Ray","40.600150","-73.951541","315","48","36047057800","3392803","3073257504","BK44"
"50078623","ENDODONTIC CARE OF NY PC","2523 OCEAN AVE","BROOKLYN","11229","Dental CBCT X-Ray","40.600150","-73.951541","315","48","36047057800","3392803","3073257504","BK44"
"40503444","MISHRA DEV DDS","1388 ST JOHNS PLACE","BROOKLYN","11213","Dental X-Ray","40.670652","-73.932362","308","35","36047035100","3037064","3013840026","BK61"
"50069908","SUNSET PARK HEALTH COUNCIL INC","3414 CHURCH AVE","BROOKLYN","11203","Dental X-Ray","40.651014","-73.945471","317","45","36047085600","3109422","3048880007","BK91"
"50061009","VETERINARY WELLNESS CENTER PC","96 3RD AVE STO","BROOKLYN","11217","Veterinary X-Ray","40.683518","-73.981940","302","33","36047003900","3335919","3001970040","BK38"
"50052230","STEVEN FEINSTEIN","2516 E 13TH ST BLDG 1","BROOKLYN","11235","Dental X-Ray","40.589442","-73.956510","315","48","36047058800","3203882","3074330013","BK25"
"50062732","STEVEN FEINSTEIN DDS","2516 E 13TH ST","BROOKLYN","11235","Dental CBCT X-Ray","40.589442","-73.956510","315","48","36047058800","3203882","3074330013","BK25"
"41308310","IZZO JOSEPH & STEVEN","7810 13 AVENUE","BROOKLYN","11228","Dental X-Ray","40.618465","-74.009355","310","43","36047020000","3336389","3062550041","BK30"
"50046433","LENOX HILL RADIOLOGY & MEDICAL IMAGING ASSOCIATES PC","546 EASTERN PKWY","BROOKLYN","11225","Non-Hospital X-Ray","40.669826","-73.949958","309","35","36047031900","3032928","3012690007","BK63"
"40914109","SANIN VICTOR - D.D.S.","2875 WEST 8 STREET","BROOKLYN","11224","Dental X-Ray","40.578452","-73.976320","313","48","36047035400","3196590","3072790153","BK23"
"50058400","NEW YORK DENTAL HEALTH P C","308 GRAHAM AVE","BROOKLYN","11211","Dental X-Ray","40.712982","-73.944118","301","34","36047049500","3338173","3027770007","BK90"
"40504051","BODEK MARTIN H. DDS","1491 FLATBUSH AVE","BROOKLYN","11210","Dental X-Ray","40.634160","-73.949026","314","45","36047078600","3121670","3052510001","BK42"
"40500466","SORSCHER YEHUDA DDS","4435 18TH AVE","BROOKLYN","11204","Dental X-Ray","40.630557","-73.977548","312","44","36047047600","3128725","3054390031","BK88"
"40503966","SMITH ROBERT DDS","7919 FLATLANDS AVE","BROOKLYN","11236","Dental X-Ray","40.635157","-73.913839","318","46","36047095000","3224225","3080000001","BK50"
"40598040","VENTERINA VALERIE - DDS","8510 BAY 16 STREET","BROOKLYN","11214","Dental X-Ray","40.608617","-74.003634","311","43","36047017800","3165730","3063430017","BK27"
"40782182","PEREZ VERIDIANO NORMA - M.D.","1340 ROCKAWAY PKWY","BROOKLYN","11236","Non-Hospital X-Ray","40.646947","-73.904357","318","42","36047097000","3229056","3081460060","BK50"
"41681660","DR. DAVID THIERMAN","849 57 STREET","BROOKLYN","11220","Non-Hospital X-Ray","40.636548","-74.006694","312","38","36047010400","3398242","3056867503","BK34"
"50045800","JIE LING DENTAL PC","849 57TH ST FL 5TH","BROOKLYN","11220","Dental X-Ray","40.636548","-74.006694","312","38","36047010400","3398242","3056867503","BK34"
"91-3470-01","David H. Thierman M.D.","849 57TH STREET","BROOKLYN","11220","Radioactive Materials","40.636548","-74.006694","312","38","36047010400","3398242","3056867503","BK34"
"40503793","LORBER GEORGE DDS","1359 49 STREET","BROOKLYN","11219","Dental X-Ray","40.634281","-73.990870","312","44","36047023400","3332943","3056357502","BK88"
"40507392","EAST N.Y.NEIGHBORHOO","2094 PITKIN AVENUE","BROOKLYN","11207","Non-Hospital X-Ray","40.671977","-73.895248","305","42","36047114400","3083929","3037380015","BK85"
"40501441","WORDIE SAMUEL N. DDS","160 PARKSIDE AVENUE","BROOKLYN","11226","Dental X-Ray","40.654469","-73.962911","314","40","36047050804","3115913","3050530018","BK42"
"40503145","WOODS LARITA-D.M.D.","160 PARKSIDE AVENUE","BROOKLYN","11226","Dental X-Ray","40.654469","-73.962911","314","40","36047050804","3115913","3050530018","BK42"
"41740791","BROWN UNTRAY T. - DDS","55 GREENE AVENUE STE C","BROOKLYN","11238","Dental X-Ray","40.686151","-73.970751","302","35","36047018100","3000000","3021207501","BK68"
"40502918","PLANZOS THOMAS-D.M.D.","7815 4TH AVE","BROOKLYN","11209","Dental X-Ray","40.628465","-74.026021","310","43","36047013600","3150337","3059700006","BK31"
"50050006","THOMAS PLANZOS","7815 4TH AVE","BROOKLYN","11209","Dental CBCT X-Ray","40.628465","-74.026021","310","43","36047013600","3150337","3059700006","BK31"
"41711290","SHAW NEIL - DVM","32 4 AVENUE","BROOKLYN","11217","Veterinary X-Ray","40.683674","-73.978832","302","33","36047003900","3001201","3001920034","BK38"
"40501289","CHARLES PTAK-DDS","92 NORMAN AVENUE","BROOKLYN","11222","Dental X-Ray","40.725529","-73.951431","301","33","36047056900","3066071","3026470003","BK76"
"50070962","BROOKLYN PEDIATRIC DENTISTRY PC","2522 OCEAN AVE","BROOKLYN","11229","Dental X-Ray","40.600186","-73.951569","315","48","36047057800","3198272","3073240035","BK44"
"41217428","MICHAEL TRIMBA - MD","2417 OCEAN AVENUE","BROOKLYN","11229","Non-Hospital X-Ray","40.602712","-73.952028","315","48","36047056000","3197094","3072997501","BK44"
"40505681","MONTALVO LUIS-D.P.M.","7523 FT HAMILTON PARKWAY N","BROOKLYN","11228","Podiatric X-Ray","40.625615","-74.016719","310","43","36047020600","3148924","3059450001","BK30"
"41532470","OUZIDANE ABDELAZIZ - DMD","7523 FORT HAMILTON PARKWAY","BROOKLYN","11228","Dental X-Ray","40.625615","-74.016719","310","43","36047020600","3148924","3059450001","BK30"
"50086116","YOUR SMILE DENTAL CARE PC","162 NORMAN AVE","BROOKLYN","11222","Dental X-Ray","40.726691","-73.947913","301","33","36047057100","3066260","3026510006","BK76"
"41429761","YANG JANE - DDS","5611 7 AVENUE","BROOKLYN","11220","Dental X-Ray","40.638955","-74.009527","307","38","36047010400","3015505","3008420006","BK34"
"41628191","LANDMAN STEVEN - DPM","66 COURT STREET","BROOKLYN","11201","Non-Hospital X-Ray","40.691935","-73.991291","302","33","36047000900","3002543","3002650001","BK09"
"41572733","DR. ANNA GASPAROVA","1502 EAST 14 STREET","BROOKLYN","11230","Dental X-Ray","40.612470","-73.959942","314","48","36047054200","3253717","3067600006","BK43"
"41234046","KLEIN D.D.S. CHAIM","1915 AVENUE Z","BROOKLYN","11235","Dental X-Ray","40.588454","-73.949979","315","48","36047059200","3204133","3074400049","BK17"
"41593100","DR. MARGARET MASON","180 6 AVENUE","BROOKLYN","11217","Dental X-Ray","40.676340","-73.977367","306","39","36047013100","3019597","3009500024","BK37"
"50061251","SUNSET PARK HEALTH COUNCIL INC","180 6TH AVE","BROOKLYN","11217","Dental X-Ray","40.676340","-73.977367","306","39","36047013100","3019597","3009500024","BK37"
"41649642","MIKHAIL ENTIN - DDS","3692 BEDFORD AVENUE","BROOKLYN","11229","Dental X-Ray","40.612147","-73.948960","315","48","36047054800","3396874","3067710037","BK44"
"41679310","QUARTEY TRICIA - DMD","340A 9 STREET","BROOKLYN","11215","Dental X-Ray","40.668650","-73.985249","306","39","36047013900","3022279","3010110022","BK37"
"41314352","SCHWARTZ JONATHAN - DDS","1462 EAST 26 STREET","BROOKLYN","11210","Dental X-Ray","40.615243","-73.948565","314","48","36047075600","3210963","3076790079","BK43"
"40499333","SOFER SYLVAIN DDS","1011 AVENUE J","BROOKLYN","11230","Dental X-Ray","40.624689","-73.965950","312","44","36047045600","3171001","3065230046","BK43"
"40502424","RASHED RASHED SAYED D","475 61 STREET","BROOKLYN","11220","Dental X-Ray","40.639330","-74.017465","307","38","36047012200","3143446","3057820042","BK32"
"50069917","SUNSET PARK HEALTH COUNCIL INC","220 13TH ST","BROOKLYN","11215","Dental X-Ray","40.667602","-73.990051","306","39","36047014100","3339179","3010340068","BK37"
"40498407","STEIN JEFFREY H. DD","805 STANLEY AVE","BROOKLYN","11207","Dental X-Ray","40.661325","-73.879344","305","42","36047111600","3097716","3043590028","BK82"
"50044811","MERMAID DENTAL ARTS P.C.","2423 MERMAID AVE FRNT","BROOKLYN","11224","Dental X-Ray","40.575899","-73.991461","313","47","36047032600","3188889","3070140051","BK21"
"50052637","PARK SLOPE DENTAL ARTS PLLC","506 3RD ST","BROOKLYN","11215","Dental X-Ray","40.670335","-73.978209","306","39","36047015500","3025407","3010800008","BK37"
"40502439","LATWAJTYS KRYSTYNA-D.D.S.","861 MANHATTAN AVE","BROOKLYN","11222","Dental X-Ray","40.729296","-73.953878","301","33","36047056500","3337621","3025660041","BK76"
"50034304","LI RONG JUN","5422 FORT HAMILTON PKWY","BROOKLYN","11219","Non-Hospital X-Ray","40.635843","-74.001459","312","38","36047011600","3139216","3056730054","BK88"
"50069435","RONGJUN LI","5422 FORT HAMILTON PKWY","BROOKLYN","11219","Non-Hospital X-Ray","40.635843","-74.001459","312","38","36047011600","3139216","3056730054","BK88"
"40505790","KAISER ALLAN-P.C. D.O.","800 GREENWOOD AVE","BROOKLYN","11218","Non-Hospital X-Ray","40.652377","-73.973339","307","39","36047050400","3122873","3052870021","BK40"
"40501909","SCHWARTZ MICHAEL DDS","1528 49 STREET","BROOKLYN","11219","Dental X-Ray","40.631895","-73.986951","312","44","36047023600","3129134","3054530018","BK88"
"41254326","RUBEN D. CUETO - D.D.S.","278 WILSON AVE","BROOKLYN","11237","Dental X-Ray","40.696990","-73.919212","304","37","36047041900","3075652","3033060028","BK78"
"50065687","GLENWOOD DENTAL CARE PLLC","1569 RALPH AVE","BROOKLYN","11236","Dental X-Ray","40.638974","-73.919318","318","46","36047095000","3222456","3079570017","BK50"
"41200289","DEUTSCH RONALD - DDS","2016 AVENUE M","BROOKLYN","11210","Dental X-Ray","40.618580","-73.954762","314","48","36047075800","3210000","3076560034","BK43"
"40508426","SAINT JOACHIM & SAINT","2720 SURF AVENUE DENTAL DEPARTMENT DENTAL DEP","BROOKLYN","11224","Dental X-Ray","40.573135","-73.993078","313","47","36047034000","3336552","3070690001","BK21"
"40730328","GENAO JOSE A. - DDS","162 GRAHAM AVE","BROOKLYN","11206","Dental X-Ray","40.707097","-73.943153","301","34","36047049300","3071213","3030620007","BK78"
"91-3681-01","Timothy Jayasundera M.D.","1678 UTICA AVENUE","BROOKLYN","11234","Radioactive Materials","40.631500","-73.928233","318","45","36047072200","3214500","3077530068","BK58"
"50039996","FRANK RINALDI","1721 86TH ST OFC","BROOKLYN","11214","Podiatric X-Ray","40.608219","-74.004217","311","43","36047017800","3165731","3063430019","BK27"
"40943428","GOLDMAN LANA - DDS","215 5 AVENUE","BROOKLYN","11215","Dental X-Ray","40.676091","-73.980666","306","39","36047013300","3020112","3009560006","BK37"
"50089308","GENTLE DENTAL ASSOCIATES LLC","215 5TH AVE FRNT","BROOKLYN","11215","Dental X-Ray","40.676091","-73.980666","306","39","36047013300","3020112","3009560006","BK37"
"40504647","MITCHELL SIEGEL - DPM","338 9 STREET","BROOKLYN","11215","Podiatric X-Ray","40.668681","-73.985307","306","39","36047013900","3022277","3010110020","BK37"
"41721606","MASHIHI RONY - DDS","7 BAY 28 STREET","BROOKLYN","11214","Dental X-Ray","40.602480","-73.995668","311","47","36047029000","3167040","3063790038","BK28"
"50083362","UNION MEDICAL CARE LLC","4502 13TH AVE","BROOKLYN","11219","Non-Hospital X-Ray","40.637177","-73.989893","312","44","36047022200","3328598","3056160035","BK88"
"40660646","EVANS CHARMAINE - DDS","549 EAST 26 STREET","BROOKLYN","11210","Dental X-Ray","40.637252","-73.952000","314","45","36047078800","3120921","3052280118","BK42"
"41578911","POINDEXTER AYANNA F. - DMD","309 LAFAYETTE AVENUE LOBBY M","BROOKLYN","11238","Dental X-Ray","40.688468","-73.963664","302","35","36047019300","3055375","3019330060","BK69"
"41245810","BAKER PAUL & CHIONCHI","805 UNION ST","BROOKLYN","11215","Dental X-Ray","40.675184","-73.977288","306","39","36047015900","3019892","3009540070","BK37"
"50089416","PARK SLOPE ORAL & MAXILLOFACIAL SURGERY ASSOCIATES LLP","805 UNION ST","BROOKLYN","11215","Dental X-Ray","40.675184","-73.977288","306","39","36047015900","3019892","3009540070","BK37"
"50093430","PARK SLOPE ORAL & MAXILLOFACIAL SURGERY PLLC","805 UNION ST STE A","BROOKLYN","11215","Dental CBCT X-Ray","40.675184","-73.977288","306","39","36047015900","3019892","3009540070","BK37"
"41567001","DR. WILLIAM BONGIOR","1278 72 STREET","BROOKLYN","11228","Dental X-Ray","40.622407","-74.006290","310","43","36047020000","3158237","3061880038","BK30"
"50058207","SUNSET PARK HEALTH COUNCIL INC","4004 4TH AVE","BROOKLYN","11232","Dental X-Ray","40.651977","-74.006862","307","38","36047008200","3010580","3007130020","BK32"
"40499964","WEINSTEIN RUDOLPH DDS","1215 AVENUE M","BROOKLYN","11230","Dental X-Ray","40.617710","-73.962582","314","44","36047076800","3180612","3067320045","BK43"
"40503740","FIREWORKER N. & KRUPKA B. DDS","705 AVENUE L","BROOKLYN","11230","Dental X-Ray","40.619581","-73.968002","312","44","36047045200","3171404","3065330054","BK46"
"40499531","GALLI JOHN A. DDS","365 BAY RIDGE PKWY","BROOKLYN","11209","Dental X-Ray","40.631089","-74.026149","310","43","36047006600","3148283","3059290052","BK31"
"40791135","ROSEN MARK - DDS","1 MARGARET CT","BROOKLYN","11235","Dental X-Ray","40.588883","-73.957421","315","48","36047058800","3203883","3074330019","BK25"
"50044226","FLAWLESS DENTAL PC","175 HEWES ST APT GROUND","BROOKLYN","11211","Dental X-Ray","40.703365","-73.958058","301","33","36047053300","3060335","3022050034","BK72"
"41697572","HERNANDEZ SUSAN - DMD","424 BAY RIDGE PARKWAY","BROOKLYN","11209","Dental X-Ray","40.630411","-74.024188","310","43","36047013400","3148757","3059410016","BK31"
"41219930","TITOV IGOR - DDS","602 FLATBUSH AVENUE","BROOKLYN","11225","Dental X-Ray","40.658925","-73.960537","309","40","36047079802","3114606","3050260151","BK60"
"41715258","JACK KASSAB - DDS","1176 LIBERTY AVENUE","BROOKLYN","11208","Dental X-Ray","40.678872","-73.865839","305","37","36047118800","3094467","3042040018","BK83"
"40500382","JAMES WALLETT - DDS","8011 5 AVENUE","BROOKLYN","11209","Dental X-Ray","40.625616","-74.024208","310","43","36047013800","3151359","3059900006","BK31"
"40499286","SCHWEIKERT EDGAR - DDS","429 77 STREET","BROOKLYN","11209","Dental X-Ray","40.628893","-74.024815","310","43","36047013600","3149284","3059510073","BK31"
"41707258","ZAWIE STEPHEN E. - D.","7424 20 AVENUE","BROOKLYN","11204","Veterinary X-Ray","40.611258","-73.991349","311","47","36047026800","3159751","3062170044","BK28"
"50047341","56/7 DENTAL OFFICE","7801 20TH AVE","BROOKLYN","11214","Dental X-Ray","40.609034","-73.993636","311","47","36047027200","3162299","3062630011","BK28"
"41628066","BRODETSKIY IGOR","2222 AVENUE X","BROOKLYN","11235","Veterinary X-Ray","40.592993","-73.947905","315","48","36047059401","3203270","3074220310","BK17"
"41006193","DRUT OLEG - DDS","79 AVENUE U","BROOKLYN","11223","Dental X-Ray","40.596069","-73.981542","311","47","36047040200","3190900","3070957501","BK29"
"40619008","LERMAN JAY - MD","6511 FORT HAMILTON PKWY","BROOKLYN","11219","Non-Hospital X-Ray","40.630512","-74.009389","310","38","36047021200","3142137","3057507501","BK30"
"91-3266-01","Jay Lerman M.D.","6511 FT. HAMILTON PARKWAY","BROOKLYN","11219","Radioactive Materials","40.630512","-74.009389","310","38","36047021200","3142137","3057507501","BK30"
"41132553","SHAMTOUB KOOROSH -DDS.","9413 FLATLANDS AVE STE 102W SUITE 102W","BROOKLYN","11236","Dental X-Ray","40.642230","-73.902897","318","46","36047096800","3254769","3081820001","BK50"
"41155630","RABIEI PAYMAN - DPM","9413 FLATLANDS AVENUE SUITE E201 ROOM 1 SUITE E201","BROOKLYN","11236","Podiatric X-Ray","40.642230","-73.902897","318","46","36047096800","3254769","3081820001","BK50"
"40921004","KHELEMSKYMAKSIM KHELEMSKY - D.D.S.","270 AVENUE P","BROOKLYN","11204","Dental X-Ray","40.608258","-73.977970","311","44","36047042400","3175617","3066270008","BK29"
"40505367","STROGOV EMILIA DPM","1068 48 STREET","BROOKLYN","11219","Podiatric X-Ray","40.638621","-73.996573","312","44","36047022000","3137335","3056320047","BK88"
"40959824","GOLDER GREGORY - DDS","7101 BAY PKWY STE 1J SUITE 1J","BROOKLYN","11204","Dental X-Ray","40.610038","-73.985378","311","44","36047043000","3174065","3065950005","BK29"
"41698429","SAVCHUK REGINA - DDS","1711 NEWKIRK AVENUE","BROOKLYN","11226","Dental X-Ray","40.636473","-73.961386","314","40","36047051800","3423992","3052030041","BK42"
"40790087","ARIOLA GABRIEL D. - DD","8641 19 AVENUE","BROOKLYN","11214","Dental X-Ray","40.605055","-74.001358","311","47","36047028400","3166749","3063720032","BK28"
"41671154","BAUM HOWARD I. - M.D","2950 AVENUE R","BROOKLYN","11229","Non-Hospital X-Ray","40.607472","-73.942413","315","48","36047056400","3184665","3068360109","BK44"
"50062466","ST. FRANCIS ANIMAL HOSPITAL PC","7303 13TH AVE","BROOKLYN","11228","Veterinary X-Ray","40.621370","-74.006304","310","43","36047019800","3158849","3062000009","BK30"
"50037725","METROPOLITAN DENTAL ARTS","380 UNION AVE","BROOKLYN","11211","Dental X-Ray","40.711844","-73.951250","301","34","36047051300","3330027","3027737503","BK73"
"41143863","KHAYTIN YAKOV & SHTAIF","1706 AVENUE M","BROOKLYN","11230","Dental X-Ray","40.618230","-73.957961","314","48","36047053800","3181031","3067460004","BK43"
"50061179","YAKOV KHAYTIN","1706 AVENUE M STE 1","BROOKLYN","11230","Dental CBCT X-Ray","40.618230","-73.957961","314","48","36047053800","3181031","3067460004","BK43"
"41156766","DAVERSA RICHARD","2101 AVENUE X","BROOKLYN","11235","Non-Hospital X-Ray","40.592892","-73.948979","315","48","36047059401","3202203","3074050141","BK17"
"77-0000048","Brooklyn Radiation Oncology","2101 AVENUE X","BROOKLYN","11235","Linear Accelerator","40.592892","-73.948979","315","48","36047059401","3202203","3074050141","BK17"
"40789831","SHAIKH J. AHMED","902 FOSTER AVENUE","BROOKLYN","11230","Dental X-Ray","40.631557","-73.968296","314","40","36047046000","3170180","3064970001","BK42"
"41728436","OFFENBACHER ELIEZER L. - M.","3852 NOSTRAND AVENUE","BROOKLYN","11235","Non-Hospital X-Ray","40.590063","-73.939904","315","48","36047059600","3327492","3074450001","BK17"
"40495380","STEIN JOSEPH MD","5319 16th Ave","BROOKLYN","11204","Non-Hospital X-Ray","40.628659","-73.987971","312","44","36047047200","3130179","3054780001","BK88"
"41132769","DAYAN ALAN T.","1715 AVENUE T","BROOKLYN","11229","Non-Hospital X-Ray","40.601332","-73.954705","315","48","36047055800","3196932","3072960045","BK44"
"50044160","PROXI MEDICAL PC","1665 BEDFORD AVE","BROOKLYN","11225","Non-Hospital X-Ray","40.665934","-73.956774","309","35","36047032300","3034085","3012950002","BK63"
"41018422","DEGTYAREVA MARGARITA - DDS","1725 SHEEPSHEAD BAY RD","BROOKLYN","11235","Dental X-Ray","40.585565","-73.951638","315","48","36047060000","3247043","3087720093","BK17"
"41347875","ZELMAN ALLEN - M.D.","1423 57 STREET","BROOKLYN","11219","Non-Hospital X-Ray","40.628813","-73.993894","312","44","36047024000","3140152","3056920061","BK88"
"40824608","SPIVAKOVSKY SILVIA - D.D.S.","2709 OCEAN AVE","BROOKLYN","11229","Dental X-Ray","40.595446","-73.950651","315","48","36047059401","3201012","3073810065","BK17"
"50061511","JAMES R KEENAN DDS P.C.","2709 OCEAN AVE APT A8","BROOKLYN","11229","Dental X-Ray","40.595446","-73.950651","315","48","36047059401","3201012","3073810065","BK17"
"50058004","SUNSET PARK HEALTH CONCIL INC","60 COOK ST","BROOKLYN","11206","Dental X-Ray","40.702392","-73.941801","301","34","36047049100","3071571","3031140011","BK90"
"41735718","BEREZIN ALEXANDER - DDS","3043 EMMONS AVENUE 2ND FLOOR","BROOKLYN","11235","Dental X-Ray","40.583966","-73.937108","315","48","36047062200","3247630","3087960173","BK17"
"40502553","SEBOLD CANDY DDS","2248 EAST 21 STREET","BROOKLYN","11229","Dental X-Ray","40.597913","-73.950084","315","48","36047057800","3320766","3073530034","BK44"
"41326027","LOSYEV SERGEY - DPM","153 BAY 26 STREET","BROOKLYN","11214","Podiatric X-Ray","40.600806","-73.999824","311","47","36047028600","3167935","3064117501","BK27"
"50043732","NYU LUTHERAN ASSOCIATES- BAY 26TH STREET ORTHOPAEDICS","153 BAY 26TH ST","BROOKLYN","11214","Non-Hospital X-Ray","40.600806","-73.999824","311","47","36047028600","3167935","3064117501","BK27"
"40940219","LOMBARDO JENNIFER - DDS","1663 10 AVENUE","BROOKLYN","11215","Dental X-Ray","40.657659","-73.979345","307","39","36047017100","3027397","3011160002","BK40"
"40505430","MARCHESE CHARLES DPM","164 AVENUE U","BROOKLYN","11223","Podiatric X-Ray","40.596426","-73.978161","315","47","36047039800","3192463","3071200004","BK26"
"40948129","RAFIAN CAMERON S. - DD","1426 48 STREET","BROOKLYN","11219","Dental X-Ray","40.633806","-73.988601","312","44","36047023400","3137501","3056360017","BK88"
"50087494","CMSC LLC","9212 165TH ST","JAMAICA","11433","Non-Hospital X-Ray","40.704993","-73.794546","412","27","36081044601","4216208","4101510031","QN61"
"41587116","BARILLAS INGRID - DDS","476 48 STREET 3RD FLOOR","BROOKLYN","11220","Dental X-Ray","40.646627","-74.009834","307","38","36047007800","3324407","3007740038","BK32"
"40697175","BROOKDALE HOSP. DENTAL SATTELITE","465 NEW LOTS AVE","BROOKLYN","11207","Dental X-Ray","40.663003","-73.890461","305","42","36047112800","3085635","3038430001","BK85"
"40500661","VALGER ALEXANDER DDS","1825 FOSTER AVE UNIT 1B","BROOKLYN","11230","Dental X-Ray","40.635504","-73.960130","314","40","36047051800","3120565","3052180026","BK42"
"40588573","LANDSMAN STANLEY - DDS","284 HEWES STREET","BROOKLYN","11211","Dental X-Ray","40.705798","-73.954255","301","33","36047052900","3060656","3022130027","BK72"
"40505855","ALEXANDRU ADRIAN D.V.M.","689 86 STREET","BROOKLYN","11228","Veterinary X-Ray","40.619120","-74.022290","310","43","36047014000","3153253","3060370073","BK30"
"41721607","BELTRAN JAVIER - M.D.","6010 BAY PARKWAY","BROOKLYN","11204","Non-Hospital X-Ray","40.616584","-73.978594","312","44","36047024600","3413866","3055220036","BK88"
"41736502","CHOUEKA JACK - M.D.","6010 BAY PARKWAY 7TH FLOOR","BROOKLYN","11204","Non-Hospital X-Ray","40.616584","-73.978594","312","44","36047024600","3413866","3055220036","BK88"
"41736504","ROBERT - M.D. KODSI","6010 BAY PARKWAY 4TH FLOOR","BROOKLYN","11204","Non-Hospital X-Ray","40.616584","-73.978594","312","44","36047024600","3413866","3055220036","BK88"
"50011132","QUALITY FIRST MEDICAL CARE","6010 BAY PKWY STE 902","BROOKLYN","11204","Non-Hospital X-Ray","40.616584","-73.978594","312","44","36047024600","3413866","3055220036","BK88"
"40498085","PHILLIP FRANK - D.D.S.","715 BROADWAY","BROOKLYN","11206","Dental X-Ray","40.701294","-73.942837","301","34","36047049100","3071651","3031260005","BK90"
"40729243","AARON - DDS NAGELBLATT","1375 EAST 8 STREET","BROOKLYN","11230","Dental X-Ray","40.615724","-73.966358","312","44","36047044400","3173056","3065710061","BK46"
"41590927","WEXELMAN WARREN - MD","1335 OCEAN PARKWAY","BROOKLYN","11230","Non-Hospital X-Ray","40.616068","-73.968923","312","44","36047044400","3172960","3065690074","BK46"
"50039686","NEW YORK UNIVERSITY","1335 OCEAN PKWY","BROOKLYN","11230","Non-Hospital X-Ray","40.616068","-73.968923","312","44","36047044400","3172960","3065690074","BK46"
"50036572","CAROLE PIERRE DDS","1711 RALPH AVE","BROOKLYN","11236","Dental X-Ray","40.635007","-73.918898","318","46","36047095000","3223376","3079800014","BK50"
"40617479","MEDRANO-SALDANA LAURO - DDS","5802 6 AVENUE","BROOKLYN","11220","Dental X-Ray","40.639207","-74.012881","307","38","36047010200","3016073","3008560037","BK34"
"50085472","BRIGHT WHITE DENTAL PLLC","3071 AVENUE U FL 1","BROOKLYN","11229","Dental X-Ray","40.601027","-73.936516","315","46","36047056800","3199281","3073400043","BK44"
"40535728","BAKRI MAHER I.-DDS","422 BAYRIDGE PARKWAY","BROOKLYN","11209","Dental X-Ray","40.630430","-74.024221","310","43","36047013400","3148756","3059410015","BK31"
"50073989","CENTURY MEDICAL & DENTAL CENTER INC","200 LIVINGSTON ST","BROOKLYN","11201","Dental X-Ray","40.689805","-73.986204","302","33","36047003700","3392981","3001647502","BK38"
"50078867","CITY MEDICAL OF UPPER EAST SIDE PLLC","712 BRIGHTON BEACH AVE","BROOKLYN","11235","Non-Hospital X-Ray","40.577828","-73.960394","313","48","36047036002","3245125","3086920019","BK19"
"41632195","LA PROVIDENCIA FAMILY HEALTH CENTER","1280 DEKALB AVENUE","BROOKLYN","11221","Dental X-Ray","40.697204","-73.926197","304","34","36047042100","3073769","3032430026","BK78"
"40501775","EDWARD DDS FOX","108 NORMAN AVENUE","BROOKLYN","11222","Dental X-Ray","40.725812","-73.950576","301","33","36047057100","3066121","3026480003","BK76"
"40913609","COHEN STEPHEN - DDS","1 PLAZA STREET","BROOKLYN","11217","Dental X-Ray","40.675145","-73.971148","306","39","36047015900","3024471","3010600008","BK37"
"40606832","BARSHAY OLEG - D.C.","2518 OCEAN AVENUE","BROOKLYN","11229","Non-Hospital X-Ray","40.600258","-73.951584","315","48","36047057800","3198270","3073240031","BK44"
"41659573","LEUNG JAMES - DDS","839 58 STREET UNIT 1","BROOKLYN","11220","Dental X-Ray","40.636082","-74.007440","312","38","36047010400","3140213","3056937502","BK34"
"50060173","DENTSERV DENTAL SERVICES PC","48 CEDAR ST","BROOKLYN","11221","Dental X-Ray","40.697034","-73.927615","304","34","36047042300","3387647","3032320001","BK78"
"40972005","BLANK EMIL - DDS","275 AVENUE X","BROOKLYN","11223","Dental X-Ray","40.590287","-73.972632","315","47","36047038600","3344451","3071740104","BK26"
"40502076","FRIST MORRY-DDS","87 DIVISION AVENUE","BROOKLYN","11249","Dental X-Ray","40.707378","-73.965291","301","33","36047054700","3059794","3021570033","BK73"
"41440598","FARKAS EDWARD F.- DDS","1482 OCEAN PARKWAY","BROOKLYN","11230","Dental X-Ray","40.612766","-73.968326","312","44","36047044000","3173779","3065870044","BK46"
"40505694","STUTU JOSEPH C.-D.P.M.","100 REMSEN STREET","BROOKLYN","11201","Podiatric X-Ray","40.694035","-73.994342","302","33","36047000502","3002228","3002540062","BK09"
"50009141","FORT GREENE ANIMAL CLINIC","476 MYRTLE AVE","BROOKLYN","11205","Veterinary X-Ray","40.693391","-73.966279","302","35","36047019500","3334792","3019040029","BK69"
"41206268","MICHAEL GELFAND - DDS","3029 AVENUE V","BROOKLYN","11229","Dental X-Ray","40.598755","-73.937393","315","46","36047057000","3200479","3073670036","BK17"
"50078872","CITY MEDICAL OF UPPER EAST SIDE PLLC","5024 5TH AVE","BROOKLYN","11220","Non-Hospital X-Ray","40.644930","-74.010515","307","38","36047007800","3013274","3007910045","BK32"
"40503055","DAREN A.-D.D.S. KING","1302 CARROLL ST","BROOKLYN","11213","Dental X-Ray","40.666926","-73.946204","309","35","36047033300","3033929","3012910032","BK63"
"40502847","GOUNARDES STEVEN DDS","351 87TH ST","BROOKLYN","11209","Dental X-Ray","40.622412","-74.029982","310","43","36047006000","3153500","3060440057","BK31"
"40843000","DRANOVSKY VLADIMIR DDS","2101 BAY RIDGE PARKWAY","BROOKLYN","11204","Dental X-Ray","40.609320","-73.989224","311","44","36047026800","3159814","3062190001","BK28"
"50042260","FREDERIC COHEN DMD","3215 AVENUE H STE 1C","BROOKLYN","11210","Dental X-Ray","40.631801","-73.945371","317","45","36047078600","3205952","3075600001","BK42"
"40591133","DR.SUSAN SMITH MCKINNEY","594 ALBANY AVE","BROOKLYN","11203","Dental X-Ray","40.659968","-73.939733","309","40","36047080800","3327674","3048120001","BK60"
"41088715","NEW YORK CITY DEPT. OF HEALTH & MENTAL HYGIENE","599 WINTHROP STREET","BROOKLYN","11203","Dental X-Ray","40.657723","-73.940499","309","40","36047080800","3397939","3048120001","BK60"
"40497958","HERSH H. & HERSH R","5524 FILLMORE AVE","BROOKLYN","11234","Dental X-Ray","40.614788","-73.921282","318","46","36047067000","3240739","3085160023","BK45"
"40500723","KORN NATHAN A. DDS","2201 RALPH AVE","BROOKLYN","11234","Dental X-Ray","40.624099","-73.917733","318","46","36047069601","3235548","3083530001","BK45"
"40506190","NEW YORK-PRESBYTERIAN/ BROOKLYN METHODIST","506 SIXTH STREET RADIOLOGY DEPARTMENT RADIOLOGY","BROOKLYN","11215","Hospital X-Ray","40.668293","-73.979237","306","39","36047015300","3337808","3010860001","BK37"
"77-0000088","NewYork Presbyterian / Brooklyn Methodist Hospital","506 6 STREET","BROOKLYN","11215","Linear Accelerator","40.668293","-73.979237","306","39","36047015300","3337808","3010860001","BK37"
"91-2842-01","New York-Presbyterian Brooklyn Methodist Hospital","506 6 STREET","BROOKLYN","11215","Radioactive Materials","40.668293","-73.979237","306","39","36047015300","3337808","3010860001","BK37"
"50040621","DOWNTOWN DENTAL PC","288 STATE ST","BROOKLYN","11201","Dental X-Ray","40.689031","-73.988194","302","33","36047004300","3395986","3001767501","BK38"
"40501779","HASKIN GREGORY - DDS","4571 KINGS HIGHWAY","BROOKLYN","11234","Dental X-Ray","40.629804","-73.932688","318","45","36047073200","3215291","3077700050","BK58"
"91-3648-01","Mikhail Kapchits M.D.","1117 BRIGHTON BEACH AVE","BROOKLYN","11235","Radioactive Materials","40.577837","-73.956341","313","48","36047061004","3245642","3087160061","BK19"
"41055801","SNIPER ARCADY - DDS","2316 AVENUE U","BROOKLYN","11229","Dental X-Ray","40.599718","-73.948275","315","48","36047057600","3199931","3073560007","BK44"
"40786542","KEDA NASSIM - DDS","2149 EAST 5 STREET","BROOKLYN","11223","Dental X-Ray","40.598202","-73.966936","315","47","36047039400","3191965","3071080053","BK25"
"41297737","RASKIN SIMON - DPM","1409 GRAVESEND NECK ROAD","BROOKLYN","11229","Podiatric X-Ray","40.594698","-73.956373","315","48","36047058600","3200746","3073750040","BK17"
"40503999","CLARA BARTON VOC. H.S","901 CLASSON AVE","BROOKLYN","11225","Dental X-Ray","40.669567","-73.961962","309","35","36047021300","3029702","3011880001","BK63"
"50076788","MODERN PHYSICIAN SERVICES PC","1169 LIBERTY AVE FL 1","BROOKLYN","11208","Non-Hospital X-Ray","40.678844","-73.866175","305","37","36047118800","3094085","3041830058","BK83"
"41730987","AZRAK ASLAN - DDS","131 6 AVENUE","BROOKLYN","11217","Dental X-Ray","40.678212","-73.976068","306","39","36047016100","3426168","3009420003","BK64"
"41218245","CHANG JONATHAN MT - M","5303 8TH AVE","BROOKLYN","11220","Non-Hospital X-Ray","40.639340","-74.005545","312","38","36047010600","3138793","3056650009","BK34"
"40503639","LANGER LAURENCE DDS","3605 AVENUE S","BROOKLYN","11234","Dental X-Ray","40.609840","-73.931221","318","46","36047065400","3340575","3085030008","BK45"
"50008192","MANHATTAN VETERINARY GROUP P C","6803 5TH AVE","BROOKLYN","11220","Veterinary X-Ray","40.634052","-74.020756","310","43","36047013000","3145316","3058650009","BK31"
"40506156","BROOKDALE UNIVERSITY MEDI","1 BROOKDALE PLAZA RADIOLOGY","BROOKLYN","11212","Hospital X-Ray","40.654163","-73.911584","317","42","36047089000","3103615","3047180001","BK96"
"77-0000032","Brookdale University Hospital","1275 LINDEN BLVD","BROOKLYN","11212","Linear Accelerator","40.654161","-73.911699","317","42","36047089000","3103615","3047180001","BK96"
"91-2841-01","Brookdale Hospital Medical Center","1275 LINDEN BLVD","BROOKLYN","11212","Radioactive Materials","40.654161","-73.911699","317","42","36047089000","3103615","3047180001","BK96"
"40503313","BYCHKOV BORIS DDS","1818 OCEAN AVENUE","BROOKLYN","11230","Dental X-Ray","40.617625","-73.954878","314","48","36047053800","3181126","3067480026","BK43"
"50046438","LENOX HILL RADIOLOGY AND MEDICAL IMAGING ASSOCIATES P.C","9 BOND ST FL 4","BROOKLYN","11201","Non-Hospital X-Ray","40.689376","-73.983164","302","33","36047003700","3329441","3001600007","BK38"
"91-3319-01","Orlandino Almeida M.D.","9 BOND STREET","BROOKLYN","11201","Radioactive Materials","40.689376","-73.983164","302","33","36047003700","3329441","3001600007","BK38"
"91-3260-01","Sarath Reddy M.D.","240 WILLOUGHBY STREET","BROOKLYN","11201","Radioactive Materials","40.691903","-73.978270","302","35","36047003100","3058411","3020880030","BK68"
"91-3654-01","Buddhadev Manvar M.D.","240 WILLOUGHBY ST","BROOKLYN","11201","Radioactive Materials","40.691903","-73.978270","302","35","36047003100","3058411","3020880030","BK68"
"40506191","MAIMONIDES MEDICAL CTR.","4802 10 AVENUE","BROOKLYN","11219","Hospital X-Ray","40.639488","-73.998242","312","38","36047011400","3336293","3056310038","BK88"
"91-2844-01","Maimonides Medical Center","4802 TENTH AVENUE","BROOKLYN","11219","Radioactive Materials","40.639488","-73.998242","312","38","36047011400","3336293","3056310038","BK88"
"40697142","BROOKDALE HOSP. DENTAL SA","2554 LINDEN BLVD","BROOKLYN","11208","Dental X-Ray","40.668034","-73.869949","305","42","36047122000","3098733","3044840013","BK82"
"41486196","HOUSING WORKS","57 WILLOUGHBY STREET","BROOKLYN","11201","Dental X-Ray","40.692217","-73.986665","302","33","36047001100","3000338","3001470036","BK38"
"40506258","MEDICAL CENTER SUNY DOWNSTATE","450 CLARKSON AVENUE BOX 1208","BROOKLYN","11203","Hospital X-Ray","40.655743","-73.944598","317","40","36047081600","3336186","3048380001","BK91"
"74-2934-02","SUNY Health Science Center Brooklyn","450 CLARKSON AVE","BROOKLYN","11203","Radioactive Materials","40.655743","-73.944598","317","40","36047081600","3336186","3048380001","BK91"
"75-2934-01","SUNY Health Science Ctr Brooklyn","450 CLARKSON AVE","BROOKLYN","11203","Radioactive Materials","40.655743","-73.944598","317","40","36047081600","3336186","3048380001","BK91"
"41651976","CONSTANTINE G. PAVLAKOS - DDS","416 BAY RIDGE PARKWAY","BROOKLYN","11209","Dental X-Ray","40.630491","-74.024318","310","43","36047013400","3148754","3059410013","BK31"
"50049060","MITCHELL ZIENTZ","441 CLINTON ST","BROOKLYN","11231","Dental X-Ray","40.681096","-73.998756","306","39","36047006500","3004993","3003560055","BK33"
"77-0000089","NYU Langone Hosptials","5718 2ND AVE","BROOKLYN","11220","Linear Accelerator","40.645020","-74.021178","307","38","36047002200","3015571","3008440040","BK32"
"41361529","NAKHAMIS RENNA - DDS","544 92 STREET","BROOKLYN","11209","Dental X-Ray","40.617194","-74.027926","310","43","36047016000","3155363","3061100027","BK31"
"50013838","MIDWOOD ORTHODONTICS","977 E 12TH ST","BROOKLYN","11230","Dental X-Ray","40.625632","-73.964307","314","44","36047053000","3179534","3067050058","BK43"
"50013551","EMPIRE DENTAL NY PC","980 E 12TH ST OFC","BROOKLYN","11230","Dental X-Ray","40.625594","-73.964322","314","44","36047053000","3253666","3067040039","BK43"
"40811601","MONTELLA PETER G. - DVM","3515 AVENUE S","BROOKLYN","11234","Veterinary X-Ray","40.609393","-73.931905","318","46","36047065800","3240107","3085020004","BK45"
"40983588","TEPER EMMANUIL - DDS","1310 AVENUE R APT. #1D","BROOKLYN","11229","Dental X-Ray","40.605613","-73.959370","315","48","36047055600","3183931","3068190001","BK25"
"40561196","STEARN MITCHELL-D.D.S.","770 FULTON STREET","BROOKLYN","11238","Dental X-Ray","40.684803","-73.970704","302","35","36047017900","3321980","3020070014","BK68"
"41486213","AMERIHEALTH MEDICAL PC","1659 78 STREET","BROOKLYN","11214","Non-Hospital X-Ray","40.613764","-74.001221","311","43","36047018200","3329038","3062470034","BK28"
"50048005","PROHEALTH URGENT CARE MEDICINE PLLC","833 MANHATTAN AVE","BROOKLYN","11222","Non-Hospital X-Ray","40.728637","-73.953565","301","33","36047056100","3065103","3025730014","BK76"
"50065955","PRO HEALTH CARE ASSOCIATES LLP","7117-7121 13TH AVE","BROOKLYN","11228","Non-Hospital X-Ray","40.622429","-74.005202","310","43","36047019600","3157651","3061780003","BK30"
"40505407","DE FRANCISCO JAMES DPM","3010 AVENUE L","BROOKLYN","11210","Podiatric X-Ray","40.622010","-73.945747","318","45","36047074800","3209585","3076480045","BK43"
"40502749","DAVIDOWITZ GARY DDS","1714 EAST 23 STREET","BROOKLYN","11229","Dental X-Ray","40.608513","-73.950195","315","48","36047055000","3183280","3068050012","BK44"
"40494701","GOYAL RAVINDRA K. M","1640 OCEAN AVENUE","BROOKLYN","11230","Non-Hospital X-Ray","40.622091","-73.955718","314","45","36047076000","3320898","3067300072","BK43"
"50036237","AMERICAN DENTAL OFFICES P.L.L.C.","2233 CATON AVE","BROOKLYN","11226","Dental X-Ray","40.652699","-73.956195","314","40","36047079602","3392235","3050837501","BK60"
"41487800","STILER IGOR - MD","3500 NOSTRAND AVENUE","BROOKLYN","11229","Non-Hospital X-Ray","40.598686","-73.941567","315","46","36047057000","3200252","3073620029","BK17"
"50081774","SEBASTIAN LATTUGA MD PC","3500 NOSTRAND AVE","BROOKLYN","11229","Non-Hospital X-Ray","40.598686","-73.941567","315","46","36047057000","3200252","3073620029","BK17"
"40821067","PANDHI PRAVIN - DDS","1177 FLATBUSH AVENUE","BROOKLYN","11226","Dental X-Ray","40.641484","-73.956588","314","45","36047079000","3119639","3051880020","BK95"
"41652607","ERIC M. GREENSPAN - DDS","1711 AVENUE P","BROOKLYN","11229","Dental X-Ray","40.610643","-73.956492","314","48","36047054400","3181970","3067640050","BK43"
"50039663","LUTHERAN MEDICAL CENTER PS 59","211 THROOP AVE","BROOKLYN","11206","Dental X-Ray","40.696733","-73.943652","303","36","36047028502","3048546","3017490001","BK35"
"50068524","SUNSET PARK HEALTH COUNCIL P.S.59","211 THROOP AVE","BROOKLYN","11206","Dental X-Ray","40.696733","-73.943652","303","36","36047028502","3048546","3017490001","BK35"
"50017247","POORIA SHAHIN","719 FRANKLIN AVE","BROOKLYN","11238","Dental X-Ray","40.673916","-73.956786","308","35","36047021900","3031400","3012380011","BK61"
"41365199","KAPADWALA IMTIYAZ I. - DP","220A ST NICHOLAS AVENUE","BROOKLYN","11237","Podiatric X-Ray","40.703297","-73.914501","304","37","36047044300","3075212","3032910034","BK77"
"50075876","ALL FOR HAPPY SMILES DENTAL PC","3063 BRIGHTON 13TH ST","BROOKLYN","11235","Dental X-Ray","40.578812","-73.956340","313","48","36047061004","3245650","3087160077","BK19"
"50049289","LENOX HILL RADIOLOGY AND MEDICAL IMAGING ASSOCIATES P.C.","2215 79TH ST","BROOKLYN","11214","Non-Hospital X-Ray","40.605559","-73.989149","311","44","36047027000","3162415","3062650069","BK28"
"40499250","SCHWARTZ STUART DDS","2 PAERDEGAT 15 STREET","BROOKLYN","11236","Dental X-Ray","40.626902","-73.901468","318","46","36047099800","3321301","3080890001","BK50"
"40977138","BROOKLYN JOB CORPS ACADEMY","585 DEKALB AVENUE INSIDE WELLNESS CENTER INSIDE WEL","BROOKLYN","11205","Dental X-Ray","40.691223","-73.952765","303","33","36047024100","3049016","3017640001","BK75"
"40525094","HERSHKOWITZ NATHAN DDS","1061 EAST 10 STREET","BROOKLYN","11230","Dental X-Ray","40.623275","-73.965897","312","44","36047045600","3171308","3065310059","BK43"
"40837157","DEMAS JOHN P. - D.D.S","8814 FORT HAMILTON PKWY","BROOKLYN","11209","Dental X-Ray","40.619179","-74.025578","310","43","36047016000","3154267","3060680033","BK31"
"50058857","BAY RIDGE DENTAL PLLC","7708 5TH AVE","BROOKLYN","11209","Dental X-Ray","40.627823","-74.023330","310","43","36047013600","3149847","3059610038","BK31"
"50058337","SCOTT COOPER","30 DEKALB AVE FL 2","BROOKLYN","11201","Podiatric X-Ray","40.689944","-73.981942","302","33","36047003300","3000358","3001490023","BK68"
"50042448","MODERN PHYSICIAN SERVICES P.C.","1248 FULTON STREET","BROOKLYN","11216","Non-Hospital X-Ray","40.680438","-73.950563","303","36","36047024700","3053718","3018600039","BK61"
"41267019","LYALIN OLEG - DDS","4903 CHURCH AVENUE","BROOKLYN","11203","Dental X-Ray","40.651706","-73.931224","317","41","36047086800","3102097","3046750043","BK96"
"41579223","LEW SHIRLEY","2634 OCEAN AVENUE","BROOKLYN","11229","Dental X-Ray","40.597164","-73.950999","315","48","36047059200","3200948","3073807503","BK17"
"41538802","KURTZ DAVID J. - DDS","2718 OCEAN AVENUE SUITE A4","BROOKLYN","11229","Dental X-Ray","40.595319","-73.950651","315","48","36047059200","3200954","3073800048","BK17"
"40500913","REICH STEVEN DDS","224 COURT STREET","BROOKLYN","11201","Dental X-Ray","40.686347","-73.993989","306","39","36047004500","3003419","3003070033","BK33"
"40505637","KNOBEL JEFFREY DPM","1636 EAST 14 STREET SUITE #105","BROOKLYN","11229","Podiatric X-Ray","40.609456","-73.959371","315","48","36047055400","3182385","3067760020","BK25"
"41639580","ROBERT J. - DDS MIKHLI","1636 EAST 14 STREET STE 123","BROOKLYN","11229","Dental X-Ray","40.609456","-73.959371","315","48","36047055400","3182385","3067760020","BK25"
"50015818","EDWARD SUTTON","1636 E 14TH ST STE 114","BROOKLYN","11229","Dental X-Ray","40.609456","-73.959371","315","48","36047055400","3182385","3067760020","BK25"
"50087366","ROBERT MIKHLI","1636 E 14TH ST STE 123","BROOKLYN","11229","Dental CBCT X-Ray","40.609456","-73.959371","315","48","36047055400","3182385","3067760020","BK25"
"91-3682-01","Belmont Comprehensive Medical Care PLLC","979 FULTON STREET","BROOKLYN","11238","Radioactive Materials","40.682861","-73.963891","302","35","36047020100","3056672","3019790052","BK69"
"50007678","BITESIZE PEDIATRIC DENTISTRY","568 UNION AVE BLDG J","BROOKLYN","11211","Dental X-Ray","40.717490","-73.952173","301","33","36047051500","3412620","3027310001","BK73"
"41705954","CAVALLARO JR. JOHN S. -","315 AVENUE W","BROOKLYN","11223","Dental X-Ray","40.592590","-73.971357","315","47","36047038800","3254016","3071510098","BK25"
"50088787","SUNSET PARK HEALTH COUNCIL INC","532 ALBANY AVE RM 107","BROOKLYN","11203","Dental X-Ray","40.661886","-73.939940","309","41","36047080600","3106599","3047940026","BK60"
"41683445","LAWRENCE J. - D WEISS","1761 ROCKAWAY PARKWAY","BROOKLYN","11236","Dental X-Ray","40.638905","-73.895361","318","46","36047101200","3231828","3082430005","BK50"
"50064804","21ST CENTURY DENTAL OF CANARSIE LLC","9715 AVENUE L","BROOKLYN","11236","Dental X-Ray","40.638888","-73.894979","318","46","36047101200","3231828","3082430005","BK50"
"50046902","AG URGENT CARE P.C.","1349 BROADWAY","BROOKLYN","11221","Non-Hospital X-Ray","40.689774","-73.922534","304","34","36047039700","3400869","3033300053","BK78"
"40503557","N.Y.HOTEL TRADES COUNCIL","68-80 SCHERMERHORN STREET","BROOKLYN","11201","Dental X-Ray","40.690746","-73.990992","302","33","36047000900","3002703","3002710034","BK09"
"41691875","LIBOV DANIIL - DMD","2951 OCEAN AVENUE STE BB","BROOKLYN","11235","Dental X-Ray","40.589341","-73.949493","315","48","36047059401","3204411","3074410245","BK17"
"40501582","SOL HABER - DDS","139 CLINTON ST","BROOKLYN","11201","Dental X-Ray","40.691897","-73.993549","302","33","36047000900","3002619","3002680024","BK09"
"40596863","DELEONIBUS JOANN M. - DMD","139 CLINTON ST","BROOKLYN","11201","Dental X-Ray","40.691897","-73.993549","302","33","36047000900","3002619","3002680024","BK09"
"40618984","LAMA PETER J. - DDS","6123 FIFTH AVENUE","BROOKLYN","11220","Dental X-Ray","40.638724","-74.016938","307","38","36047012200","3338831","3057920001","BK32"
"50032999","NORTH SLOPE VETERINARY P.C","207 6TH AVE","BROOKLYN","11217","Veterinary X-Ray","40.675530","-73.977886","306","39","36047015900","3019835","3009540001","BK37"
"41504164","MOHAN RAJ - DDS","308 FRANKLIN AVENUE","BROOKLYN","11238","Dental X-Ray","40.688768","-73.957181","303","35","36047023300","3055641","3019490042","BK75"
"40886158","GENCO MICHAEL - D.D.S","2155 82 STREET","BROOKLYN","11214","Dental X-Ray","40.604840","-73.992484","311","47","36047029000","3163921","3062990043","BK28"
"50073220","ZWANGER-PESIRI RADIOLOGY","205 SMITH ST","BROOKLYN","11201","Non-Hospital X-Ray","40.684906","-73.991685","306","33","36047006900","3006352","3003970001","BK38"
"91-3693-01","Steven Mendelsohn M.D.","205 SMITH STREET","BROOKLYN","11201","Radioactive Materials","40.684906","-73.991685","306","33","36047006900","3006352","3003970001","BK38"
"50078792","ISAAC DAVID TAWIL DDS PC","345 KINGS HWY STE 1","BROOKLYN","11223","Dental X-Ray","40.604844","-73.977499","311","44","36047042400","3397654","3066527501","BK29"
"40505910","CHAIKEN RONALD DVM","9518 AVENUE L","BROOKLYN","11236","Veterinary X-Ray","40.637811","-73.896616","318","46","36047101000","3232767","3082600140","BK50"
"41044194","KARL - D.D.S. KIM","2014 CHURCH AVE STE 5 SUITE #5","BROOKLYN","11226","Dental X-Ray","40.650106","-73.960748","314","40","36047051002","3117136","3051010001","BK42"
"40614520","BORSHCH OLEG & KRINKER DIANA - DDS","313 KINGS HIGHWAY","BROOKLYN","11223","Dental X-Ray","40.605025","-73.978767","311","44","36047042600","3176895","3066510080","BK29"
"41204756","TAMARA ABDELHAMED - DD","466 78 STREET","BROOKLYN","11209","Dental X-Ray","40.627768","-74.024472","310","43","36047013600","3150356","3059700034","BK31"
"50044204","HORIZON DENTAL ARTS PC","1804 FLATBUSH AVE","BROOKLYN","11210","Dental X-Ray","40.626040","-73.940491","318","45","36047074000","3208227","3076180013","BK58"
"41649192","CAPLIN LAWRENCE B.","180 LIVINGSTON STREET","BROOKLYN","11201","Dental X-Ray","40.690052","-73.986838","302","33","36047003700","3000484","3001647501","BK38"
"41174100","DAYANAYEV NIKOLAY - DDS","2017 FLATBUSH AVE","BROOKLYN","11234","Dental X-Ray","40.620555","-73.934639","318","45","36047065000","3219594","3078670006","BK58"
"41025461","EPELBOYM DMITRY - DDS","7708 4 AVENUE","BROOKLYN","11209","Dental X-Ray","40.629231","-74.025734","310","43","36047006400","3149796","3059600042","BK31"
"50078333","PEDIATRIC DENTAL PLLC","7708 4TH AVE","BROOKLYN","11209","Dental CBCT X-Ray","40.629231","-74.025734","310","43","36047006400","3149796","3059600042","BK31"
"50078335","PEDIATRIC DENTAL PLLC","7708 4TH AVE","BROOKLYN","11209","Dental X-Ray","40.629231","-74.025734","310","43","36047006400","3149796","3059600042","BK31"
"50033477","SHAHRAM SHEKIB DDS FAGD PC","2178 63RD ST","BROOKLYN","11204","Dental X-Ray","40.615393","-73.980878","311","47","36047025400","3133318","3055430037","BK28"
"41558948","DR. MICHAEL K. EMAN","2053 EAST 16 STREET","BROOKLYN","11229","Dental X-Ray","40.600018","-73.955671","315","48","36047058000","3198181","3073210058","BK44"
"41740826","LEVINGART GARRY BELA - DD","208 SMITH STREET","BROOKLYN","11201","Dental X-Ray","40.684574","-73.991934","306","33","36047006900","3006404","3004020041","BK38"
"50081772","SEBASTIAN LATTUGA MD PC","160 MONTAGUE ST 5TH FL","BROOKLYN","11201","Non-Hospital X-Ray","40.694403","-73.992914","302","33","36047000502","3002091","3002497501","BK09"
"41369894","LEVIN YEKATERINA - DD","7000 BAY PARKWAY SUITE C","BROOKLYN","11204","Dental X-Ray","40.610927","-73.984477","311","44","36047025800","3157507","3061750036","BK28"
"50017580","UNLIMITED SMILES ORTHODONTICS PLLC","7000 BAY PKWY BLDG L","BROOKLYN","11204","Dental X-Ray","40.610927","-73.984477","311","44","36047025800","3157507","3061750036","BK28"
"40699523","CROSSROADS JUVENILE CTR.","17 BRISTOL STREET","BROOKLYN","11212","Dental X-Ray","40.670746","-73.912932","316","41","36047092400","3378202","3034980008","BK81"
"50005811","BROOKDALE HOSPITAL URGENT CARE CENTER","1235 LINDEN BLVD","BROOKLYN","11212","Non-Hospital X-Ray","40.654173","-73.913587","317","42","36047089000","3103581","3047170001","BK96"
"40500522","MEHTA PRADEEP - DDS","338 78 STREET","BROOKLYN","11209","Dental X-Ray","40.629016","-74.027546","310","43","36047006400","3150297","3059690023","BK31"
"50038699","GRAND FAMILY IMMEDIATE MEDICAL CARE PC","77 BELMONT AVE","BROOKLYN","11212","Non-Hospital X-Ray","40.668880","-73.907372","316","41","36047090600","3326633","3035250036","BK81"
"41551517","LASHEEN SAMY - M.D.","5024 10 AVENUE","BROOKLYN","11219","Non-Hospital X-Ray","40.638280","-73.999503","312","38","36047011400","3394084","3056457501","BK88"
"41064206","DAGMARA SPERLING - DDS","98 NORMAN AVE","BROOKLYN","11222","Dental X-Ray","40.725614","-73.951172","301","33","36047056900","3066074","3026470006","BK76"
"41039457","KRAINOV YURI - DDS","203 DITMAS AVE","BROOKLYN","11218","Dental X-Ray","40.635701","-73.976736","312","39","36047048600","3126653","3053860051","BK41"
"50078329","NIDAL SALAMEH DDS PC","2200 85TH ST APT 1A","BROOKLYN","11214","Dental X-Ray","40.602326","-73.992873","311","47","36047029600","3165913","3063480006","BK28"
"40718485","FAYNGERSH MIRON - M.D.","745 OCEAN PARKWAY","BROOKLYN","11230","Non-Hospital X-Ray","40.630281","-73.971611","314","40","36047048200","3128122","3054280003","BK42"
"40504662","BELL BURT DPM","7608 20 AVENUE","BROOKLYN","11214","Podiatric X-Ray","40.610132","-73.992523","311","47","36047027400","3160934","3062390040","BK28"
"40498258","KESSLER LAWRENCE DDS","183 NORTH 6 STREET","BROOKLYN","11211","Dental X-Ray","40.716611","-73.957217","301","33","36047055300","3324866","3023280023","BK73"
"40602399","ZAIFF HOWARD - DPM","2215 HENDRICKSON ST","BROOKLYN","11234","Podiatric X-Ray","40.608817","-73.922873","318","46","36047066200","3242360","3085590035","BK45"
"50036403","MODERN PHYSICIAN SERVICES PC","68 GRAHAM AVENUE","BROOKLYN","11206","Non-Hospital X-Ray","40.703303","-73.942528","301","34","36047049100","3071510","3031060003","BK90"
"40507059","SKOLKIN SCOTT DC","85 AVENUE U","BROOKLYN","11223","Non-Hospital X-Ray","40.596113","-73.981146","311","47","36047040200","3190968","3070960049","BK29"
"40503882","HANSEN PAUL - DDS","14 BAY RIDGE PLACE","BROOKLYN","11209","Dental X-Ray","40.635919","-74.028056","310","43","36047006800","3145649","3058710095","BK31"
"41565875","STEVE WONG DDS PC","158 COURT STREET","BROOKLYN","11201","Dental X-Ray","40.688600","-73.992904","306","39","36047004500","3003072","3002920033","BK33"
"41426565","LERNER IAN - DDS","16 COURT STREET SUITE 2211","BROOKLYN","11241","Dental X-Ray","40.693445","-73.990577","302","33","36047000900","3002108","3002500044","BK09"
"41350313","MOTEL FAYER","2809 OCEAN PARKWAY","BROOKLYN","11235","Non-Hospital X-Ray","40.581291","-73.967376","313","48","36047036600","3390901","3072607502","BK19"
"50088207","FRANK J. SAPIENZA DDS PLLC","398 5TH AVE FRNT","BROOKLYN","11215","Dental X-Ray","40.670585","-73.985141","306","39","36047013700","3021605","3009930040","BK37"
"50015074","PROHEALTH CARE ASSOCIATES L.L.P.","7210 13TH AVE","BROOKLYN","11228","Non-Hospital X-Ray","40.621905","-74.005774","310","43","36047020000","3158242","3061880142","BK30"
"50061270","SUNSET PARK HEALTH COUNCIL INC","330 59TH ST","BROOKLYN","11220","Dental X-Ray","40.642121","-74.018997","307","38","36047007400","3016258","3008620012","BK32"
"40504014","PATEL MAHESH DDS","3514 MERMAID AVE","BROOKLYN","11224","Dental X-Ray","40.574832","-74.000940","313","47","36047034200","3189510","3070460001","BK21"
"91-3352-01","Humayun Rashid M.D.","3514 MERMAID AVENUE","BROOKLYN","11224","Radioactive Materials","40.574832","-74.000940","313","47","36047034200","3189510","3070460001","BK21"
"40504010","BURBACKI EUGENE DDS","1601 WEST 6 STREET","BROOKLYN","11223","Dental X-Ray","40.607759","-73.979623","311","44","36047042600","3175555","3066260001","BK29"
"40996183","TOPPIN JAMES D. - DDS","2746 OCEAN AVENUE","BROOKLYN","11229","Dental X-Ray","40.594265","-73.950450","315","48","36047059200","3202118","3074040014","BK17"
"40871696","BELL MINA DDS","1763 OCEAN AVENUE","BROOKLYN","11230","Dental X-Ray","40.619201","-73.955147","314","48","36047076000","3209149","3076380012","BK43"
"50070517","DR INNA GOYKMAN-AMIR DDS PC","2952 BRIGHTON 3RD ST STE 501","BROOKLYN","11235","Dental X-Ray","40.579583","-73.965138","313","48","36047036400","3424553","3086620131","BK19"
"40804523","OMIRSKA-DYCZEK - DDS","147 DRIGGS AVENUE","BROOKLYN","11222","Dental X-Ray","40.723058","-73.944387","301","33","36047059100","3067638","3027020023","BK76"
"40498359","RAZIANO JOSEPH DDS","5824 AVENUE N","BROOKLYN","11234","Dental X-Ray","40.619436","-73.918899","318","46","36047068800","3254639","3079030047","BK58"
"91-2941-01","Khalid Hassan M.D.","9520 SEAVIEW AVENUE","BROOKLYN","11236","Radioactive Materials","40.632879","-73.891108","318","46","36047102800","3235055","3083180006","BK50"
"41153492","MITTAL NIRANJAN K. - M","7404 5 AVENUE","BROOKLYN","11209","Non-Hospital X-Ray","40.630178","-74.022369","310","43","36047013400","3148320","3059300038","BK31"
"91-3298-01","Niranjan Mittal M.D.","7404 FIFTH AVENUE","BROOKLYN","11209","Radioactive Materials","40.630178","-74.022369","310","43","36047013400","3148320","3059300038","BK31"
"41307932","CARLIN MICHAEL - MD","1024 MANHATTAN AVENUE","BROOKLYN","11222","Non-Hospital X-Ray","40.733938","-73.954864","301","33","36047057500","3064049","3025130002","BK76"
"41546608","DR. GREGORY TADDEO","94-98 MANHATTAN AVENUE","BROOKLYN","11206","Dental X-Ray","40.705520","-73.944640","301","34","36047050500","3071335","3030790006","BK90"
"50034103","BROWNSVILLE COMMUNITY DEVELOPMENT CORP","650 ASHFORD ST","BROOKLYN","11207","Dental X-Ray","40.665743","-73.883045","305","42","36047112200","3096963","3043110007","BK85"
"50038356","TAL LEBEL DMD PLLC","1912 AVENUE U STE A","BROOKLYN","11229","Dental X-Ray","40.599272","-73.952323","315","48","36047057800","3199755","3073520005","BK44"
"50075795","AVENUE U DENTAL ARTS PC","1912 AVENUE U STE A","BROOKLYN","11229","Dental X-Ray","40.599272","-73.952323","315","48","36047057800","3199755","3073520005","BK44"
"40502752","GELFMAN W. & BIRNBAUM M","1777 OCEAN PARKWAY","BROOKLYN","11223","Dental CBCT X-Ray","40.605256","-73.966871","315","44","36047041800","3177474","3066630063","BK25"
"50085203","GREENPOINT DENTAL P.C.","947 MANHATTAN AVE","BROOKLYN","11222","Dental X-Ray","40.731717","-73.954523","301","33","36047056500","3064438","3025400046","BK76"
"50085928","GREENPOINT DENTAL P.C.","947 MANHATTAN AVE","BROOKLYN","11222","Non-Hospital X-Ray","40.731717","-73.954523","301","33","36047056500","3064438","3025400046","BK76"
"50052045","4 LEGGED FRIENDS VETERINARY CLINIC P.C.","1951 BATH AVE FRNT","BROOKLYN","11214","Veterinary X-Ray","40.601786","-74.002153","311","43","36047028200","3329120","3064080001","BK27"
"40503632","TRAKHMAN I. & FIKHMAN M. DDS","457 KINGS HIGHWAY","BROOKLYN","11223","Dental X-Ray","40.604272","-73.972850","311","44","36047041200","3177126","3066570054","BK29"
"41093554","SAPHIRE GARY - DPM","248 AVENUE P","BROOKLYN","11204","Podiatric X-Ray","40.608163","-73.978848","311","44","36047042600","3175561","3066260010","BK29"
"40498641","BACALL PAUL DDS","2501 NOSTRAND AVENUE","BROOKLYN","11210","Dental X-Ray","40.623528","-73.946250","318","45","36047074800","3208647","3076300027","BK43"
"40500229","KRAMER JEFFREY DDS","544 COURT STREET","BROOKLYN","11231","Dental X-Ray","40.675299","-73.999315","306","39","36047006500","3005684","3003810039","BK33"
"41674667","CHEN CHARLIE - DDS","5321 7 AVENUE","BROOKLYN","11220","Dental X-Ray","40.640594","-74.007823","307","38","36047010600","3014404","3008187501","BK34"
"41633449","RABINOVITS LARRY - DMD","1401 OCEAN AVENUE","BROOKLYN","11230","Dental X-Ray","40.627691","-73.956755","314","45","36047076200","3206621","3075840035","BK43"
"41087031","GELFAND OLGA - DDS","1021 AVENUE Z","BROOKLYN","11235","Dental X-Ray","40.587390","-73.959687","315","48","36047058800","3320864","3074300036","BK25"
"41544802","DENTSERV-BROOKLYN-QUEENS NH","2749 LINDEN BOULEVARD","BROOKLYN","11208","Dental X-Ray","40.669483","-73.862718","305","42","36047120800","3000000","3044690016","BK82"
"40500643","ANTHONY SARLO - DMD","1584 74 STREET","BROOKLYN","11228","Dental X-Ray","40.617242","-74.000753","311","43","36047018800","3159524","3062130040","BK28"
"50054060","ADVANCED PERIODONTAL SERVICES PC","3165 EMMONS AVE STE C1","BROOKLYN","11235","Dental CBCT X-Ray","40.584084","-73.933630","315","48","36047062200","3397673","3088057501","BK17"
"41651733","STUART L. SEGELNICK - DDS","3165 EMMONS AVENUE C1","BROOKLYN","11235","Dental X-Ray","40.584084","-73.933630","315","48","36047062200","3397673","3088057501","BK17"
"40943409","COMMUNITY DENTAL CARE","1809 NOSTRAND AVENUE","BROOKLYN","11226","Dental X-Ray","40.641801","-73.948595","317","45","36047082800","3111287","3049470063","BK95"
"50046328","YURY SLEPAK DDS PC","2464 CONEY ISLAND AVE","BROOKLYN","11223","Dental X-Ray","40.596923","-73.961096","315","47","36047039200","3341372","3071360030","BK25"
"50046330","POLINA INGBERMAN DDS PC","2464 CONEY ISLAND AVE","BROOKLYN","11223","Dental X-Ray","40.596923","-73.961096","315","47","36047039200","3341372","3071360030","BK25"
"50058505","ONE LOVE ORTHODONTICS P.C.","1644 E 14TH ST","BROOKLYN","11229","Dental X-Ray","40.609324","-73.959349","315","48","36047055400","3182386","3067760024","BK25"
"50093292","GENERAL AND COSMETIC DENTISTRY OF NY PLLC","1644 E 14TH ST","BROOKLYN","11229","Dental X-Ray","40.609324","-73.959349","315","48","36047055400","3182386","3067760024","BK25"
"50064397","CHILDRENS MEDICAL SERVICES P.C.","6805 5TH AVE BSMT","BROOKLYN","11220","Dental X-Ray","40.634041","-74.020763","310","43","36047013000","3145315","3058650008","BK31"
"40501093","ETTINGER MICHAEL DDS","3020 AVENUE Y","BROOKLYN","11235","Dental X-Ray","40.592090","-73.936463","315","48","36047062600","3320934","3074490001","BK17"
"50079464","SHARP SMILE DENTAL PC","1763 ROCKAWAY PKWY","BROOKLYN","11236","Dental X-Ray","40.638501","-73.894911","318","46","36047101200","3232834","3082620032","BK50"
"41000249","LIBMAN VALERIY - DDS","1460 W 5TH ST STE M2","BROOKLYN","11204","Dental X-Ray","40.611569","-73.979348","311","44","36047043200","3173388","3065797501","BK29"
"50006397","WUNSCH ERICH","7317 6TH AVE","BROOKLYN","11209","Dental X-Ray","40.629111","-74.019840","310","43","36047013400","3147987","3059210001","BK31"
"40677596","SCHAFFER PRESTON D. - DD","1901 EMMONS AVENUE","BROOKLYN","11235","Dental X-Ray","40.583565","-73.949432","315","48","36047060800","3326914","3087750041","BK17"
"40506263","BROOKLYN N.Y. COMMUNITY HOSPITAL OF","2525 KINGS HIGHWAY","BROOKLYN","11229","Hospital X-Ray","40.613247","-73.948844","314","48","36047064200","3182231","3067720004","BK44"
"91-2991-01","New York Community Hospital","2525 KINGS HIGHWAY","BROOKLYN","11229","Radioactive Materials","40.613247","-73.948844","314","48","36047064200","3182231","3067720004","BK44"
"50009377","NEW CENTURY DENTAL PC","2960 OCEAN AVE","BROOKLYN","11235","Dental X-Ray","40.589192","-73.949485","315","48","36047059200","3320917","3074400035","BK17"
"50043975","PETRYCHENKO PHYSICIAN PC","2960 OCEAN AVE FL 6","BROOKLYN","11235","Non-Hospital X-Ray","40.589192","-73.949485","315","48","36047059200","3320917","3074400035","BK17"
"40505976","CAMPANILE J. DVM","2270 FLATBUSH AVENUE OFC","BROOKLYN","11234","Veterinary X-Ray","40.614746","-73.928190","318","46","36047065200","3239453","3084860001","BK45"
"40897834","SUTTON EDWARD - DDS","28 GRAHAM AVENUE","BROOKLYN","11206","Dental X-Ray","40.701744","-73.942274","301","34","36047049100","3071607","3031200001","BK90"
"40670776","RENRICK BENN DDS","185 KINGSTON AVENUE","BROOKLYN","11213","Dental X-Ray","40.673569","-73.941790","308","36","36047034300","3031316","3012370010","BK61"
"41005162","KOROL TATIANA - DDS","3049 OCEAN PARKWAY RM# 301","BROOKLYN","11235","Dental X-Ray","40.576617","-73.968448","313","48","36047036200","3244589","3086690062","BK19"
"41388947","LOSIK STEVEN - M.D.","3049 OCEAN PARKWAY SUITE 101","BROOKLYN","11235","Non-Hospital X-Ray","40.576617","-73.968448","313","48","36047036200","3244589","3086690062","BK19"
"50085544","PROSPECT AVE. MEDICAL P.C.","3049 OCEAN PKWY FL 2","BROOKLYN","11235","Non-Hospital X-Ray","40.576617","-73.968448","313","48","36047036200","3244589","3086690062","BK19"
"41329597","WILLIAMS WARREN A. - DDS","450 E 18TH ST","BROOKLYN","11226","Dental X-Ray","40.639976","-73.961291","314","40","36047051800","3119437","3051810007","BK42"
"50046416","LENOX HILL RADIOLOGY & MEDICAL IMAGING ASSOCIATES PC","1230 AVENUE R","BROOKLYN","11229","Non-Hospital X-Ray","40.605509","-73.960310","315","48","36047055600","3183897","3068180013","BK25"
"50075246","BROOKLYN HEIGHTS DENTAL P.C.","44 COURT ST STE 808","BROOKLYN","11201","Dental X-Ray","40.692591","-73.990963","302","33","36047000900","3002242","3002550001","BK09"
"41648238","UNITED CEREBRAL PALSY OF NEW YORK CITY INC","175 LAWRENCE AVENUE","BROOKLYN","11230","Dental X-Ray","40.630800","-73.973311","314","44","36047048000","3328479","3054200069","BK42"
"40940805","TRACHTENBERG MICHELLE - DDS","1206 KINGS HIGHWAY","BROOKLYN","11229","Dental X-Ray","40.607752","-73.960737","315","48","36047055400","3182852","3067950004","BK25"
"40923766","GANJIAN AFSHIN - DPM","146 SHERIDAN AVENUE","BROOKLYN","11208","Podiatric X-Ray","40.679203","-73.867277","305","37","36047118800","3093998","3041810055","BK83"
"41558145","DR. ERIC J. PLOUMIS","322 STOCKHOLM STREET","BROOKLYN","11237","Dental X-Ray","40.703292","-73.919046","304","37","36047044300","3074238","3032590025","BK77"
"50048678","MODERN PHYSICIAN SERVICE PC","436 UTICA AVE","BROOKLYN","11213","Non-Hospital X-Ray","40.663721","-73.931605","309","41","36047035500","3330715","3014240043","BK63"
"50056000","SHOLOM FUZAILOV","5421 14TH AVE FL 1","BROOKLYN","11219","Dental X-Ray","40.630726","-73.992989","312","44","36047023800","3139451","3056780001","BK88"
"40656190","LEMPERT VLADIMIR - DMD","3037 AVENUE U","BROOKLYN","11229","Dental X-Ray","40.600910","-73.937600","315","46","36047056800","3199212","3073390044","BK44"
"50077303","AVE U DENTAL PC","3037 AVENUE U","BROOKLYN","11229","Dental CBCT X-Ray","40.600910","-73.937600","315","46","36047056800","3199212","3073390044","BK44"
"50018729","TERRY UNCHALI & CO. LLC","580 MYRTLE AVE FRNT","BROOKLYN","11205","Dental X-Ray","40.693963","-73.961389","302","35","36047019300","3054904","3019097501","BK69"
"50033828","TERRY UNCHALI & CO. LLC","580 MYRTLE AVE","BROOKLYN","11205","Dental CBCT X-Ray","40.693963","-73.961389","302","35","36047019300","3054904","3019097501","BK69"
"40501924","FRANCO GARY DMD","1610 RALPH AVE","BROOKLYN","11236","Dental X-Ray","40.637816","-73.919219","318","45","36047094401","3222405","3079550044","BK58"
"41180694","LARKIN THOMAS - M.D.","1503 GRAVSEND NECK ROAD","BROOKLYN","11229","Non-Hospital X-Ray","40.594885","-73.955516","315","48","36047058600","3200795","3073760060","BK17"
"41306454","WOLFERSBERGER WILLIAM H. - DM","655 76 STREET","BROOKLYN","11209","Dental X-Ray","40.626495","-74.019277","310","43","36047013400","3148905","3059430061","BK31"
"50041214","WILLIAM H. WOLFERSBERGER D.M.D. P.C.","655 76TH ST","BROOKLYN","11209","Dental CBCT X-Ray","40.626495","-74.019277","310","43","36047013400","3148905","3059430061","BK31"
"50074291","BROOKLYN FOOTCARE P.C.","1899 ROCKAWAY PKWY","BROOKLYN","11236","Podiatric X-Ray","40.636144","-73.892288","318","46","36047102200","3233726","3082810018","BK50"
"50010336","BROOKLYN PLAZA MEDICAL CENTER INC.","77 CLINTON AVE","BROOKLYN","11205","Non-Hospital X-Ray","40.695208","-73.969218","302","35","36047019100","3054323","3018880034","BK69"
"40500160","BRESSLER ALLEN M. - DDS","1532 FLATBUSH AVENUE","BROOKLYN","11210","Dental X-Ray","40.633460","-73.948303","314","45","36047077400","3205867","3075570058","BK42"
"40504670","GLEITMAN DAVID DPM","1532 FLATBUSH AVE","BROOKLYN","11210","Podiatric X-Ray","40.633460","-73.948303","314","45","36047077400","3205867","3075570058","BK42"
"50081786","MORDEHAI AHDUT DDS PC","1532 FLATBUSH AVE","BROOKLYN","11210","Dental X-Ray","40.633460","-73.948303","314","45","36047077400","3205867","3075570058","BK42"
"41391712","ISAKOVA MARINA - M.D.","1379 54 STREET","BROOKLYN","11219","Non-Hospital X-Ray","40.631295","-73.993468","312","44","36047023800","3139053","3056700047","BK88"
"41486203","LACERTE RICHARD A. - D","1379 54 STREET","BROOKLYN","11219","Podiatric X-Ray","40.631295","-73.993468","312","44","36047023800","3139053","3056700047","BK88"
"50052177","BORO PARK MEDICAL PC","1379 54TH ST STE 2","BROOKLYN","11219","Non-Hospital X-Ray","40.631295","-73.993468","312","44","36047023800","3139053","3056700047","BK88"
"50096666","ANGELA ZAVULUNOVA DDS PC","8301 RIDGE BLVD APT L2","BROOKLYN","11209","Dental X-Ray","40.626226","-74.032865","310","43","36047006200","3152378","3060160006","BK31"
"50061549","S.R. DENTAL P.C.","7502 RIDGE BLVD APT A2","BROOKLYN","11209","Dental X-Ray","40.632010","-74.030519","310","43","36047004400","3148662","3059380040","BK31"
"50090583","SR DENTAL PC","7502 RIDGE BLVD APT A2","BROOKLYN","11209","Dental CBCT X-Ray","40.632010","-74.030519","310","43","36047004400","3148662","3059380040","BK31"
"40636506","NAGELBLATT JACOB - DDS","1540 E 21 ST","BROOKLYN","11210","Dental X-Ray","40.615206","-73.953363","314","48","36047054600","3210676","3076740062","BK43"
"50065648","JACOB NAGELBLATT","1540 E 21ST ST","BROOKLYN","11210","Dental X-Ray","40.615206","-73.953363","314","48","36047054600","3210676","3076740062","BK43"
"50089030","M.M. BILLAH PC","343 BROADWAY","BROOKLYN","11211","Dental X-Ray","40.707778","-73.956043","301","34","36047052700","3063598","3024627501","BK73"
"50065941","MOHAMMAD A HOSSAIN","5404 4TH AVE","BROOKLYN","11220","Dental X-Ray","40.644137","-74.015019","307","38","36047007600","3014542","3008220035","BK32"
"50058212","SUNSET PARK HEALTH COUNCIL INC","1700 FULTON ST","BROOKLYN","11213","Dental X-Ray","40.679440","-73.932407","303","36","36047027100","3047996","3017010001","BK61"
"40506637","MILLER STANLEY DC","4405 16 AVENUE","BROOKLYN","11204","Non-Hospital X-Ray","40.633734","-73.982692","312","44","36047047600","3128352","3054320008","BK88"
"41663327","RUVINSKY MIKHAIL - DDS","2973 OCEAN AVENUE","BROOKLYN","11235","Dental X-Ray","40.588943","-73.949417","315","48","36047059401","3204407","3074410240","BK17"
"50076738","MIKHAIL RUVINSKY DDS PC","2973 OCEAN AVE","BROOKLYN","11235","Dental CBCT X-Ray","40.588943","-73.949417","315","48","36047059401","3204407","3074410240","BK17"
"41184096","LIVSHITZ ALEXANDR - M.D.","445 KINGS HIGHWAY 2ND FLOOR","BROOKLYN","11223","Non-Hospital X-Ray","40.604332","-73.973444","311","44","36047041200","3329203","3066560039","BK29"
"40497105","HALIKIAS JOHN R. - DDS","2101 BROWN STREET","BROOKLYN","11229","Dental X-Ray","40.600376","-73.939905","315","46","36047057000","3200347","3073650001","BK17"
"41536456","DR. BRADLEY J. SEAM","111 NASSAU AVENUE","BROOKLYN","11222","Veterinary X-Ray","40.724219","-73.949466","301","33","36047057100","3066149","3026480034","BK76"
"41172812","SEIDENFELD DOV - D.D.S. P","1207 59 STREET FIRST FLOOR FIRST FLOO","BROOKLYN","11219","Dental X-Ray","40.630507","-73.999712","312","44","36047019200","3140746","3057040074","BK88"
"40501567","RUTHENBERG A. & SINGER A.J","7810 17 AVENUE","BROOKLYN","11214","Dental X-Ray","40.612993","-74.000295","311","43","36047026400","3162116","3062590073","BK28"
"40503591","GRIGORYAN ALEKSANDR - D.D.S.","187 ST NICHOLAS AVENUE","BROOKLYN","11237","Dental X-Ray","40.703951","-73.915575","304","37","36047044300","3074910","3032820007","BK77"
"41600508","HALABI ELI - DMD","575 KINGSHIGHWAY","BROOKLYN","11223","Dental X-Ray","40.605042","-73.968074","315","44","36047042200","3177432","3066620041","BK25"
"41392347","KETOVER BRIAN - DMD","580 FIFTH AVENUE","BROOKLYN","11215","Dental X-Ray","40.664652","-73.990113","307","39","36047014100","3337754","3010520047","BK37"
"41247963","SCARPATI JOHN A. - DDS","1501 79 STREET","BROOKLYN","11228","Dental X-Ray","40.615172","-74.005061","311","43","36047018600","3162008","3062580001","BK28"
"40877216","ZEITLIN ROBERT E. - D.D","1603 VOORHIES AVENUE","BROOKLYN","11235","Dental X-Ray","40.585840","-73.952811","315","48","36047060600","3204931","3074590051","BK17"
"50072494","ROBERT E ZEITLIN DDS PC","1603 VOORHIES AVE FL 1","BROOKLYN","11235","Dental X-Ray","40.585840","-73.952811","315","48","36047060600","3204931","3074590051","BK17"
"50004287","ACUESTA-LAURETA ELA","345 86TH STREET UNIT P112","BROOKLYN","11209","Non-Hospital X-Ray","40.623139","-74.029697","310","43","36047006200","3153133","3060340060","BK31"
"50040457","GENERAL & COSMETIC DENTAL OFFICE","4424 FORT HAMILTON PKWY","BROOKLYN","11219","Dental X-Ray","40.640506","-73.994491","312","39","36047011200","3136351","3056080035","BK34"
"40502006","FEINTUCH JOSEPH DMD","2080 OCEAN AVENUE","BROOKLYN","11230","Dental X-Ray","40.611441","-73.953704","314","48","36047054600","3182050","3067660051","BK43"
"40503845","BERNSTEIN DANIEL DDS","1997 OCEAN AVENUE","BROOKLYN","11230","Dental X-Ray","40.612931","-73.953962","314","48","36047054600","3397655","3067677502","BK43"
"50086283","MODERN DENTISTRY LLP","1997 OCEAN AVE","BROOKLYN","11230","Dental CBCT X-Ray","40.612931","-73.953962","314","48","36047054600","3397655","3067677502","BK43"
"40502041","CALI MICHAEL L. - DDS","2003 E 60TH ST","BROOKLYN","11234","Dental X-Ray","40.615828","-73.916890","318","46","36047068600","3236815","3084030034","BK45"
"40991972","BERTELLE ANTHONY - MD","7515 13TH AVENUE","BROOKLYN","11228","Non-Hospital X-Ray","40.620148","-74.007575","310","43","36047019800","3159991","3062220003","BK30"
"40664948","SPYRIDOULA PAPAGEORGIOU - DDS","9023 RIDGE BOULEVARD","BROOKLYN","11209","Dental X-Ray","40.621109","-74.034959","310","43","36047005800","3154480","3060800001","BK31"
"40941490","GELB GERMAN - DDS","3073 BRIGHTON 13 STREET","BROOKLYN","11235","Dental X-Ray","40.578650","-73.956456","313","48","36047061004","3245646","3087160073","BK19"
"41295356","JOSE N. -DDS ANDRICKSON","792 FLUSHING AVE","BROOKLYN","11206","Dental X-Ray","40.701087","-73.940334","304","34","36047038900","3071677","3031310017","BK78"
"40501141","SALTZMAN STEVEN DDS","2323 AVENUE R","BROOKLYN","11229","Dental X-Ray","40.606707","-73.949551","315","48","36047054800","3183342","3068060045","BK44"
"41677353","ADAMO VINCENT M. - DP","446 BAYRIDGE PARKWAY","BROOKLYN","11209","Non-Hospital X-Ray","40.630194","-74.023832","310","43","36047013400","3148766","3059410025","BK31"
"40584461","GREGORY OSELKIN","310 BRIGHTON BEACH AVE","BROOKLYN","11235","Dental X-Ray","40.577055","-73.963987","313","48","36047036001","3245070","3086860057","BK19"
"40504547","GLASER JEFFREY E. DPM","1120 DITMAS AVE","BROOKLYN","11218","Podiatric X-Ray","40.635673","-73.966640","314","40","36047052600","3120086","3051970016","BK42"
"40505937","ROY APPEL DVM","9102 5TH AVE","BROOKLYN","11209","Veterinary X-Ray","40.618484","-74.028809","310","43","36047005800","3154763","3060870019","BK31"
"40502597","KIRKLAND FRANK-D.D.S.","882 NOSTRAND AVE","BROOKLYN","11225","Dental X-Ray","40.667837","-73.950702","309","35","36047032100","3033534","3012820042","BK63"
"40505930","MARTIN RENATO - DVM","8423 FLATLANDS AVENUE","BROOKLYN","11236","Veterinary X-Ray","40.637545","-73.910146","318","46","36047095800","3224483","3080050001","BK50"
"40500152","MICHAEL ACQUISTA - DDS","479 BAYRIDGE PARKWAY","BROOKLYN","11209","Dental X-Ray","40.629895","-74.023298","310","43","36047013400","3148327","3059300046","BK31"
"40502079","LANFRANCHI ALFRED-DDS","479 BAYRIDGE PARKWAY","BROOKLYN","11209","Dental X-Ray","40.629895","-74.023298","310","43","36047013400","3148327","3059300046","BK31"
"40503962","KASEM MUHAMMED DDS","479 BAY RIDGE PKWY","BROOKLYN","11209","Dental X-Ray","40.629895","-74.023298","310","43","36047013400","3148327","3059300046","BK31"
"41706807","MAKHOUL GERARD J. - DMD","7502 13 AVENUE","BROOKLYN","11228","Dental X-Ray","40.620211","-74.007539","310","43","36047020000","3159953","3062210038","BK30"
"40591327","D'ANGELO JOSEPH - M.D.","1660 E 14TH ST","BROOKLYN","11229","Non-Hospital X-Ray","40.609063","-73.959299","315","48","36047055400","3342669","3067760030","BK25"
"41741233","BOULOS CATHERINE - DDS","7510 4 AVENUE","BROOKLYN","11209","Dental X-Ray","40.630675","-74.025158","310","43","36047006600","3148732","3059400042","BK31"
"50080511","LEONARD UMANOFF DDS PC","2579 E 17TH ST STE 11","BROOKLYN","11235","Dental X-Ray","40.588601","-73.952525","315","48","36047059200","3336746","3074380046","BK17"
"41034344","CONTRISTANO S.J. - M.D.","2462 FLATBUSH AVE","BROOKLYN","11234","Non-Hospital X-Ray","40.610384","-73.923145","318","46","36047066200","3241970","3085420067","BK45"
"50045781","CHOICE OF DENTAL CARE PLLC","3234 NOSTRAND AVE","BROOKLYN","11229","Dental X-Ray","40.605600","-73.942879","315","48","36047056400","3184581","3068350040","BK44"
"41636236","DANIEL H. - DVM LEIMAN","233 BERRY STREET","BROOKLYN","11249","Veterinary X-Ray","40.715627","-73.962224","301","34","36047055300","3062445","3023650001","BK73"
"40513762","PALM GARDENS CARE CENTER LLC","615 AVENUE C","BROOKLYN","11218","Dental X-Ray","40.640981","-73.973091","312","39","36047049400","3125490","3053580041","BK41"
"40497973","SHEPS ISADORE DDS","310 BEVERLEY RD","BROOKLYN","11218","Dental X-Ray","40.642963","-73.977115","312","39","36047048800","3125357","3053550001","BK41"
"41070987","EUSUF SHEIKH M. - DDS","1219 LIBERTY AVENUE 1ST FLOOR","BROOKLYN","11208","Dental X-Ray","40.679007","-73.864685","305","37","36047118800","3094133","3041840061","BK83"
"50048646","HEMPSTEAD MAIN MEDICAL CENTER P.C.","408 77TH ST LOWR LEVEL","BROOKLYN","11209","Non-Hospital X-Ray","40.629080","-74.025172","310","43","36047013600","3149822","3059610007","BK31"
"40503951","LILLANEY SANTOSH DDS","551 CRESCENT STREET","BROOKLYN","11208","Dental X-Ray","40.674218","-73.869695","305","42","36047120000","3095505","3042520020","BK82"
"40754899","ILINSKY-DDS ALLA","1747 BAY RIDGE AVE","BROOKLYN","11204","Dental X-Ray","40.617565","-73.993715","311","43","36047026000","3134971","3055760066","BK28"
"40500415","GILBERT MARK DDS","924 AVENUE O","BROOKLYN","11230","Dental X-Ray","40.612356","-73.964483","312","44","36047042000","3175139","3066160008","BK25"
"50065541","SUNSET PARK HEALTH COUNCIL INC.","1100 NEWKIRK AVE RM 521","BROOKLYN","11230","Dental X-Ray","40.633980","-73.966558","314","40","36047052600","3121072","3052320001","BK42"
"41244338","GUREVICH IGOR - DDS","8700 25 AVENUE APT. 1U","BROOKLYN","11214","Dental X-Ray","40.595900","-73.989313","311","47","36047030200","3186146","3068780048","BK29"
"41486214","IFILL SAMANTHA N. -","511 CLINTON AVENUE","BROOKLYN","11238","Dental X-Ray","40.682944","-73.966775","302","35","36047019900","3057556","3020110023","BK69"
"41247350","REYES RENEIDA E. - DD","1 HANSON PL STE 706 SUITE 706","BROOKLYN","11243","Dental X-Ray","40.685107","-73.977732","302","35","36047003500","3059183","3021117501","BK68"
"41249154","MICHAEL JR. DONATO - DMD","1 HANSON PLACE","BROOKLYN","11243","Dental X-Ray","40.685107","-73.977732","302","35","36047003500","3059183","3021117501","BK68"
"41258081","FRANZETTI JOSEPH J. - DDS","1 HANSON PLACE SUITE 701","BROOKLYN","11243","Dental X-Ray","40.685107","-73.977732","302","35","36047003500","3059183","3021117501","BK68"
"50047671","NYC ORAL SURGERY ASSOCIATES P.C.","1 HANSON PL STE 707","BROOKLYN","11243","Dental X-Ray","40.685107","-73.977732","302","35","36047003500","3059183","3021117501","BK68"
"50068248","YAKOV S EISENBERGER DDS MSD","1 HANSON PL STE 702","BROOKLYN","11243","Dental X-Ray","40.685107","-73.977732","302","35","36047003500","3059183","3021117501","BK68"
"41676120","CASTANO ROSALIE - DDS","7508 13 AVENUE","BROOKLYN","11228","Dental X-Ray","40.620184","-74.007564","310","43","36047020000","3159956","3062210041","BK30"
"50069664","REFUAH FAMILY DENTAL PC","5313 NEW UTRECHT AVE BLDG GROUND","BROOKLYN","11219","Dental X-Ray","40.633029","-73.995194","312","44","36047021800","3139010","3056690061","BK88"
"40501406","FEINTUCH STUART DDS","238 86 STREET","BROOKLYN","11209","Dental X-Ray","40.623822","-74.032616","310","43","36047006000","3153422","3060430022","BK31"
"50069487","PERRI MALEK DMD PLLC","2270 OCEAN AVE STE 1D","BROOKLYN","11229","Dental X-Ray","40.606000","-73.952671","315","48","36047056000","3184119","3068250008","BK44"
"40611760","JORDONNE WILLY - DDS","1177 NOSTRAND AVE","BROOKLYN","11225","Dental X-Ray","40.658565","-73.950392","309","40","36047080400","3107263","3048140011","BK60"
"50072220","PHILIP M PAPA","66 WINDSOR PL","BROOKLYN","11215","Podiatric X-Ray","40.660707","-73.982782","307","39","36047016900","3027168","3011130014","BK40"
"41441587","OHEVSHALOM DORIS - DDS","1618 EAST 14 STREET","BROOKLYN","11229","Dental X-Ray","40.609749","-73.959428","315","48","36047055400","3182380","3067760013","BK25"
"50042240","CHERRY LIBRAMONTE","1618 E 14TH ST FL 1","BROOKLYN","11229","Dental X-Ray","40.609749","-73.959428","315","48","36047055400","3182380","3067760013","BK25"
"50043304","PAUL WESELEY DDS PLLC","1618 E 14TH ST","BROOKLYN","11229","Dental X-Ray","40.609749","-73.959428","315","48","36047055400","3182380","3067760013","BK25"
"50012399","KIDS DENTAL VILLAGE","206 7TH AVE","BROOKLYN","11215","Dental X-Ray","40.670746","-73.978378","306","39","36047015500","3021019","3009760044","BK37"
"41725767","SAM STRAUS - DDS","1607 45 STREET","BROOKLYN","11204","Dental X-Ray","40.632998","-73.982699","312","44","36047047600","3397067","3054327502","BK88"
"41538568","DR. JOHN RIGNEY","762 BEDFORD AVENUE","BROOKLYN","11205","Non-Hospital X-Ray","40.698067","-73.956850","303","33","36047123700","3054231","3018860055","BK75"
"50074359","BEDSIDE MANAGMENT LLC","1954 KIMBALL ST","BROOKLYN","11234","Dental X-Ray","40.612367","-73.929313","318","46","36047065400","3240427","3085060058","BK45"
"41701731","FRANCIS TANESHA - DDS","150 FOURTH AVENUE","BROOKLYN","11217","Dental X-Ray","40.679796","-73.981440","306","33","36047012700","3396842","3004137501","BK38"
"40506163","CONEY ISLAND HOSPITAL","2601 OCEAN PARKWAY RADIOLOGY","BROOKLYN","11235","Hospital X-Ray","40.586552","-73.966168","313","48","36047037000","3337274","3072390001","BK19"
"91-2902-01","NYCHHC - Coney Island Hospital","2601 OCEAN PARKWAY","BROOKLYN","11213","Radioactive Materials","40.586552","-73.966168","313","48","36047037000","3337274","3072390001","BK19"
"41657686","COPELL RICHARD - DDS","23 BOND STREET","BROOKLYN","11201","Dental X-Ray","40.689055","-73.983377","302","33","36047003700","3000457","3001600003","BK38"
