[{"district":"9","sfcode":"09731","schoolname":"Crotona Pool","siteaddress":"173RD STREET AND FULTON AVENUE","city":"Bronx","zip":"10457","accessibility":"No Accessibility","longitude":"-73.898271","latitude":"40.84068","koshermealtype":"non-kosher"}
,{"district":"22","sfcode":"22278","bldgcode":"K278","schoolname":"J.H.S. 278 Marine Park","siteaddress":"1925 STUART STREET","city":"Brooklyn","zip":"11229","accessibility":"No Accessibility","longitude":"-73.938721","latitude":"40.606745","koshermealtype":"non-kosher"}
,{"district":"4","sfcode":"04146","bldgcode":"M146","schoolname":"P.S. 146 Ann M. Short","siteaddress":"421 EAST 106 STREET","city":"Manhattan","zip":"10029","accessibility":"Partially Accessible","longitude":"-73.938727","latitude":"40.789535","koshermealtype":"non-kosher"}
,{"district":"18","sfcode":"18211","bldgcode":"K211","schoolname":"I.S. 211 John Wilson","siteaddress":"1001 EAST 100 STREET","city":"Brooklyn","zip":"11236","accessibility":"Partially Accessible","longitude":"-73.895224","latitude":"40.642931","koshermealtype":"non-kosher"}
,{"district":"17","sfcode":"17546","bldgcode":"K470","schoolname":"High School for Public Service: Heroes of Tomorrow","siteaddress":"600 KINGSTON AVENUE","city":"Brooklyn","zip":"11203","accessibility":"No Accessibility","longitude":"-73.943839","latitude":"40.658671","koshermealtype":"non-kosher"}
,{"district":"30","sfcode":"30011","bldgcode":"Q011","schoolname":"P.S. 011 Kathryn Phelan","siteaddress":"54-25 SKILLMAN AVENUE","city":"Queens","zip":"11377","accessibility":"Fully Accessible","longitude":"-73.909032","latitude":"40.746127","koshermealtype":"non-kosher"}
,{"district":"17","sfcode":"17390","bldgcode":"K390","schoolname":"The School of Integrated Learning","siteaddress":"1224 PARK PLACE","city":"Brooklyn","zip":"11213","accessibility":"No Accessibility","longitude":"-73.937601","latitude":"40.67229","koshermealtype":"non-kosher"}
,{"district":"16","sfcode":"16035","bldgcode":"K035","schoolname":"M.S. 035 Stephen Decatur","siteaddress":"272 Macdonough Street","city":"Brooklyn","zip":"11233","accessibility":"Fully Accessible","longitude":"-73.935891","latitude":"40.681528","koshermealtype":"non-kosher"}
,{"district":"3","sfcode":"03088","bldgcode":"M088","schoolname":"Wadleigh Secondary School for the Performing & Vis","siteaddress":"215 WEST 114 STREET","city":"Manhattan","zip":"10026","accessibility":"Fully Accessible","longitude":"-73.954152","latitude":"40.80261","koshermealtype":"non-kosher"}
,{"district":"15","sfcode":"15839","bldgcode":"K437","schoolname":"MS 839","siteaddress":"713 CATON AVENUE","city":"Brooklyn","zip":"11218","accessibility":"Fully Accessible","koshermealtype":"non-kosher"}
,{"district":"29","sfcode":"29793","schoolname":"Liberty Pool","siteaddress":"Corner OF 172nd Street &106th Avenue","city":"Queens","zip":"11433","accessibility":"No Accessibility","longitude":"-73.784773","latitude":"40.702312","koshermealtype":"non-kosher"}
,{"district":"11","sfcode":"11097","bldgcode":"X097","schoolname":"P.S. 097 Bronx","siteaddress":"1375 Mace Avenue","city":"Bronx","zip":"10469","accessibility":"Fully Accessible","longitude":"-73.846768","latitude":"40.863524","koshermealtype":"non-kosher"}
,{"district":"29","sfcode":"29138","bldgcode":"Q138","schoolname":"P.S./ M.S.138 Sunrise","siteaddress":"251-11 WELLER AVENUE","city":"Queens","zip":"11422","accessibility":"Partially Accessible","longitude":"-73.734342","latitude":"40.659876","koshermealtype":"non-kosher"}
,{"district":"32","sfcode":"32562","bldgcode":"K296","schoolname":"Evergreen M.S. for Urban Exploration","siteaddress":"125 COVERT STREET","city":"Brooklyn","zip":"11207","accessibility":"No Accessibility","longitude":"-73.910589","latitude":"40.688647","koshermealtype":"non-kosher"}
,{"district":"30","sfcode":"30127","bldgcode":"Q127","schoolname":"P.S. 127 Aerospace Science Magne","siteaddress":"98-01 25 AVENUE","city":"Queens","zip":"11369","accessibility":"No Accessibility","longitude":"-73.870931","latitude":"40.765507","koshermealtype":"non-kosher"}
,{"district":"31","sfcode":"31761","schoolname":"Faber Pool","siteaddress":"Richmond Terrace & Faber Street","city":"Staten Island","zip":"10302","accessibility":"No Accessibility","longitude":"-74.135132","latitude":"40.640265","koshermealtype":"non-kosher"}
,{"district":"24","sfcode":"24110","bldgcode":"Q315","schoolname":"PS 110","siteaddress":"43-18 97TH PLACE","city":"Queens","zip":"11368","accessibility":"Fully Accessible","longitude":"-73.866372","latitude":"40.745995","koshermealtype":"non-kosher"}
,{"district":"19","sfcode":"19346","bldgcode":"K346","schoolname":"P.S. 346 Abe Stark","siteaddress":"1400 PENNSYLVANIA AVENUE","city":"Brooklyn","zip":"11239","accessibility":"Partially Accessible","longitude":"-73.881997","latitude":"40.64664","koshermealtype":"non-kosher"}
,{"district":"15","sfcode":"15169","bldgcode":"K169","schoolname":"P.S. 169 Sunset Park","siteaddress":"4305 7 AVENUE","city":"Brooklyn","zip":"11232","accessibility":"No Accessibility","longitude":"-74.0017","latitude":"40.645825","koshermealtype":"non-kosher"}
,{"district":"24","sfcode":"24229","bldgcode":"Q229","schoolname":"P.S. 229 Emanuel Kaplan","siteaddress":"67-25 51 ROAD","city":"Queens","zip":"11377","accessibility":"Partially Accessible","longitude":"-73.897108","latitude":"40.734682","koshermealtype":"non-kosher"}
,{"district":"14","sfcode":"14318","bldgcode":"K318","schoolname":"I.S. 318 Eugenio Maria De Hostos","siteaddress":"101 WALTON STREET","city":"Brooklyn","zip":"11206","accessibility":"Partially Accessible","longitude":"-73.948771","latitude":"40.703034","koshermealtype":"non-kosher"}
,{"district":"27","sfcode":"27062","bldgcode":"Q062","schoolname":"P.S. 062 Chester Park","siteaddress":"97-25 108 STREET","city":"Queens","zip":"11419","accessibility":"Fully Accessible","longitude":"-73.835567","latitude":"40.688359","koshermealtype":"non-kosher"}
,{"district":"6","sfcode":"06730","schoolname":"Highbridge Pool","siteaddress":"2301 Amsterdam Avenue & 173rd Street","city":"Manhattan","zip":"10032","accessibility":"No Accessibility","longitude":"-73.93413","latitude":"40.843665","koshermealtype":"non-kosher"}
,{"district":"24","sfcode":"24585","bldgcode":"Q585","schoolname":"Maspeth High School","siteaddress":"54-40 74TH STREET","city":"Queens","zip":"11373","accessibility":"Fully Accessible","longitude":"-73.887909","latitude":"40.729104","koshermealtype":"non-kosher"}
,{"district":"17","sfcode":"17138","bldgcode":"K138","schoolname":"P.S. 138 Brooklyn","siteaddress":"760 PROSPECT PLACE","city":"Brooklyn","zip":"11216","accessibility":"Partially Accessible","longitude":"-73.951559","latitude":"40.673943","koshermealtype":"non-kosher"}
,{"district":"31","sfcode":"31002","bldgcode":"R002","schoolname":"I.S. R002 George L. Egbert","siteaddress":"333 Midland Avenue","city":"Staten Island","zip":"10306","accessibility":"Partially Accessible","longitude":"-74.099685","latitude":"40.576728","koshermealtype":"non-kosher"}
,{"district":"18","sfcode":"18233","bldgcode":"K233","schoolname":"P.S. 233 Langston Hughes","siteaddress":"9301 AVENUE B","city":"Brooklyn","zip":"11236","accessibility":"Partially Accessible","longitude":"-73.914282","latitude":"40.651642","koshermealtype":"non-kosher"}
,{"district":"7","sfcode":"07284","bldgcode":"X162","schoolname":"I.S. 584","siteaddress":"600 SAINT ANN'S AVENUE","city":"Bronx","zip":"10455","accessibility":"Partially Accessible","koshermealtype":"non-kosher"}
,{"district":"28","sfcode":"28048","bldgcode":"Q276","schoolname":"David N. Dinkins School","siteaddress":"108-29 155 STREET","city":"Queens","zip":"11433","accessibility":"Fully Accessible","longitude":"-73.796358","latitude":"40.693736","koshermealtype":"non-kosher"}
,{"district":"9","sfcode":"09055","bldgcode":"X055","schoolname":"P.S. 055 Benjamin Franklin","siteaddress":"450 SAINT PAUL'S PLACE","city":"Bronx","zip":"10456","accessibility":"No Accessibility","longitude":"-73.90497","latitude":"40.835934","koshermealtype":"non-kosher"}
,{"district":"9","sfcode":"09204","bldgcode":"X338","schoolname":"P.S. 204 Morris Heights","siteaddress":"1780 Dr. Martin Luther King Jr. Blvd","city":"Bronx","zip":"10453","accessibility":"Fully Accessible","longitude":"-73.915217","latitude":"40.849416","koshermealtype":"non-kosher"}
,{"district":"2","sfcode":"02198","bldgcode":"M198","schoolname":"P.S. 198 Isador E. Ida Straus","siteaddress":"1700 3 AVENUE","city":"Manhattan","zip":"10128","accessibility":"No Accessibility","longitude":"-73.95042","latitude":"40.785018","koshermealtype":"non-kosher"}
,{"district":"24","sfcode":"24330","bldgcode":"Q287","schoolname":"Helen M. Marshall School","siteaddress":"110-08 NORTHERN BOULEVARD","city":"Queens","zip":"11368","accessibility":"Fully Accessible","longitude":"-73.859202","latitude":"40.757888","koshermealtype":"non-kosher"}
,{"district":"26","sfcode":"26158","bldgcode":"Q158","schoolname":"M.S. 158 Marie Curie","siteaddress":"46-35 Oceania Street","city":"Queens","zip":"11361","accessibility":"Partially Accessible","longitude":"-73.771878","latitude":"40.756562","koshermealtype":"non-kosher"}
,{"district":"1","sfcode":"01703","schoolname":"Hamilton Fish Pool","siteaddress":"128 Pitt Street","city":"Manhattan","zip":"10002","accessibility":"No Accessibility","longitude":"-73.981721","latitude":"40.719854","koshermealtype":"non-kosher"}
,{"district":"11","sfcode":"11144","bldgcode":"X144","schoolname":"J.H.S. 144 Michelangelo","siteaddress":"2545 GUNTHER AVENUE","city":"Bronx","zip":"10469","accessibility":"Partially Accessible","longitude":"-73.836525","latitude":"40.863842","koshermealtype":"non-kosher"}
,{"district":"24","sfcode":"24091","bldgcode":"Q091","schoolname":"P.S. 091 Richard Arkwright","siteaddress":"68-10 CENTRAL AVE","city":"Queens","zip":"11385","accessibility":"Fully Accessible","longitude":"-73.883995","latitude":"40.703503","koshermealtype":"non-kosher"}
,{"district":"12","sfcode":"12098","bldgcode":"X098","schoolname":"J.H.S. 098 Herman Ridder","siteaddress":"1619 BOSTON ROAD","city":"Bronx","zip":"10460","accessibility":"No Accessibility","longitude":"-73.890591","latitude":"40.836245","koshermealtype":"non-kosher"}
,{"district":"3","sfcode":"03185","bldgcode":"M185","schoolname":"Locke School of Arts and Engineering (The)","siteaddress":"20 WEST 112 STREET","city":"Manhattan","zip":"10026","accessibility":"No Accessibility","longitude":"-73.950146","latitude":"40.798461","koshermealtype":"non-kosher"}
,{"district":"10","sfcode":"10077","bldgcode":"X177","schoolname":"Bedford Park Elementary School","siteaddress":"3177 WEBSTER AVENUE","city":"Bronx","zip":"10467","accessibility":"Fully Accessible","longitude":"-73.875375","latitude":"40.872559","koshermealtype":"non-kosher"}
,{"district":"31","sfcode":"31049","bldgcode":"R049","schoolname":"I.S. 49 Berta A. Dreyfus","siteaddress":"101 WARREN STREET","city":"Staten Island","zip":"10304","accessibility":"No Accessibility","longitude":"-74.080695","latitude":"40.620443","koshermealtype":"non-kosher"}
,{"district":"17","sfcode":"17538","bldgcode":"K590","schoolname":"Medgar Evers College Preparatory School","siteaddress":"1186 Carroll Street","city":"Brooklyn","zip":"11225","accessibility":"Fully Accessible","longitude":"-73.951823","latitude":"40.66679","koshermealtype":"non-kosher"}
,{"district":"5","sfcode":"05161","bldgcode":"M161","schoolname":"P.S. 161 Pedro Albizu Campos","siteaddress":"499 WEST 133 STREET","city":"Manhattan","zip":"10027","accessibility":"No Accessibility","longitude":"-73.952476","latitude":"40.817719","koshermealtype":"non-kosher"}
,{"district":"8","sfcode":"08271","bldgcode":"X192","schoolname":"Urban Institute of Mathematics","siteaddress":"650 HOLLYWOOD AVENUE","city":"Bronx","zip":"10465","accessibility":"Partially Accessible","longitude":"-73.818083","latitude":"40.826794","koshermealtype":"non-kosher"}
,{"district":"6","sfcode":"06052","bldgcode":"M052","schoolname":"Harold O. Levy School","siteaddress":"650 ACADEMY STREET","city":"Manhattan","zip":"10034","accessibility":"No Accessibility","longitude":"-73.925464","latitude":"40.865556","koshermealtype":"non-kosher"}
,{"district":"22","sfcode":"22846","bldgcode":"K269","schoolname":"P.S. 361 East Flatbush Early Childhood School","siteaddress":"1957 NOSTRAND AVENUE","city":"Brooklyn","zip":"11210","accessibility":"Fully Accessible","longitude":"-73.947672","latitude":"40.637625","koshermealtype":"non-kosher"}
,{"district":"20","sfcode":"20030","bldgcode":"K331","schoolname":"P.S./I.S. 30 Mary White Ovington","siteaddress":"7002 4TH AVENUE","city":"Brooklyn","zip":"11209","accessibility":"Fully Accessible","longitude":"-74.02395","latitude":"40.633598","koshermealtype":"non-kosher"}
,{"district":"4","sfcode":"04707","schoolname":"Thomas Jefferson Pool","siteaddress":"2180 1st Avenue @ 112th Street","city":"Manhattan","zip":"10029","accessibility":"No Accessibility","longitude":"-73.937181","latitude":"40.793562","koshermealtype":"non-kosher"}
,{"district":"27","sfcode":"27253","bldgcode":"Q253","schoolname":"The Randolph Holder School for Social Justice","siteaddress":"1307 CENTRAL AVENUE","city":"Queens","zip":"11691","accessibility":"Fully Accessible","longitude":"-73.748799","latitude":"40.607247","koshermealtype":"non-kosher"}
,{"district":"30","sfcode":"30533","bldgcode":"Q445","schoolname":"William Cullen Bryant High School","siteaddress":"48-10 31 AVENUE","city":"Queens","zip":"11103","accessibility":"No Accessibility","longitude":"-73.911165","latitude":"40.757072","koshermealtype":"non-kosher"}
,{"district":"24","sfcode":"24089","bldgcode":"Q089","schoolname":"P.S. 89Q: The Jose Peralta School of Dreamers","siteaddress":"85-28 BRITTON AVENUE","city":"Queens","zip":"11373","accessibility":"Fully Accessible","longitude":"-73.879641","latitude":"40.745963","koshermealtype":"non-kosher"}
,{"district":"2","sfcode":"02868","bldgcode":"M131","schoolname":"M.S. 131","siteaddress":"100 HESTER STREET","city":"Manhattan","zip":"10002","accessibility":"Fully Accessible","longitude":"-73.993607","latitude":"40.716231","koshermealtype":"non-kosher"}
,{"district":"11","sfcode":"11194","bldgcode":"X194","schoolname":"P.S./M.S. 194","siteaddress":"2365 WATERBURY AVENUE","city":"Bronx","zip":"10462","accessibility":"Fully Accessible","longitude":"-73.846594","latitude":"40.83541","koshermealtype":"non-kosher"}
,{"district":"12","sfcode":"12116","bldgcode":"X116","schoolname":"School of Performing Arts","siteaddress":"977 FOX STREET","city":"Bronx","zip":"10459","accessibility":"Partially Accessible","longitude":"-73.894368","latitude":"40.822056","koshermealtype":"non-kosher"}
,{"district":"19","sfcode":"19292","bldgcode":"K292","schoolname":"J.H.S. 292 Margaret S. Douglas","siteaddress":"301 VERMONT STREET","city":"Brooklyn","zip":"11207","accessibility":"No Accessibility","longitude":"-73.893319","latitude":"40.671601","koshermealtype":"non-kosher"}
,{"district":"11","sfcode":"11106","bldgcode":"X106","schoolname":"P.S. 106 Parkchester","siteaddress":"1514 OLMSTEAD AVENUE","city":"Bronx","zip":"10462","accessibility":"Fully Accessible","longitude":"-73.854823","latitude":"40.836974","koshermealtype":"non-kosher"}
,{"district":"9","sfcode":"09294","bldgcode":"X064","schoolname":"The Walton Avenue School","siteaddress":"1425 WALTON AVENUE","city":"Bronx","zip":"10452","accessibility":"No Accessibility","longitude":"-73.915879","latitude":"40.8404","koshermealtype":"non-kosher"}
,{"district":"25","sfcode":"25020","bldgcode":"Q020","schoolname":"P.S. 020 John Bowne","siteaddress":"142-30 BARCLAY AVENUE","city":"Queens","zip":"11355","accessibility":"Fully Accessible","longitude":"-73.824388","latitude":"40.758347","koshermealtype":"non-kosher"}
,{"district":"8","sfcode":"08123","bldgcode":"X123","schoolname":"J.H.S. 123 James M. Kieran","siteaddress":"1025 MORRISON AVENUE","city":"Bronx","zip":"10472","accessibility":"No Accessibility","longitude":"-73.874162","latitude":"40.824989","koshermealtype":"non-kosher"}
,{"district":"17","sfcode":"17006","bldgcode":"K006","schoolname":"Norma Adams Clemons Academy","siteaddress":"43 SNYDER AVENUE","city":"Brooklyn","zip":"11226","accessibility":"Fully Accessible","longitude":"-73.956279","latitude":"40.648973","koshermealtype":"non-kosher"}
,{"district":"23","sfcode":"23721","schoolname":"Howard Pool","siteaddress":"Glenmore/Mother Gaston Blvd/E.N.Y.","city":"Brooklyn","zip":"11212","accessibility":"No Accessibility","longitude":"-73.907335","latitude":"40.671506","koshermealtype":"non-kosher"}
,{"district":"15","sfcode":"15032","bldgcode":"K032","schoolname":"P.S. 032 Samuels Mills Sprole","siteaddress":"317 Hoyt Street","city":"Brooklyn","zip":"11231","accessibility":"Fully Accessible","longitude":"-73.991141","latitude":"40.680159","koshermealtype":"non-kosher"}
,{"district":"8","sfcode":"08052","bldgcode":"X052","schoolname":"M.S. 302 Luisa Dessus Cruz","siteaddress":"681 Kelly Street","city":"Bronx","zip":"10455","accessibility":"Partially Accessible","longitude":"-73.901599","latitude":"40.816078","koshermealtype":"non-kosher"}
,{"district":"25","sfcode":"25250","bldgcode":"Q168","schoolname":"I.S. 250 The Robert F. Kennedy Community Middle School","siteaddress":"158-40 76 ROAD","city":"Queens","zip":"11366","accessibility":"Fully Accessible","longitude":"-73.80938","latitude":"40.724195","koshermealtype":"non-kosher"}
,{"district":"21","sfcode":"21281","bldgcode":"K281","schoolname":"I.S. 281 Joseph B Cavallaro","siteaddress":"8787 24 AVENUE","city":"Brooklyn","zip":"11214","accessibility":"Partially Accessible","longitude":"-73.993565","latitude":"40.594648","koshermealtype":"non-kosher"}
,{"district":"22","sfcode":"22312","bldgcode":"K312","schoolname":"P.S. 312 Bergen Beach","siteaddress":"7103 Avenue T","city":"Brooklyn","zip":"11234","accessibility":"Partially Accessible","longitude":"-73.909554","latitude":"40.622442","koshermealtype":"non-kosher"}
,{"district":"12","sfcode":"12214","bldgcode":"X167","schoolname":"P.S. 214","siteaddress":"1970 WEST FARMS ROAD","city":"Bronx","zip":"10460","accessibility":"Fully Accessible","longitude":"-73.879931","latitude":"40.839297","koshermealtype":"non-kosher"}
,{"district":"7","sfcode":"07161","bldgcode":"X161","schoolname":"P.S. 161 Ponce De Leon School","siteaddress":"628 TINTON AVENUE","city":"Bronx","zip":"10455","accessibility":"Fully Accessible","longitude":"-73.905233","latitude":"40.814168","koshermealtype":"non-kosher"}
,{"district":"2","sfcode":"02130","bldgcode":"M130","schoolname":"P.S. 130 Hernando De Soto","siteaddress":"143 BAXTER STREET","city":"Manhattan","zip":"10013","accessibility":"Fully Accessible","longitude":"-73.998326","latitude":"40.71866","koshermealtype":"non-kosher"}
,{"district":"10","sfcode":"10382","bldgcode":"X079","schoolname":"Elementary School for Math, Science, and Technology","siteaddress":"125 EAST 181 STREET","city":"Bronx","zip":"10453","accessibility":"Fully Accessible","longitude":"-73.903139","latitude":"40.855337","koshermealtype":"non-kosher"}
,{"district":"18","sfcode":"18066","bldgcode":"K066","schoolname":"P.S. 66","siteaddress":"845 EAST  96 STREET","city":"Brooklyn","zip":"11236","accessibility":"Fully Accessible","longitude":"-73.907064","latitude":"40.648749","koshermealtype":"non-kosher"}
,{"district":"9","sfcode":"09746","schoolname":"Claremont Pool","siteaddress":"E. 170th & Clay Ave.","city":"Bronx","zip":"10456","accessibility":"No Accessibility","longitude":"-73.90798","latitude":"40.837177","koshermealtype":"non-kosher"}
,{"district":"1","sfcode":"01184","bldgcode":"M137","schoolname":"P.S. 184m Shuang Wen","siteaddress":"327 CHERRY STREET","city":"Manhattan","zip":"10002","accessibility":"Fully Accessible","longitude":"-73.985438","latitude":"40.711125","koshermealtype":"non-kosher"}
,{"district":"11","sfcode":"11089","bldgcode":"X089","schoolname":"P.S. 089 Bronx","siteaddress":"980 MACE AVENUE","city":"Bronx","zip":"10469","accessibility":"No Accessibility","longitude":"-73.859254","latitude":"40.862481","koshermealtype":"non-kosher"}
,{"district":"6","sfcode":"06048","bldgcode":"M048","schoolname":"P.S. 048 P.O. Michael J. Buczek","siteaddress":"4360-78 BROADWAY","city":"Manhattan","zip":"10033","accessibility":"Fully Accessible","longitude":"-73.933629","latitude":"40.853193","koshermealtype":"non-kosher"}
,{"district":"27","sfcode":"27183","bldgcode":"Q183","schoolname":"P.S. 183 Dr. Richard R. Green","siteaddress":"2-45 BEACH  79 STREET","city":"Queens","zip":"11693","accessibility":"No Accessibility","longitude":"-73.805866","latitude":"40.58922","koshermealtype":"non-kosher"}
,{"district":"28","sfcode":"28541","bldgcode":"Q620","schoolname":"Thomas A. Edison Career and Technical Education High School","siteaddress":"165-65 84 AVENUE","city":"Queens","zip":"11432","accessibility":"Partially Accessible","longitude":"-73.799692","latitude":"40.716071","koshermealtype":"non-kosher"}
,{"district":"18","sfcode":"18244","bldgcode":"K244","schoolname":"P.S. 244 Richard R. Green","siteaddress":"5404 TILDEN AVENUE","city":"Brooklyn","zip":"11203","accessibility":"Fully Accessible","longitude":"-73.925592","latitude":"40.647851","koshermealtype":"non-kosher"}
,{"district":"25","sfcode":"25237","bldgcode":"Q237","schoolname":"I.S. 237","siteaddress":"46-21 COLDEN STREET","city":"Queens","zip":"11355","accessibility":"Partially Accessible","longitude":"-73.821402","latitude":"40.74943","koshermealtype":"non-kosher"}
,{"district":"6","sfcode":"06115","bldgcode":"M115","schoolname":"P.S. 115 Alexander Humboldt","siteaddress":"586 WEST 177 STREET","city":"Manhattan","zip":"10033","accessibility":"No Accessibility","longitude":"-73.93514","latitude":"40.846116","koshermealtype":"non-kosher"}
,{"district":"24","sfcode":"24061","bldgcode":"Q061","schoolname":"I.S. 061 Leonardo Da Vinci","siteaddress":"98-50 50 AVENUE","city":"Queens","zip":"11368","accessibility":"Fully Accessible","longitude":"-73.862886","latitude":"40.741898","koshermealtype":"non-kosher"}
,{"district":"25","sfcode":"25185","bldgcode":"Q185","schoolname":"J.H.S. 185 Edward Bleeker","siteaddress":"147-26 25 DRIVE","city":"Queens","zip":"11354","accessibility":"Partially Accessible","longitude":"-73.818607","latitude":"40.774906","koshermealtype":"non-kosher"}
,{"district":"26","sfcode":"26503","bldgcode":"Q405","schoolname":"Bayside High School","siteaddress":"32-24 CORPORAL KENNEDY STREET","city":"Queens","zip":"11361","accessibility":"Partially Accessible","longitude":"-73.781041","latitude":"40.771398","koshermealtype":"non-kosher"}
,{"district":"30","sfcode":"30141","bldgcode":"Q141","schoolname":"I.S. 141 The Steinway","siteaddress":"37-11 21 AVENUE","city":"Queens","zip":"11105","accessibility":"No Accessibility","longitude":"-73.904508","latitude":"40.775766","koshermealtype":"non-kosher"}
,{"district":"1","sfcode":"01723","schoolname":"Dry Dock Pool","siteaddress":"Easy 10th Street between Ave C and D","city":"Manhattan","zip":"10009","accessibility":"No Accessibility","longitude":"-73.97621","latitude":"40.725325","koshermealtype":"non-kosher"}
,{"district":"2","sfcode":"02795","schoolname":"John Jay Pool","siteaddress":"77th Street & Cherokee Pl.","city":"Manhattan","zip":"10021","accessibility":"No Accessibility","longitude":"-73.949937","latitude":"40.769469","koshermealtype":"non-kosher"}
,{"district":"18","sfcode":"18281","bldgcode":"K232","schoolname":"The Middle School of Media, Law and Fine Arts","siteaddress":"905 WINTHROP STREET","city":"Brooklyn","zip":"11203","accessibility":"No Accessibility","longitude":"-73.928744","latitude":"40.659088","koshermealtype":"non-kosher"}
,{"district":"5","sfcode":"05735","schoolname":"Sheltering Arms Pool","siteaddress":"129th Street & Amsterdam Avenue","city":"Manhattan","zip":"10027","accessibility":"No Accessibility","longitude":"-73.955","latitude":"40.815113","koshermealtype":"non-kosher"}
,{"district":"12","sfcode":"12747","schoolname":"Thompson Pool (Formerly Named Bronx River Pool)","siteaddress":"E. 174 Street and Bronx River Ave.","city":"Bronx","zip":"10472","accessibility":"No Accessibility","longitude":"-73.878564","latitude":"40.834183","koshermealtype":"non-kosher"}
,{"district":"16","sfcode":"16081","bldgcode":"K081","schoolname":"P.S. 081 Thaddeus Stevens","siteaddress":"990 DEKALB AVENUE","city":"Brooklyn","zip":"11221","accessibility":"Partially Accessible","longitude":"-73.935123","latitude":"40.692866","koshermealtype":"non-kosher"}
,{"district":"24","sfcode":"24693","bldgcode":"Q849","schoolname":"Joseph F. Quinn Intermediate School 77","siteaddress":"976 Seneca Avenue","city":"Queens","zip":"11385","accessibility":"Fully Accessible","longitude":"-73.902147","latitude":"40.699101","koshermealtype":"non-kosher"}
,{"district":"9","sfcode":"09070","bldgcode":"X070","schoolname":"P.S. 070 Max Schoenfeld","siteaddress":"1691 WEEKS AVENUE","city":"Bronx","zip":"10457","accessibility":"No Accessibility","longitude":"-73.90807","latitude":"40.844236","koshermealtype":"non-kosher"}
,{"district":"13","sfcode":"13067","bldgcode":"K067","schoolname":"P.S. 067 Charles A. Dorsey","siteaddress":"51 SAINT EDWARDS STREET","city":"Brooklyn","zip":"11205","accessibility":"No Accessibility","longitude":"-73.977674","latitude":"40.695339","koshermealtype":"non-kosher"}
,{"district":"2","sfcode":"02002","bldgcode":"M002","schoolname":"P.S. 002 Meyer London","siteaddress":"122 Henry Street","city":"Manhattan","zip":"10002","accessibility":"Partially Accessible","longitude":"-73.991523","latitude":"40.712907","koshermealtype":"non-kosher"}
,{"district":"5","sfcode":"05175","bldgcode":"M175","schoolname":"P.S. 175 Henry H Garnet","siteaddress":"175 WEST 134 STREET","city":"Manhattan","zip":"10030","accessibility":"Partially Accessible","longitude":"-73.942706","latitude":"40.814388","koshermealtype":"non-kosher"}
,{"district":"31","sfcode":"31027","bldgcode":"R027","schoolname":"I.S. 027 Anning S. Prall","siteaddress":"11 CLOVE LAKE PLACE","city":"Staten Island","zip":"10310","accessibility":"No Accessibility","longitude":"-74.117818","latitude":"40.628291","koshermealtype":"non-kosher"}
,{"district":"11","sfcode":"11096","bldgcode":"X096","schoolname":"P.S. 096 Richard Rodgers","siteaddress":"2385 OLINVILLE AVENUE","city":"Bronx","zip":"10467","accessibility":"Fully Accessible","longitude":"-73.868986","latitude":"40.86073","koshermealtype":"non-kosher"}
,{"district":"11","sfcode":"11021","bldgcode":"X021","schoolname":"P.S. 021 Philip H. Sheridan","siteaddress":"715 EAST 225 STREET","city":"Bronx","zip":"10466","accessibility":"No Accessibility","longitude":"-73.85942","latitude":"40.887888","koshermealtype":"non-kosher"}
,{"district":"24","sfcode":"24007","bldgcode":"Q007","schoolname":"P.S. 007 Louis F. Simeone","siteaddress":"80-55 CORNISH AVENUE","city":"Queens","zip":"11373","accessibility":"Fully Accessible","longitude":"-73.882446","latitude":"40.739644","koshermealtype":"non-kosher"}
,{"district":"29","sfcode":"29035","bldgcode":"Q035","schoolname":"P.S. 035 Nathaniel Woodhull","siteaddress":"191-02 90 Avenue","city":"Queens","zip":"11423","accessibility":"Fully Accessible","longitude":"-73.768894","latitude":"40.713438","koshermealtype":"non-kosher"}
,{"district":"4","sfcode":"04155","bldgcode":"M155","schoolname":"P.S. 155 William Paca","siteaddress":"319 EAST 117 STREET","city":"Manhattan","zip":"10035","accessibility":"No Accessibility","longitude":"-73.935895","latitude":"40.797507","koshermealtype":"non-kosher"}
,{"district":"31","sfcode":"31773","schoolname":"West Brighton Pool","siteaddress":"Henderson Ave btw Bdwy & Chappel Str","city":"Staten Island","zip":"10310","accessibility":"No Accessibility","longitude":"-74.119206","latitude":"40.636747","koshermealtype":"non-kosher"}
,{"district":"30","sfcode":"30076","bldgcode":"Q076","schoolname":"P.S. 076 William Hallet","siteaddress":"36-36 10 Street","city":"Queens","zip":"11106","accessibility":"Partially Accessible","longitude":"-73.94163","latitude":"40.760862","koshermealtype":"non-kosher"}
,{"district":"5","sfcode":"05543","bldgcode":"M970","schoolname":"Thurgood Marshall Academy for Learning and Social","siteaddress":"200-214 WEST 135TH STREET","city":"Manhattan","zip":"10030","accessibility":"Fully Accessible","longitude":"-73.944299","latitude":"40.815237","koshermealtype":"non-kosher"}
,{"district":"17","sfcode":"17249","bldgcode":"K249","schoolname":"P.S. 249 The Caton","siteaddress":"18 MARLBOROUGH ROAD","city":"Brooklyn","zip":"11226","accessibility":"Partially Accessible","longitude":"-73.966456","latitude":"40.649509","koshermealtype":"non-kosher"}
,{"district":"18","sfcode":"18272","bldgcode":"K272","schoolname":"P.S. 272 Curtis Estabrook","siteaddress":"101-24 SEAVIEW AVENUE","city":"Brooklyn","zip":"11236","accessibility":"No Accessibility","longitude":"-73.886373","latitude":"40.635542","koshermealtype":"non-kosher"}
,{"district":"11","sfcode":"11112","bldgcode":"X112","schoolname":"P.S. 112 Bronxwood","siteaddress":"1925 SCHIEFFELIN AVENUE","city":"Bronx","zip":"10466","accessibility":"No Accessibility","longitude":"-73.843977","latitude":"40.88494","koshermealtype":"non-kosher"}
,{"district":"19","sfcode":"19013","bldgcode":"K013","schoolname":"P.S. 013 Roberto Clemente","siteaddress":"557 PENNSYLVANIA AVENUE","city":"Brooklyn","zip":"11207","accessibility":"Partially Accessible","longitude":"-73.893328","latitude":"40.664067","koshermealtype":"non-kosher"}
,{"district":"27","sfcode":"27045","bldgcode":"Q045","schoolname":"P.S. 045 Clarence Witherspoon","siteaddress":"126-28 150 STREET","city":"Queens","zip":"11436","accessibility":"No Accessibility","longitude":"-73.788866","latitude":"40.671871","koshermealtype":"non-kosher"}
,{"district":"12","sfcode":"12129","bldgcode":"X129","schoolname":"M.S.129 Academy for Independent Learning and Leadership","siteaddress":"2055 MAPES AVENUE","city":"Bronx","zip":"10460","accessibility":"Partially Accessible","longitude":"-73.886721","latitude":"40.846128","koshermealtype":"non-kosher"}
,{"district":"17","sfcode":"17191","bldgcode":"K191","schoolname":"P.S. 191 Paul Robeson","siteaddress":"1600 PARK PLACE","city":"Brooklyn","zip":"11233","accessibility":"No Accessibility","longitude":"-73.924127","latitude":"40.67173","koshermealtype":"non-kosher"}
,{"district":"31","sfcode":"31777","schoolname":"Lyons Pool - NYC Parks","siteaddress":"Pier 6 and Victory Blvd","city":"Staten Island","zip":"10301","accessibility":"No Accessibility","longitude":"-74.073023","latitude":"40.637088","koshermealtype":"non-kosher"}
,{"district":"27","sfcode":"27043","bldgcode":"Q043","schoolname":"P.S. 043","siteaddress":"160 BEACH  29 STREET","city":"Queens","zip":"11691","accessibility":"Fully Accessible","longitude":"-73.761086","latitude":"40.59348","koshermealtype":"non-kosher"}
,{"district":"15","sfcode":"15725","schoolname":"Red Hook Pool","siteaddress":"Bay Street Btw Clinton & Henry","city":"Brooklyn","zip":"11215","accessibility":"No Accessibility","longitude":"-74.003514","latitude":"40.671936","koshermealtype":"non-kosher"}
,{"district":"13","sfcode":"13733","schoolname":"Kosciusko Pool","siteaddress":"670 MARCY AVENUE","city":"Brooklyn","zip":"11216","accessibility":"No Accessibility","longitude":"-73.948427","latitude":"40.691405","koshermealtype":"non-kosher"}
,{"district":"5","sfcode":"05734","schoolname":"Marcus Garvey Pool","siteaddress":"124th Street & 5th Avenue","city":"Manhattan","zip":"10027","accessibility":"No Accessibility","longitude":"-73.942754","latitude":"40.805743","koshermealtype":"non-kosher"}
,{"district":"13","sfcode":"13801","bldgcode":"K258","schoolname":"Leadership Prep Bedford Stuyvesant Charter School","siteaddress":"141 MACON STREET","city":"Brooklyn","zip":"11216","accessibility":"Fully Accessible","longitude":"-73.9456","latitude":"40.68192","koshermealtype":"non-kosher"}
,{"district":"22","sfcode":"22217","bldgcode":"K217","schoolname":"P.S. 217 Colonel David Marcus School","siteaddress":"1100 Newkirk Avenue","city":"Brooklyn","zip":"11230","accessibility":"Fully Accessible","longitude":"-73.966442","latitude":"40.633482","koshermealtype":"non-kosher"}
,{"district":"30","sfcode":"30212","bldgcode":"Q212","schoolname":"P.S. 212","siteaddress":"34-25 82 STREET","city":"Queens","zip":"11372","accessibility":"Fully Accessible","longitude":"-73.884458","latitude":"40.753035","koshermealtype":"non-kosher"}
,{"district":"12","sfcode":"12134","bldgcode":"X134","schoolname":"P.S. 134 George F. Bristow","siteaddress":"1330 BRISTOW STREET","city":"Bronx","zip":"10459","accessibility":"No Accessibility","longitude":"-73.894241","latitude":"40.831613","koshermealtype":"non-kosher"}
,{"district":"12","sfcode":"12706","schoolname":"Mapes Pool","siteaddress":"180th Street and Prospect Avenue","city":"Bronx","zip":"10460","accessibility":"No Accessibility","longitude":"-73.886695","latitude":"40.847081","koshermealtype":"non-kosher"}
,{"district":"23","sfcode":"23716","schoolname":"Betsy Head Pool","siteaddress":"694 THOMAS BOYLAND ST.","city":"Brooklyn","zip":"11207","accessibility":"No Accessibility","longitude":"-73.912072","latitude":"40.663438","koshermealtype":"non-kosher"}
,{"district":"1","sfcode":"01188","bldgcode":"M188","schoolname":"P.S. 188 The Island School","siteaddress":"442 EAST HOUSTON STREET","city":"Manhattan","zip":"10002","accessibility":"Fully Accessible","longitude":"-73.97738","latitude":"40.719888","koshermealtype":"non-kosher"}
,{"district":"24","sfcode":"24049","bldgcode":"Q049","schoolname":"P.S. 049 Dorothy Bonawit Kole","siteaddress":"63-60 80th Street","city":"Queens","zip":"11379","accessibility":"Fully Accessible","longitude":"-73.875493","latitude":"40.719567","koshermealtype":"non-kosher"}
,{"district":"3","sfcode":"03592","bldgcode":"M490","schoolname":"High School for Law, Advocacy and Community Justice","siteaddress":"122 AMSTERDAM AVENUE","city":"Manhattan","zip":"10023","accessibility":"Partially Accessible","longitude":"-73.985608","latitude":"40.774891","koshermealtype":"non-kosher"}
,{"district":"23","sfcode":"23263","bldgcode":"K263","schoolname":"P.S./I.S. 323","siteaddress":"210 CHESTER STREET","city":"Brooklyn","zip":"11212","accessibility":"Partially Accessible","longitude":"-73.911279","latitude":"40.666187","koshermealtype":"non-kosher"}
,{"district":"23","sfcode":"23156","bldgcode":"K356","schoolname":"P.S. 156 Waverly","siteaddress":"104 SUTTER AVENUE","city":"Brooklyn","zip":"11212","accessibility":"Fully Accessible","longitude":"-73.91788","latitude":"40.665553","koshermealtype":"non-kosher"}
,{"district":"5","sfcode":"05036","bldgcode":"M036","schoolname":"P.S. 036 Margaret Douglas","siteaddress":"123 Morningside Drive","city":"Manhattan","zip":"10027","accessibility":"Partially Accessible","longitude":"-73.957409","latitude":"40.810705","koshermealtype":"non-kosher"}
,{"district":"7","sfcode":"07530","bldgcode":"X470","schoolname":"Mott Haven Village Preparatory High School","siteaddress":"701 ST. ANNS AVENUE","city":"Bronx","zip":"10455","accessibility":"No Accessibility","longitude":"-73.911633","latitude":"40.818041","koshermealtype":"non-kosher"}
,{"district":"9","sfcode":"09218","bldgcode":"X235","schoolname":"P.S./I.S. 218 Rafael Hernandez Dual Language Magnet School","siteaddress":"1220 GERARD AVENUE","city":"Bronx","zip":"10452","accessibility":"Fully Accessible","longitude":"-73.919571","latitude":"40.835681","koshermealtype":"non-kosher"}
,{"district":"11","sfcode":"11169","bldgcode":"X169","schoolname":"BAYCHESTER ACADEMY","siteaddress":"3500 EDSON AVENUE","city":"Bronx","zip":"10466","accessibility":"Fully Accessible","longitude":"-73.839386","latitude":"40.881344","koshermealtype":"non-kosher"}
,{"district":"11","sfcode":"11160","bldgcode":"X160","schoolname":"P.S. 160 Walt Disney","siteaddress":"4140 Hutchinson River Parkway East","city":"Bronx","zip":"10475","accessibility":"Partially Accessible","longitude":"-73.823816","latitude":"40.864073","koshermealtype":"non-kosher"}
,{"district":"12","sfcode":"12531","bldgcode":"X102","schoolname":"Archer Elementary School","siteaddress":"1827 ARCHER STREET","city":"Bronx","zip":"10460","accessibility":"Partially Accessible","longitude":"-73.866038","latitude":"40.838151","koshermealtype":"non-kosher"}
,{"district":"28","sfcode":"28217","bldgcode":"Q217","schoolname":"J.H.S. 217 Robert A. Van Wyck","siteaddress":"85-05 144 STREET","city":"Queens","zip":"11435","accessibility":"Partially Accessible","longitude":"-73.811461","latitude":"40.710384","koshermealtype":"non-kosher"}
,{"district":"25","sfcode":"25738","schoolname":"Fort Totten Pool","siteaddress":"338 Story Ave. Behind Bldg #338","city":"Queens","zip":"11359","accessibility":"No Accessibility","longitude":"-73.77621","latitude":"40.792928","koshermealtype":"non-kosher"}
,{"district":"15","sfcode":"15733","schoolname":"Sunset Pool","siteaddress":"7th Avenue btw 41 Street & 44 Street","city":"Brooklyn","zip":"11232","accessibility":"No Accessibility","longitude":"-74.004688","latitude":"40.649901","koshermealtype":"non-kosher"}
,{"district":"30","sfcode":"30166","bldgcode":"Q166","schoolname":"P.S. 166 Henry Gradstein","siteaddress":"33-09 35 AVENUE","city":"Queens","zip":"11106","accessibility":"Partially Accessible","longitude":"-73.926249","latitude":"40.757497","koshermealtype":"non-kosher"}
,{"district":"10","sfcode":"10721","schoolname":"Van Cortlandt Pool","siteaddress":"West 242 Street and Broadway","city":"Bronx","zip":"10471","accessibility":"No Accessibility","longitude":"-73.898272","latitude":"40.889458","koshermealtype":"non-kosher"}
,{"district":"30","sfcode":"30280","bldgcode":"Q280","schoolname":"PS280Q: Home of the Lionhearts","siteaddress":"34-20 94th Street","city":"Queens","zip":"11372","accessibility":"No Accessibility","longitude":"-73.874109","latitude":"40.753345","koshermealtype":"non-kosher"}
,{"district":"4","sfcode":"04717","schoolname":"Wagner Pool","siteaddress":"124th Street Betw/1st & 2nd Avenue","city":"Manhattan","zip":"10035","accessibility":"No Accessibility","longitude":"-73.932591","latitude":"40.801706","koshermealtype":"non-kosher"}
,{"district":"5","sfcode":"05154","bldgcode":"M154","schoolname":"P.S. 154 Harriet Tubman","siteaddress":"250 WEST 127 STREET","city":"Manhattan","zip":"10027","accessibility":"No Accessibility","longitude":"-73.948902","latitude":"40.810499","koshermealtype":"non-kosher"}
,{"district":"26","sfcode":"26067","bldgcode":"Q067","schoolname":"J.H.S. 067 Louis Pasteur","siteaddress":"51-60 MARATHON PARKWAY","city":"Queens","zip":"11362","accessibility":"Fully Accessible","longitude":"-73.734832","latitude":"40.762241","koshermealtype":"non-kosher"}
,{"district":"8","sfcode":"08119","bldgcode":"X119","schoolname":"The Dr. Emmett W. Bassett School","siteaddress":"1075 PUGSLEY AVENUE","city":"Bronx","zip":"10472","accessibility":"No Accessibility","longitude":"-73.857392","latitude":"40.828474","koshermealtype":"non-kosher"}
,{"district":"26","sfcode":"26216","bldgcode":"Q216","schoolname":"J.H.S. 216 George J. Ryan","siteaddress":"64-20 175 Street","city":"Queens","zip":"11365","accessibility":"Partially Accessible","longitude":"-73.794501","latitude":"40.737188","koshermealtype":"non-kosher"}
,{"district":"24","sfcode":"24527","bldgcode":"Q455","schoolname":"Newtown High School","siteaddress":"48-01 90 STREET","city":"Queens","zip":"11373","accessibility":"No Accessibility","longitude":"-73.874129","latitude":"40.740824","koshermealtype":"non-kosher"}
,{"district":"22","sfcode":"22109","bldgcode":"K395","schoolname":"P.S. 109","siteaddress":"1001 EAST  45 STREET","city":"Brooklyn","zip":"11203","accessibility":"Fully Accessible","longitude":"-73.933099","latitude":"40.635842","koshermealtype":"non-kosher"}
,{"district":"11","sfcode":"11753","schoolname":"Haffen Pool","siteaddress":"Ely Ave and Burke Ave","city":"Bronx","zip":"10469","accessibility":"No Accessibility","longitude":"-73.838353","latitude":"40.874923","koshermealtype":"non-kosher"}
,{"district":"19","sfcode":"19328","bldgcode":"K328","schoolname":"P.S. 328 Phyllis Wheatley","siteaddress":"330 ALABAMA AVENUE","city":"Brooklyn","zip":"11207","accessibility":"No Accessibility","longitude":"-73.898249","latitude":"40.667985","koshermealtype":"non-kosher"}
,{"district":"17","sfcode":"17822","bldgcode":"K391","schoolname":"New Heights Middle School","siteaddress":"790 EAST NEW YORK AVENUE","city":"Brooklyn","zip":"11203","accessibility":"Partially Accessible","longitude":"-73.936313","latitude":"40.662092","koshermealtype":"non-kosher"}
,{"district":"15","sfcode":"15734","schoolname":"Douglas and DeGraw Pool","siteaddress":"230 Douglas Street","city":"Brooklyn","zip":"11215","accessibility":"No Accessibility","longitude":"-73.985816","latitude":"40.680887","koshermealtype":"non-kosher"}
,{"district":"12","sfcode":"12579","bldgcode":"X158","schoolname":"BRONX CAREER AND COLLEGE PREPARATORY HIGH SCHOOL","siteaddress":"800 HOME STREET","city":"Bronx","zip":"10456","accessibility":"Fully Accessible","longitude":"-73.900593","latitude":"40.826933","koshermealtype":"non-kosher"}
,{"district":"15","sfcode":"15001","bldgcode":"K001","schoolname":"P.S. 001 The Bergen","siteaddress":"309 47 STREET","city":"Brooklyn","zip":"11220","accessibility":"No Accessibility","longitude":"-74.01142","latitude":"40.648959","koshermealtype":"non-kosher"}
,{"district":"20","sfcode":"20205","bldgcode":"K205","schoolname":"P.S. 205 Clarion","siteaddress":"6701 20 AVENUE","city":"Brooklyn","zip":"11204","accessibility":"Fully Accessible","longitude":"-73.986792","latitude":"40.614737","koshermealtype":"non-kosher"}
,{"district":"4","sfcode":"04072","bldgcode":"M072","schoolname":"The Lexington Academy","siteaddress":"131 EAST 104 STREET","city":"Manhattan","zip":"10029","accessibility":"No Accessibility","longitude":"-73.94745","latitude":"40.791444","koshermealtype":"non-kosher"}
,{"district":"30","sfcode":"30149","bldgcode":"Q149","schoolname":"P.S. 149 Christa Mcauliffe","siteaddress":"93-11 34 AVENUE","city":"Queens","zip":"11372","accessibility":"Partially Accessible","longitude":"-73.874505","latitude":"40.755759","koshermealtype":"non-kosher"}
,{"district":"31","sfcode":"31061","bldgcode":"R061","schoolname":"I.S. 061 William A Morris","siteaddress":"445 CASTLETON AVENUE","city":"Staten Island","zip":"10301","accessibility":"Fully Accessible","longitude":"-74.097941","latitude":"40.634497","koshermealtype":"non-kosher"}
,{"district":"3","sfcode":"03207","bldgcode":"M207","schoolname":"P.S. 149 Sojourner Truth","siteaddress":"41 West 117 Street","city":"Manhattan","zip":"10026","accessibility":"Partially Accessible","longitude":"-73.948088","latitude":"40.802649","koshermealtype":"non-kosher"}
,{"district":"4","sfcode":"04112","bldgcode":"M112","schoolname":"P.S. 112 Jose Celso Barbosa","siteaddress":"535 EAST 119 STREET","city":"Manhattan","zip":"10035","accessibility":"No Accessibility","longitude":"-73.930528","latitude":"40.796889","koshermealtype":"non-kosher"}
,{"district":"6","sfcode":"06646","bldgcode":"M814","schoolname":"Community Health Academy of the Heights","siteaddress":"504 WEST 158TH STREET","city":"Manhattan","zip":"10032","accessibility":"Fully Accessible","longitude":"-73.942074","latitude":"40.833695","koshermealtype":"non-kosher"}
,{"district":"7","sfcode":"07001","bldgcode":"X001","schoolname":"P.S. 001 Courtlandt School","siteaddress":"335 EAST 152 STREET","city":"Bronx","zip":"10451","accessibility":"No Accessibility","longitude":"-73.919634","latitude":"40.819331","koshermealtype":"non-kosher"}
,{"district":"6","sfcode":"06128","bldgcode":"M128","schoolname":"P.S. 128 Audubon","siteaddress":"560 WEST 169 STREET","city":"Manhattan","zip":"10032","accessibility":"Partially Accessible","longitude":"-73.938701","latitude":"40.841032","koshermealtype":"non-kosher"}
,{"district":"24","sfcode":"24014","bldgcode":"Q014","schoolname":"P.S. 014 Fairview","siteaddress":"107-01 OTIS AVENUE","city":"Queens","zip":"11368","accessibility":"Fully Accessible","longitude":"-73.85457","latitude":"40.74102","koshermealtype":"non-kosher"}
,{"district":"9","sfcode":"09745","schoolname":"Foster Pool (Formerly Named Mullaly Pool)","siteaddress":"165TH STREET AND RIVER AVENUE","city":"Bronx","zip":"10451","accessibility":"No Accessibility","longitude":"-73.923489","latitude":"40.831974","koshermealtype":"non-kosher"}
,{"district":"17","sfcode":"17805","bldgcode":"K022","schoolname":"Brooklyn Arts and Science Elementary School","siteaddress":"443 ST MARKS AVENUE","city":"Brooklyn","zip":"11238","accessibility":"Fully Accessible","longitude":"-73.960093","latitude":"40.6771","koshermealtype":"non-kosher"}
,{"district":"17","sfcode":"17181","bldgcode":"K181","schoolname":"P.S. 181 Brooklyn","siteaddress":"1023 NEW YORK AVENUE","city":"Brooklyn","zip":"11203","accessibility":"Fully Accessible","longitude":"-73.945883","latitude":"40.648217","koshermealtype":"non-kosher"}
,{"district":"9","sfcode":"09126","bldgcode":"X126","schoolname":"P.S. 126 Dr Marjorie H Dunbar","siteaddress":"175 WEST 166 STREET","city":"Bronx","zip":"10452","accessibility":"No Accessibility","longitude":"-73.9282","latitude":"40.835866","koshermealtype":"non-kosher"}
,{"district":"7","sfcode":"07018","bldgcode":"X018","schoolname":"P.S. 018 John Peter Zenger","siteaddress":"502 MORRIS AVENUE","city":"Bronx","zip":"10451","accessibility":"No Accessibility","longitude":"-73.922697","latitude":"40.816369","koshermealtype":"non-kosher"}
,{"district":"30","sfcode":"30732","schoolname":"NYC Parks Fisher Pool","siteaddress":"99 Street btw Northern Blvd & 32nd A","city":"Queens","zip":"11369","accessibility":"No Accessibility","longitude":"-73.86984","latitude":"40.759078","koshermealtype":"non-kosher"}
,{"district":"18","sfcode":"18566","bldgcode":"K515","schoolname":"Brooklyn Community High School for Excellence and Equity","siteaddress":"6565 FLATLANDS AVENUE","city":"Brooklyn","zip":"11236","accessibility":"Partially Accessible","longitude":"-73.916927","latitude":"40.634451","koshermealtype":"non-kosher"}
,{"district":"21","sfcode":"21228","bldgcode":"K228","schoolname":"I.S. 228 David A. Boody","siteaddress":"228 AVENUE S","city":"Brooklyn","zip":"11223","accessibility":"Partially Accessible","longitude":"-73.976801","latitude":"40.60066","koshermealtype":"non-kosher"}
,{"district":"2","sfcode":"02217","bldgcode":"M271","schoolname":"P.S./I.S. 217 Roosevelt Island","siteaddress":"645 MAIN STREET","city":"Manhattan","zip":"10044","accessibility":"Fully Accessible","longitude":"-73.956435","latitude":"40.753598","koshermealtype":"non-kosher"}
,{"district":"14","sfcode":"14050","bldgcode":"K050","schoolname":"J.H.S. 050 John D. Wells","siteaddress":"183 SOUTH  3 STREET","city":"Brooklyn","zip":"11211","accessibility":"No Accessibility","longitude":"-73.960137","latitude":"40.711915","koshermealtype":"non-kosher"}
,{"district":"29","sfcode":"29268","bldgcode":"Q268","schoolname":"P.S./I.S. 268","siteaddress":"92-07 175 STREET","city":"Queens","zip":"11433","accessibility":"Fully Accessible","longitude":"-73.78521","latitude":"40.707648","koshermealtype":"non-kosher"}
,{"district":"32","sfcode":"32106","bldgcode":"K106","schoolname":"P.S. 106 Edward Everett Hale","siteaddress":"1328 PUTNAM AVENUE","city":"Brooklyn","zip":"11221","accessibility":"No Accessibility","longitude":"-73.913378","latitude":"40.693318","koshermealtype":"non-kosher"}
,{"district":"24","sfcode":"24102","bldgcode":"Q102","schoolname":"P.S. 102 Bayview","siteaddress":"55-24 VAN HORN STREET","city":"Queens","zip":"11373","accessibility":"Fully Accessible","longitude":"-73.878243","latitude":"40.733033","koshermealtype":"non-kosher"}
,{"district":"31","sfcode":"31056","bldgcode":"R056","schoolname":"P.S. 56 The Louis Desario School","siteaddress":"250 KRAMER AVENUE","city":"Staten Island","zip":"10309","accessibility":"Fully Accessible","longitude":"-74.213943","latitude":"40.541856","koshermealtype":"non-kosher"}
,{"district":"24","sfcode":"24088","bldgcode":"Q088","schoolname":"P.S. 088 Seneca","siteaddress":"60-85 CATALPA AVENUE","city":"Queens","zip":"11385","accessibility":"Partially Accessible","longitude":"-73.896437","latitude":"40.704105","koshermealtype":"non-kosher"}
,{"district":"19","sfcode":"19159","bldgcode":"K159","schoolname":"P.S. 159 Isaac Pitkin","siteaddress":"2781 PITKIN AVENUE","city":"Brooklyn","zip":"11208","accessibility":"No Accessibility","longitude":"-73.869705","latitude":"40.676111","koshermealtype":"non-kosher"}
,{"district":"21","sfcode":"21098","bldgcode":"K043","schoolname":"I.S. 98 Bay Academy","siteaddress":"1401 EMMONS AVENUE","city":"Brooklyn","zip":"11235","accessibility":"No Accessibility","longitude":"-73.954047","latitude":"40.583893","koshermealtype":"non-kosher"}
,{"district":"3","sfcode":"03402","bldgcode":"M470","schoolname":"THE URBAN ASSEMBLY SCHOOL FOR GREEN CAREERS","siteaddress":"145 WEST  84 STREET","city":"Manhattan","zip":"10024","accessibility":"Fully Accessible","longitude":"-73.974483","latitude":"40.786134","koshermealtype":"non-kosher"}
,{"district":"21","sfcode":"21288","bldgcode":"K288","schoolname":"P.S. 288 The Shirley Tanyhill","siteaddress":"2950 WEST  25 STREET","city":"Brooklyn","zip":"11224","accessibility":"No Accessibility","longitude":"-73.992393","latitude":"40.574029","koshermealtype":"non-kosher"}
,{"district":"28","sfcode":"28139","bldgcode":"Q139","schoolname":"P.S. 139 Rego Park","siteaddress":"93-06 63 DRIVE","city":"Queens","zip":"11374","accessibility":"Partially Accessible","longitude":"-73.862561","latitude":"40.728012","koshermealtype":"non-kosher"}
,{"district":"12","sfcode":"12578","bldgcode":"X423","schoolname":"THE CINEMA SCHOOL","siteaddress":"1551 East 172 Street","city":"Bronx","zip":"10472","accessibility":"Fully Accessible","longitude":"-73.878191","latitude":"40.832508","koshermealtype":"non-kosher"}
,{"district":"8","sfcode":"08120","bldgcode":"X120","schoolname":"M.S. 301 Paul L. Dunbar","siteaddress":"890 CAULDWELL AVENUE","city":"Bronx","zip":"10456","accessibility":"No Accessibility","longitude":"-73.906739","latitude":"40.822291","koshermealtype":"non-kosher"}
,{"district":"18","sfcode":"18276","bldgcode":"K276","schoolname":"P.S. 276 Louis Marshall","siteaddress":"1070 EAST  83 STREET","city":"Brooklyn","zip":"11236","accessibility":"No Accessibility","longitude":"-73.908436","latitude":"40.634005","koshermealtype":"non-kosher"}
,{"district":"11","sfcode":"11153","bldgcode":"X153","schoolname":"P.S. 153 Helen Keller","siteaddress":"650 BAYCHESTER AVENUE","city":"Bronx","zip":"10475","accessibility":"Fully Accessible","longitude":"-73.831669","latitude":"40.874035","koshermealtype":"non-kosher"}
,{"district":"20","sfcode":"20105","bldgcode":"K105","schoolname":"P.S. 105 The Blythebourne","siteaddress":"1031 59 STREET","city":"Brooklyn","zip":"11219","accessibility":"No Accessibility","longitude":"-74.003635","latitude":"40.63332","koshermealtype":"non-kosher"}
,{"district":"23","sfcode":"23518","bldgcode":"K275","schoolname":"Kappa V","siteaddress":"985 ROCKAWAY AVENUE","city":"Brooklyn","zip":"11212","accessibility":"Fully Accessible","longitude":"-73.906662","latitude":"40.655644","koshermealtype":"non-kosher"}
,{"district":"2","sfcode":"02799","schoolname":"Asser Levy Pool","siteaddress":"392 Asser Levy Place @ 23rd Street","city":"Manhattan","zip":"10010","accessibility":"No Accessibility","longitude":"-73.976159","latitude":"40.736137","koshermealtype":"non-kosher"}
,{"district":"14","sfcode":"14724","schoolname":"McCarren Pool","siteaddress":"776 Lorimer Street","city":"Brooklyn","zip":"11222","accessibility":"No Accessibility","longitude":"-73.950353","latitude":"40.720058","koshermealtype":"non-kosher"}
,{"district":"14","sfcode":"14704","schoolname":"Bushwick Pool","siteaddress":"835 Flushing Avenue","city":"Brooklyn","zip":"11206","accessibility":"No Accessibility","longitude":"-73.939194","latitude":"40.701361","koshermealtype":"non-kosher"}
,{"district":"9","sfcode":"09219","bldgcode":"X148","schoolname":"I.S. 219 New Venture School","siteaddress":"3630 THIRD AVENUE","city":"Bronx","zip":"10456","accessibility":"No Accessibility","longitude":"-73.903951","latitude":"40.833493","koshermealtype":"non-kosher"}
,{"district":"8","sfcode":"08786","schoolname":"Barretto Point Floating Pool","siteaddress":"Corner of Tiffany St. Viele Avenue","city":"Bronx","zip":"10474","accessibility":"No Accessibility","longitude":"-73.889145","latitude":"40.806118","koshermealtype":"non-kosher"}
,{"district":"6","sfcode":"06153","bldgcode":"M153","schoolname":"P.S. 153 Adam Clayton Powell","siteaddress":"1750 AMSTERDAM AVENUE","city":"Manhattan","zip":"10031","accessibility":"Partially Accessible","longitude":"-73.947599","latitude":"40.826514","koshermealtype":"non-kosher"}
,{"district":"2","sfcode":"02479","bldgcode":"M912","schoolname":"Beacon High School","siteaddress":"521 WEST 43RD STREET","city":"Manhattan","zip":"10036","accessibility":"Fully Accessible","koshermealtype":"non-kosher"}
,{"district":"31","sfcode":"31774","schoolname":"Tottenville Pool","siteaddress":"Hylan Blvd and Joline Ave","city":"Staten Island","zip":"10307","accessibility":"No Accessibility","longitude":"-74.235106","latitude":"40.506138","koshermealtype":"non-kosher"}
,{"district":"13","sfcode":"13738","schoolname":"Commodore Barry Pool","siteaddress":"Flushing Ave and North Elliot Place","city":"Brooklyn","zip":"11205","accessibility":"No Accessibility","longitude":"-73.977532","latitude":"40.698117","koshermealtype":"non-kosher"}
,{"district":"2","sfcode":"02797","schoolname":"Vesuvio Pool","siteaddress":"Thompson St. & South of Prince Stree","city":"Manhattan","zip":"10011","accessibility":"No Accessibility","longitude":"-74.001598","latitude":"40.726118","koshermealtype":"non-kosher"}
,{"district":"15","sfcode":"15088","bldgcode":"K088","schoolname":"J.H.S. 088 Peter Rouget","siteaddress":"544 7TH AVENUE","city":"Brooklyn","zip":"11215","accessibility":"Fully Accessible","longitude":"-73.988743","latitude":"40.660805","koshermealtype":"non-kosher"}
,{"district":"16","sfcode":"16267","bldgcode":"K324","schoolname":"M.S. 267 Math, Science & Technology","siteaddress":"800 GATES AVENUE","city":"Brooklyn","zip":"11221","accessibility":"Partially Accessible","longitude":"-73.932066","latitude":"40.68797","koshermealtype":"non-kosher"}
,{"district":"22","sfcode":"22251","bldgcode":"K251","schoolname":"P.S. 251 Paerdegat","siteaddress":"1037 EAST  54 STREET","city":"Brooklyn","zip":"11234","accessibility":"No Accessibility","longitude":"-73.923894","latitude":"40.63195","koshermealtype":"non-kosher"}
,{"district":"16","sfcode":"16040","bldgcode":"K040","schoolname":"P.S. 040 George W. Carver","siteaddress":"265 RALPH AVENUE","city":"Brooklyn","zip":"11233","accessibility":"No Accessibility","longitude":"-73.921099","latitude":"40.680239","koshermealtype":"non-kosher"}
,{"district":"8","sfcode":"08267","bldgcode":"X174","schoolname":"Archimedes Academy for Math, Science and Technology Applications","siteaddress":"456 WHITE PLAINS ROAD","city":"Bronx","zip":"10473","accessibility":"Partially Accessible","longitude":"-73.85607","latitude":"40.815043","koshermealtype":"non-kosher"}
,{"district":"27","sfcode":"27254","bldgcode":"Q254","schoolname":"P.S. 254 - The Rosa Parks School","siteaddress":"84-40 101 STREET","city":"Queens","zip":"11418","accessibility":"Fully Accessible","longitude":"-73.847886","latitude":"40.6972","koshermealtype":"non-kosher"}
,{"district":"20","sfcode":"20939","bldgcode":"K746","schoolname":"Sunset School of Cultural Learning","siteaddress":"270 59th Street","city":"Brooklyn","zip":"11220","accessibility":"Fully Accessible","koshermealtype":"non-kosher"}
,{"district":"24","sfcode":"24153","bldgcode":"Q153","schoolname":"P.S. 153 Maspeth Elem","siteaddress":"60-02 60 LANE","city":"Queens","zip":"11378","accessibility":"Fully Accessible","longitude":"-73.904463","latitude":"40.716296","koshermealtype":"non-kosher"}
,{"district":"19","sfcode":"19218","bldgcode":"K218","schoolname":"J.H.S. 218 James P. Sinnott","siteaddress":"370 FOUNTAIN AVENUE","city":"Brooklyn","zip":"11208","accessibility":"No Accessibility","longitude":"-73.874537","latitude":"40.67002","koshermealtype":"non-kosher"}
,{"district":"12","sfcode":"12211","bldgcode":"X193","schoolname":"P.S. 211","siteaddress":"1919 PROSPECT AVENUE","city":"Bronx","zip":"10457","accessibility":"Fully Accessible","longitude":"-73.890145","latitude":"40.843705","koshermealtype":"non-kosher"}
,{"district":"4","sfcode":"04007","bldgcode":"M007","schoolname":"P.S. 007 Samuel Stern","siteaddress":"160 EAST 120 STREET","city":"Manhattan","zip":"10035","accessibility":"Fully Accessible","longitude":"-73.939374","latitude":"40.800616","koshermealtype":"non-kosher"}
,{"district":"5","sfcode":"05123","bldgcode":"M123","schoolname":"P.S. 123 Mahalia Jackson","siteaddress":"301 WEST 140 STREET","city":"Manhattan","zip":"10030","accessibility":"No Accessibility","longitude":"-73.944551","latitude":"40.820216","koshermealtype":"non-kosher"}
,{"district":"7","sfcode":"07031","bldgcode":"X151","schoolname":"P.S./M.S. 031 The William Lloyd Garrison","siteaddress":"250 EAST 156 STREET","city":"Bronx","zip":"10451","accessibility":"Partially Accessible","longitude":"-73.92114","latitude":"40.822574","koshermealtype":"non-kosher"}
,{"district":"31","sfcode":"31084","bldgcode":"R070","schoolname":"The Waverly Academy of Empowered Learners","siteaddress":"45 Waverly Place","city":"Staten Island","zip":"10304","accessibility":"Fully Accessible","koshermealtype":"non-kosher"}
,{"district":"9","sfcode":"09328","bldgcode":"X145","schoolname":"New Millennium Bronx Academy of the Arts","siteaddress":"1000 TELLER AVENUE","city":"Bronx","zip":"10456","accessibility":"No Accessibility","longitude":"-73.914067","latitude":"40.827438","koshermealtype":"non-kosher"}
,{"district":"19","sfcode":"19704","schoolname":"NYCHA Breukelen Resident Association","siteaddress":"254 Stanley Ave Apt 1D","city":"Brooklyn","zip":"11236","accessibility":"No Accessibility","longitude":"-73.89564","latitude":"40.651671","koshermealtype":"non-kosher"}
,{"district":"15","sfcode":"15703","schoolname":"NYCHA Red Hook West Resident Association","siteaddress":"428 Columbia St  Room1C","city":"Brooklyn","zip":"11231","accessibility":"No Accessibility","longitude":"-74.006789","latitude":"40.67657","koshermealtype":"non-kosher"}
,{"district":"15","sfcode":"15242","bldgcode":"K142","schoolname":"Brooklyn New School-PS 146 (The)","siteaddress":"610 HENRY STREET","city":"Brooklyn","zip":"11231","accessibility":"No Accessibility","longitude":"-74.002022","latitude":"40.679462","koshermealtype":"non-kosher"}
,{"district":"8","sfcode":"08152","bldgcode":"X152","schoolname":"P.S. 152 Evergreen","siteaddress":"1007 EVERGREEN AVENUE","city":"Bronx","zip":"10472","accessibility":"Partially Accessible","longitude":"-73.880479","latitude":"40.823941","koshermealtype":"non-kosher"}
,{"district":"23","sfcode":"23244","bldgcode":"K271","schoolname":"Eagle Academy for Young Men II","siteaddress":"1137 HERKIMER STREET","city":"Brooklyn","zip":"11233","accessibility":"No Accessibility","longitude":"-73.915106","latitude":"40.678124","koshermealtype":"non-kosher"}
,{"district":"24","sfcode":"24016","bldgcode":"Q721","schoolname":"P.S. Q016 The Nancy DeBenedittis School","siteaddress":"41-15 104 STREET","city":"Queens","zip":"11368","accessibility":"Fully Accessible","longitude":"-73.860547","latitude":"40.748996","koshermealtype":"non-kosher"}
,{"district":"2","sfcode":"02089","bldgcode":"M089","schoolname":"P.S. 89","siteaddress":"201 WARREN STREET","city":"Manhattan","zip":"10282","accessibility":"Fully Accessible","longitude":"-74.013967","latitude":"40.71701","koshermealtype":"non-kosher"}
,{"district":"21","sfcode":"21226","bldgcode":"K226","schoolname":"P.S. 226 Alfred De B.Mason","siteaddress":"6006 23 AVENUE","city":"Brooklyn","zip":"11204","accessibility":"Fully Accessible","longitude":"-73.977099","latitude":"40.615405","koshermealtype":"non-kosher"}
,{"district":"8","sfcode":"08014","bldgcode":"X014","schoolname":"P.S. X014 Senator John Calandra","siteaddress":"3047 BRUCKNER BOULEVARD","city":"Bronx","zip":"10461","accessibility":"Partially Accessible","longitude":"-73.826277","latitude":"40.835318","koshermealtype":"non-kosher"}
,{"district":"5","sfcode":"05728","schoolname":"Jackie Robinson Pool","siteaddress":"146th Street & Bradhurst Avenue","city":"Manhattan","zip":"10030","accessibility":"No Accessibility","longitude":"-73.942428","latitude":"40.82391","koshermealtype":"non-kosher"}
,{"district":"19","sfcode":"19007","bldgcode":"K007","schoolname":"P.S. 007 Abraham Lincoln","siteaddress":"858 JAMAICA AVENUE","city":"Brooklyn","zip":"11208","accessibility":"Fully Accessible","longitude":"-73.872983","latitude":"40.689213","koshermealtype":"non-kosher"}
,{"district":"17","sfcode":"17316","bldgcode":"K316","schoolname":"P.S. 316 Elijah Stroud","siteaddress":"750 CLASSON AVENUE","city":"Brooklyn","zip":"11238","accessibility":"Partially Accessible","longitude":"-73.961418","latitude":"40.674685","koshermealtype":"non-kosher"}
,{"district":"9","sfcode":"09117","bldgcode":"X117","schoolname":"I.S. 117 Joseph H. Wade","siteaddress":"1865 MORRIS AVENUE","city":"Bronx","zip":"10453","accessibility":"No Accessibility","longitude":"-73.909022","latitude":"40.848552","koshermealtype":"non-kosher"}
,{"district":"4","sfcode":"04964","bldgcode":"M050","schoolname":"Central Park East II","siteaddress":"433 EAST 100 STREET","city":"Manhattan","zip":"10029","accessibility":"Partially Accessible","longitude":"-73.940919","latitude":"40.785559","koshermealtype":"non-kosher"}
,{"district":"16","sfcode":"16309","bldgcode":"K309","schoolname":"P.S. 309 The George E. Wibecan Preparatory Academy","siteaddress":"794 MONROE STREET","city":"Brooklyn","zip":"11221","accessibility":"No Accessibility","longitude":"-73.924422","latitude":"40.6881","koshermealtype":"non-kosher"}
,{"district":"22","sfcode":"22152","bldgcode":"K152","schoolname":"School of Science & Technology","siteaddress":"725 EAST  23 STREET","city":"Brooklyn","zip":"11210","accessibility":"Partially Accessible","longitude":"-73.954269","latitude":"40.632619","koshermealtype":"non-kosher"}
,{"district":"23","sfcode":"23298","bldgcode":"K298","schoolname":"P.S. 298 Dr. Betty Shabazz","siteaddress":"85 WATKINS STREET","city":"Brooklyn","zip":"11212","accessibility":"Partially Accessible","longitude":"-73.907718","latitude":"40.671015","koshermealtype":"non-kosher"}
,{"district":"28","sfcode":"28008","bldgcode":"Q008","schoolname":"J.H.S. 008 Richard S. Grossley","siteaddress":"108-35 167 STREET","city":"Queens","zip":"11433","accessibility":"Partially Accessible","longitude":"-73.786403","latitude":"40.69691","koshermealtype":"non-kosher"}
,{"district":"10","sfcode":"10015","bldgcode":"X015","schoolname":"P.S. X015 Institute for Environmental Learning","siteaddress":"2195 ANDREWS AVENUE","city":"Bronx","zip":"10453","accessibility":"Fully Accessible","longitude":"-73.909763","latitude":"40.859243","koshermealtype":"non-kosher"}
,{"district":"10","sfcode":"10037","bldgcode":"X037","schoolname":"P.S. X037 - Multiple Intelligence School","siteaddress":"360 WEST 230 STREET","city":"Bronx","zip":"10463","accessibility":"Fully Accessible","longitude":"-73.913694","latitude":"40.877935","koshermealtype":"non-kosher"}
,{"district":"10","sfcode":"10095","bldgcode":"X095","schoolname":"P.S. 095 Sheila Mencher","siteaddress":"3961 HILLMAN AVENUE","city":"Bronx","zip":"10463","accessibility":"Fully Accessible","longitude":"-73.891664","latitude":"40.883049","koshermealtype":"non-kosher"}
,{"district":"10","sfcode":"10254","bldgcode":"X254","schoolname":"I.S. 254","siteaddress":"2452 WASHINGTON AVENUE","city":"Bronx","zip":"10458","accessibility":"Fully Accessible","longitude":"-73.889878","latitude":"40.858721","koshermealtype":"non-kosher"}
,{"district":"10","sfcode":"10086","bldgcode":"X086","schoolname":"P.S. 086 Kingsbridge Heights","siteaddress":"2756 RESERVOIR AVENUE","city":"Bronx","zip":"10468","accessibility":"Partially Accessible","longitude":"-73.897066","latitude":"40.869061","koshermealtype":"non-kosher"}
,{"district":"10","sfcode":"10023","bldgcode":"X023","schoolname":"P.S. 023 The New Children's School","siteaddress":"2151 WASHINGTON AVENUE","city":"Bronx","zip":"10457","accessibility":"Fully Accessible","longitude":"-73.894951","latitude":"40.853294","koshermealtype":"non-kosher"}
,{"district":"10","sfcode":"10137","bldgcode":"X137","schoolname":"The Angelo Patri Middle School","siteaddress":"2225 WEBSTER AVENUE","city":"Bronx","zip":"10457","accessibility":"Partially Accessible","longitude":"-73.897404","latitude":"40.854257","koshermealtype":"non-kosher"}
,{"district":"10","sfcode":"10003","bldgcode":"X003","schoolname":"P.S. 3 Raul Julia Micro Society","siteaddress":"2100 LAFONTAINE AVENUE","city":"Bronx","zip":"10457","accessibility":"Fully Accessible","longitude":"-73.89163","latitude":"40.850131","koshermealtype":"non-kosher"}
,{"district":"5","sfcode":"05754","schoolname":"NYCHA St. Nicholas","siteaddress":"225 West 129","city":"Manhattan","zip":"10027","accessibility":"No Accessibility","longitude":"-73.947653","latitude":"40.813609","koshermealtype":"non-kosher"}
,{"district":"17","sfcode":"17707","schoolname":"NYCHA Rutland Towers Resident Association","siteaddress":"955 Rutland Road","city":"Brooklyn","zip":"11212","accessibility":"No Accessibility","longitude":"-73.958448","latitude":"40.669382","koshermealtype":"non-kosher"}
,{"district":"21","sfcode":"21712","schoolname":"NYCHA Marlboro Resident Association","siteaddress":"2304 West 8th","city":"Brooklyn","zip":"11223","accessibility":"No Accessibility","longitude":"-73.978407","latitude":"40.591872","koshermealtype":"non-kosher"}
,{"district":"8","sfcode":"08107","bldgcode":"X107","schoolname":"P.S. 107","siteaddress":"1695 SEWARD AVENUE","city":"Bronx","zip":"10473","accessibility":"No Accessibility","longitude":"-73.868735","latitude":"40.819221","koshermealtype":"non-kosher"}
,{"district":"14","sfcode":"14752","schoolname":"NYCHA Marcy Resident Association","siteaddress":"604  Park Ave","city":"Brooklyn","zip":"112606","accessibility":"No Accessibility","longitude":"-73.949822","latitude":"40.697556","koshermealtype":"non-kosher"}
,{"district":"19","sfcode":"19718","schoolname":"NYCHA Louis Pink Resident Association","siteaddress":"1258 Loring Avenue -Ground Floor","city":"Brooklyn","zip":"11209","accessibility":"No Accessibility","longitude":"-73.865549","latitude":"40.667329","koshermealtype":"non-kosher"}
,{"district":"1","sfcode":"01714","schoolname":"NYCHA Vladeck","siteaddress":"328 MADISON Street","city":"Manhattan","zip":"10002","accessibility":"No Accessibility","longitude":"-73.978148","latitude":"40.725037","koshermealtype":"non-kosher"}
,{"district":"15","sfcode":"15706","schoolname":"NYCHA 303 Wyckoff Gardens Resident Association","siteaddress":"266 Wyckoff Street","city":"Brooklyn","zip":"11217","accessibility":"No Accessibility","longitude":"-73.984795","latitude":"40.682893","koshermealtype":"non-kosher"}
,{"district":"19","sfcode":"19654","bldgcode":"K166","schoolname":"Van Siclen Community Middle School","siteaddress":"800 VAN SICLEN AVE","city":"Brooklyn","zip":"11207","accessibility":"Fully Accessible","longitude":"-73.885704","latitude":"40.659934","koshermealtype":"non-kosher"}
,{"district":"16","sfcode":"16747","schoolname":"NYCHA Saratoga Village  Resident Association","siteaddress":"33-35 Saratoga Ave","city":"Brooklyn","zip":"11233","accessibility":"No Accessibility","longitude":"-73.918931","latitude":"40.685121","koshermealtype":"non-kosher"}
,{"district":"10","sfcode":"10046","bldgcode":"X046","schoolname":"P.S. 046 Edgar Allan Poe","siteaddress":"279 EAST 196 STREET","city":"Bronx","zip":"10458","accessibility":"Fully Accessible","longitude":"-73.890402","latitude":"40.867169","koshermealtype":"non-kosher"}
,{"district":"8","sfcode":"08624","bldgcode":"X074","schoolname":"Bronx Academy for Multi-Media","siteaddress":"730 BRYANT AVENUE","city":"Bronx","zip":"10474","accessibility":"Partially Accessible","longitude":"-73.885284","latitude":"40.815827","koshermealtype":"non-kosher"}
,{"district":"27","sfcode":"27709","schoolname":"Broad Channel Library","siteaddress":"16-26 CROSS BAY BLVD","city":"Queens","zip":"11693","accessibility":"No Accessibility","longitude":"-73.753951","latitude":"40.608768","koshermealtype":"non-kosher"}
,{"district":"26","sfcode":"26713","schoolname":"Glen Oaks Library","siteaddress":"256-04 UNION TURNPIKE","city":"Queens","zip":"11355","accessibility":"No Accessibility","koshermealtype":"non-kosher"}
,{"district":"28","sfcode":"28739","schoolname":"Briarwood Library","siteaddress":"85-12 MAIN ST","city":"Queens","zip":"11435","accessibility":"No Accessibility","longitude":"-73.819621","latitude":"40.71014","koshermealtype":"non-kosher"}
,{"district":"26","sfcode":"26716","schoolname":"QPL - Douglaston/Little Neck","siteaddress":"249-01 NORTHERN BLVD","city":"Queens","zip":"11363","accessibility":"No Accessibility","koshermealtype":"non-kosher"}
,{"district":"24","sfcode":"24732","schoolname":"Elmhurst Library","siteaddress":"86-07 BROADWAY","city":"Queens","zip":"11373","accessibility":"No Accessibility","longitude":"-73.877382","latitude":"40.738498","koshermealtype":"non-kosher"}
,{"district":"24","sfcode":"24723","schoolname":"Maspeth Library","siteaddress":"6970 GRAND AVE","city":"Queens","zip":"11378","accessibility":"No Accessibility","longitude":"-73.870093","latitude":"40.736522","koshermealtype":"non-kosher"}
,{"district":"30","sfcode":"30757","schoolname":"Langston Hughes Library","siteaddress":"100-01 NORTHERN BLVD","city":"Queens","zip":"11368","accessibility":"No Accessibility","longitude":"-73.868331","latitude":"40.757361","koshermealtype":"non-kosher"}
,{"district":"28","sfcode":"28796","schoolname":"South Jamaica Library","siteaddress":"108-41 GUY R. BREWER BLVD.","city":"Queens","zip":"11433","accessibility":"No Accessibility","longitude":"-73.790734","latitude":"40.695879","koshermealtype":"non-kosher"}
,{"district":"25","sfcode":"25719","schoolname":"022 QPL - McGoldrick Library","siteaddress":"155-06 ROOSEVELT AVE","city":"Queens","zip":"11354","accessibility":"No Accessibility","longitude":"-73.809754","latitude":"40.763998","koshermealtype":"non-kosher"}
,{"district":"18","sfcode":"18793","schoolname":"Brooklyn Public Library - Rugby Library","siteaddress":"1000 Utica Avenue","city":"Brooklyn","zip":"11203","accessibility":"No Accessibility","longitude":"-73.930067","latitude":"40.648725","koshermealtype":"non-kosher"}
,{"district":"24","sfcode":"24731","schoolname":"Corona Library","siteaddress":"38-23 104TH ST.","city":"Queens","zip":"11368","accessibility":"No Accessibility","longitude":"-73.862204","latitude":"40.750871","koshermealtype":"non-kosher"}
,{"district":"18","sfcode":"18777","schoolname":"Brooklyn Public Library - Jamaica Bay Library","siteaddress":"9727 Seaview Avenue","city":"Brooklyn","zip":"11236","accessibility":"No Accessibility","longitude":"-73.889427","latitude":"40.634077","koshermealtype":"non-kosher"}
,{"district":"18","sfcode":"18710","schoolname":"025 BPL - East Flatbush Library","siteaddress":"9612 Church Avenue","city":"Brooklyn","zip":"11212","accessibility":"No Accessibility","longitude":"-73.915258","latitude":"40.655815","koshermealtype":"non-kosher"}
,{"district":"29","sfcode":"29796","schoolname":"Cambria Heights Library","siteaddress":"218-13 LINDEN BLVD","city":"Queens","zip":"11411","accessibility":"No Accessibility","longitude":"-73.74138","latitude":"40.69554","koshermealtype":"non-kosher"}
,{"district":"21","sfcode":"21705","schoolname":"BPL - Brighton Beach","siteaddress":"16 Brighton First Road","city":"Brooklyn","zip":"11235","accessibility":"No Accessibility","longitude":"-73.966486","latitude":"40.576125","koshermealtype":"non-kosher"}
,{"district":"27","sfcode":"27733","schoolname":"Woodhaven Library","siteaddress":"85-41 FOREST PARKWAY","city":"Queens","zip":"11421","accessibility":"No Accessibility","longitude":"-73.861812","latitude":"40.694619","koshermealtype":"non-kosher"}
,{"district":"26","sfcode":"26712","schoolname":"North Hills Library","siteaddress":"5704 MARATHON PKWY","city":"Queens","zip":"11362","accessibility":"No Accessibility","longitude":"-73.731299","latitude":"40.759403","koshermealtype":"non-kosher"}
,{"district":"26","sfcode":"26707","schoolname":"East Flushing Library","siteaddress":"196-36 NORTHERN BLVD","city":"Queens","zip":"11358","accessibility":"No Accessibility","longitude":"-73.785323","latitude":"40.757922","koshermealtype":"non-kosher"}
,{"district":"22","sfcode":"22761","schoolname":"Brooklyn Public Library - Paerdegat Library","siteaddress":"850 East 59th Street","city":"Brooklyn","zip":"11234","accessibility":"No Accessibility","longitude":"-73.919672","latitude":"40.632546","koshermealtype":"non-kosher"}
,{"district":"30","sfcode":"30728","schoolname":"Long Island City Library","siteaddress":"3744 21ST STREET","city":"Queens","zip":"11101","accessibility":"No Accessibility","longitude":"-73.948312","latitude":"40.751564","koshermealtype":"non-kosher"}
,{"district":"30","sfcode":"30755","schoolname":"021 QPL - Astoria Library","siteaddress":"14-01 ASTORIA BLVD","city":"Queens","zip":"11102","accessibility":"No Accessibility","longitude":"-73.928757","latitude":"40.772173","koshermealtype":"non-kosher"}
,{"district":"28","sfcode":"28722","schoolname":"Forest Hills Library","siteaddress":"108-19 71ST AVE","city":"Queens","zip":"11375","accessibility":"No Accessibility","longitude":"-73.777422","latitude":"40.684301","koshermealtype":"non-kosher"}
,{"district":"17","sfcode":"17723","schoolname":"Brooklyn Public Library - Flatbush Library","siteaddress":"22 Linden Boulevard","city":"Brooklyn","zip":"11226","accessibility":"No Accessibility","longitude":"-73.958177","latitude":"40.652192","koshermealtype":"non-kosher"}
,{"district":"27","sfcode":"27763","schoolname":"QPL - Ozone Park Library","siteaddress":"92-24 ROCKAWAY BLVD","city":"Queens","zip":"11417","accessibility":"No Accessibility","longitude":"-73.847111","latitude":"40.681283","koshermealtype":"non-kosher"}
,{"district":"19","sfcode":"19707","schoolname":"Brooklyn Public Library - New Lots Library","siteaddress":"665 New Lots Avenue","city":"Brooklyn","zip":"11207","accessibility":"No Accessibility","longitude":"-73.885789","latitude":"40.665054","koshermealtype":"non-kosher"}
,{"district":"28","sfcode":"28776","schoolname":"Central Library","siteaddress":"89-11 MERRICK BLVD","city":"Queens","zip":"11432","accessibility":"No Accessibility","longitude":"-73.795295","latitude":"40.707865","koshermealtype":"non-kosher"}
,{"district":"25","sfcode":"25725","schoolname":"QPL - Mitchell-Linden Library","siteaddress":"31-32 UNION ST.","city":"Queens","zip":"11354","accessibility":"No Accessibility","koshermealtype":"non-kosher"}
,{"district":"27","sfcode":"27713","schoolname":"Howard Beach Library","siteaddress":"92-06 156TH AVE","city":"Queens","zip":"11414","accessibility":"No Accessibility","longitude":"-73.841928","latitude":"40.664069","koshermealtype":"non-kosher"}
,{"district":"22","sfcode":"22755","schoolname":"Brooklyn Public Library - Kensington Library","siteaddress":"4207 18th Avenue","city":"Brooklyn","zip":"11218","accessibility":"No Accessibility","longitude":"-73.97557","latitude":"40.631493","koshermealtype":"non-kosher"}
,{"district":"24","sfcode":"24724","schoolname":"023 QPL - Sunnyside Library","siteaddress":"43-06 GREENPOINT AVE.","city":"Queens","zip":"11104","accessibility":"No Accessibility","longitude":"-73.861777","latitude":"40.744282","koshermealtype":"non-kosher"}
,{"district":"28","sfcode":"28726","schoolname":"North Forest Park","siteaddress":"98-27 Metropolitan Ave","city":"Queens","zip":"11354","accessibility":"No Accessibility","longitude":"-73.798948","latitude":"40.708104","koshermealtype":"non-kosher"}
,{"district":"16","sfcode":"16749","schoolname":"BPL - Macon Library","siteaddress":"361 Lewis Avenue","city":"Brooklyn","zip":"11233","accessibility":"No Accessibility","longitude":"-73.935075","latitude":"40.683161","koshermealtype":"non-kosher"}
,{"district":"27","sfcode":"27779","schoolname":"Lefferts Library","siteaddress":"103-34 LEFFERTS BLVD","city":"Queens","zip":"11419","accessibility":"No Accessibility","longitude":"-73.824691","latitude":"40.687273","koshermealtype":"non-kosher"}
,{"district":"27","sfcode":"27753","schoolname":"Far Rockaway Library","siteaddress":"1003 BEACH 20 STREET","city":"Queens","zip":"11691","accessibility":"No Accessibility","longitude":"-73.752641","latitude":"40.604487","koshermealtype":"non-kosher"}
,{"district":"25","sfcode":"25752","schoolname":"Queensboro Hill Library","siteaddress":"60-05 MAIN ST.","city":"Queens","zip":"11355","accessibility":"No Accessibility","longitude":"-73.825526","latitude":"40.74308","koshermealtype":"non-kosher"}
,{"district":"14","sfcode":"14250","bldgcode":"K250","schoolname":"P.S. 250 George H. Lindsay","siteaddress":"108 MONTROSE AVENUE","city":"Brooklyn","zip":"11206","accessibility":"Partially Accessible","longitude":"-73.945659","latitude":"40.706708","koshermealtype":"non-kosher"}
,{"district":"25","sfcode":"25701","schoolname":"Pomonok Library","siteaddress":"158-21 JEWEL AVE","city":"Queens","zip":"11365","accessibility":"No Accessibility","longitude":"-73.81045","latitude":"40.732361","koshermealtype":"non-kosher"}
,{"district":"26","sfcode":"26710","schoolname":"Bayside Library","siteaddress":"214-20 NORTHERN BLVD","city":"Queens","zip":"11361","accessibility":"No Accessibility","longitude":"-73.768588","latitude":"40.760363","koshermealtype":"non-kosher"}
,{"district":"25","sfcode":"25717","schoolname":"Flushing Library","siteaddress":"41-17 MAIN STREET","city":"Queens","zip":"11355","accessibility":"No Accessibility","longitude":"-73.829252","latitude":"40.757784","koshermealtype":"non-kosher"}
,{"district":"30","sfcode":"30724","schoolname":"Jackson Heights Library","siteaddress":"35-51 81ST ST.","city":"Queens","zip":"11372","accessibility":"No Accessibility","longitude":"-73.885533","latitude":"40.751319","koshermealtype":"non-kosher"}
,{"district":"29","sfcode":"29725","schoolname":"QPL-South Hollis Library","siteaddress":"204-01 HOLLIS AVENUE SOUTH","city":"Queens","zip":"11412","accessibility":"No Accessibility","longitude":"-73.753827","latitude":"40.706755","koshermealtype":"non-kosher"}
,{"district":"24","sfcode":"24718","schoolname":"Ridgewood Library","siteaddress":"20-12 MADISON ST.","city":"Queens","zip":"11385","accessibility":"No Accessibility","koshermealtype":"non-kosher"}
,{"district":"28","sfcode":"28741","schoolname":"Rochdale Village Library","siteaddress":"169-09 137TH AVENUE","city":"Queens","zip":"11434","accessibility":"No Accessibility","longitude":"-73.771001","latitude":"40.672615","koshermealtype":"non-kosher"}
,{"district":"15","sfcode":"15745","schoolname":"024 BPL - Borough Park Library","siteaddress":"1265 43rd Street","city":"Brooklyn","zip":"11219","accessibility":"No Accessibility","longitude":"-73.989479","latitude":"40.638914","koshermealtype":"non-kosher"}
,{"district":"26","sfcode":"26717","schoolname":"Fresh Meadows Library","siteaddress":"193-20 HORACE HARDING EXPRESSWAY","city":"Queens","zip":"11365","accessibility":"No Accessibility","longitude":"-73.781108","latitude":"40.733348","koshermealtype":"non-kosher"}
,{"district":"27","sfcode":"27702","schoolname":"Peninsula Library","siteaddress":"92-25 ROCKAWAY BEACH BLVD","city":"Queens","zip":"11693","accessibility":"No Accessibility","longitude":"-73.792985","latitude":"40.685066","koshermealtype":"non-kosher"}
,{"district":"21","sfcode":"21716","schoolname":"BPL - Highlawn Library","siteaddress":"1664 West 13th Street","city":"Brooklyn","zip":"11223","accessibility":"No Accessibility","longitude":"-73.97474","latitude":"40.595341","koshermealtype":"non-kosher"}
,{"district":"17","sfcode":"17722","schoolname":"Brooklyn Public Library - Crown Heights Library","siteaddress":"560 New York Avenue","city":"Brooklyn","zip":"11225","accessibility":"No Accessibility","longitude":"-73.947773","latitude":"40.661116","koshermealtype":"non-kosher"}
,{"district":"27","sfcode":"27714","schoolname":"South Ozone Park Library","siteaddress":"128-16 Rockaway Blvd","city":"Queens","zip":"11354","accessibility":"No Accessibility","longitude":"-73.809585","latitude":"40.675084","koshermealtype":"non-kosher"}
,{"district":"30","sfcode":"30744","schoolname":"Woodside Library","siteaddress":"54-22 SKILLMAN AVE","city":"Queens","zip":"11377","accessibility":"No Accessibility","longitude":"-73.90982","latitude":"40.745524","koshermealtype":"non-kosher"}
,{"district":"25","sfcode":"25707","schoolname":"Poppenhusen Library","siteaddress":"121-23 14TH AVE","city":"Queens","zip":"11356","accessibility":"No Accessibility","longitude":"-73.846506","latitude":"40.785984","koshermealtype":"non-kosher"}
,{"district":"23","sfcode":"23722","schoolname":"Brooklyn Public Library - Stone Avenue Library","siteaddress":"581 Mother Gaston Boulevard","city":"Brooklyn","zip":"11212","accessibility":"No Accessibility","longitude":"-73.905478","latitude":"40.664539","koshermealtype":"non-kosher"}
,{"district":"24","sfcode":"24711","schoolname":"East Elmhurst Library","siteaddress":"95-06 ASTORIA BLVD","city":"Queens","zip":"11369","accessibility":"No Accessibility","longitude":"-73.909707","latitude":"40.703993","koshermealtype":"non-kosher"}
,{"district":"26","sfcode":"26706","schoolname":"QPL-Bellerose Library","siteaddress":"250-06 HILLSIDE AVENUE","city":"Queens","zip":"11426","accessibility":"No Accessibility","longitude":"-73.717266","latitude":"40.735403","koshermealtype":"non-kosher"}
,{"district":"27","sfcode":"27762","schoolname":"Baisley Park Library","siteaddress":"117-11 SUTPHIN BLVD.","city":"Queens","zip":"11436","accessibility":"No Accessibility","longitude":"-73.79203","latitude":"40.680318","koshermealtype":"non-kosher"}
,{"district":"27","sfcode":"27773","schoolname":"Seaside Library","siteaddress":"116-15 ROCKAWAY BEACH BLVD.","city":"Queens","zip":"11694","accessibility":"No Accessibility","longitude":"-73.837487","latitude":"40.57971","koshermealtype":"non-kosher"}
,{"district":"22","sfcode":"22760","schoolname":"BPL - Gerritsen Beach Library","siteaddress":"2808 Gerritsen Avenue","city":"Brooklyn","zip":"11229","accessibility":"No Accessibility","longitude":"-73.923725","latitude":"40.591563","koshermealtype":"non-kosher"}
,{"district":"18","sfcode":"18711","schoolname":"Brooklyn Public Library - Canarsie Library","siteaddress":"1580 Rockaway Parkway","city":"Brooklyn","zip":"11236","accessibility":"No Accessibility","longitude":"-73.899179","latitude":"40.642307","koshermealtype":"non-kosher"}
,{"district":"21","sfcode":"21796","schoolname":"Brooklyn Public Library - Coney Island Library","siteaddress":"1901 Mermaid Avenue","city":"Brooklyn","zip":"11224","accessibility":"No Accessibility","longitude":"-73.985993","latitude":"40.576502","koshermealtype":"non-kosher"}
,{"district":"27","sfcode":"27701","schoolname":"Arverne Library","siteaddress":"312 BEACH 54TH ST.","city":"Queens","zip":"11692","accessibility":"No Accessibility","longitude":"-73.784341","latitude":"40.593066","koshermealtype":"non-kosher"}
,{"district":"20","sfcode":"20754","schoolname":"BPL - New Utrecht Library","siteaddress":"1743 86th Street","city":"Brooklyn","zip":"11214","accessibility":"No Accessibility","longitude":"-74.003616","latitude":"40.607852","koshermealtype":"non-kosher"}
,{"district":"29","sfcode":"29192","bldgcode":"Q192","schoolname":"I.S. 192 The Linden","siteaddress":"109-89 204 STREET","city":"Queens","zip":"11412","accessibility":"No Accessibility","longitude":"-73.752885","latitude":"40.705989","koshermealtype":"non-kosher"}
,{"district":"29","sfcode":"29710","schoolname":"Hollis Library","siteaddress":"202-05 HILLSIDE AVE","city":"Queens","zip":"11423","accessibility":"No Accessibility","longitude":"-73.762191","latitude":"40.719914","koshermealtype":"non-kosher"}
,{"district":"14","sfcode":"14755","schoolname":"BPL - Bushwick Library","siteaddress":"340 Bushwick Avenue","city":"Brooklyn","zip":"11206","accessibility":"No Accessibility","longitude":"-73.93927","latitude":"40.704737","koshermealtype":"non-kosher"}
,{"district":"28","sfcode":"28718","schoolname":"QPL-Rego Park Library","siteaddress":"91-41 63RD DRIVE REGO PARK, NY 1","city":"Queens","zip":"11375","accessibility":"No Accessibility","longitude":"-73.775875","latitude":"40.673783","koshermealtype":"non-kosher"}
,{"district":"1","sfcode":"01713","schoolname":"NYCHA 175 Eldridge Resident Association","siteaddress":"213-15 Eldridge Street","city":"Manhattan","zip":"10002","accessibility":"No Accessibility","longitude":"-73.989862","latitude":"40.722289","koshermealtype":"non-kosher"}
,{"district":"25","sfcode":"25724","schoolname":"QPL-Auburndale Library","siteaddress":"25-55 FRANCIS LEWIS BLVD","city":"Queens","zip":"11358","accessibility":"No Accessibility","longitude":"-73.810518","latitude":"40.768152","koshermealtype":"non-kosher"}
,{"district":"25","sfcode":"25749","schoolname":"QPL - Whitestone Library","siteaddress":"151-10 14TH ROAD, WHITESTONE","city":"Queens","zip":"11357","accessibility":"No Accessibility","longitude":"-73.810893","latitude":"40.78864","koshermealtype":"non-kosher"}
,{"district":"26","sfcode":"26718","schoolname":"Windsor Park","siteaddress":"79-50 Bell Blvd","city":"Queens","zip":"11364","accessibility":"No Accessibility","longitude":"-73.770122","latitude":"40.757064","koshermealtype":"non-kosher"}
,{"district":"22","sfcode":"22611","bldgcode":"K495","schoolname":"Origins High School","siteaddress":"3000 AVENUE X","city":"Brooklyn","zip":"11235","accessibility":"Fully Accessible","longitude":"-73.936635","latitude":"40.593157","koshermealtype":"non-kosher"}
,{"district":"19","sfcode":"19731","schoolname":"NYCHA  Cypress Hills Resident Association","siteaddress":"465 Fountain Ave","city":"Brooklyn","zip":"11208","accessibility":"No Accessibility","longitude":"-73.873084","latitude":"40.668397","koshermealtype":"non-kosher"}
,{"district":"3","sfcode":"03722","schoolname":"NYCHA 146 Saint Nicholas","siteaddress":"146 ST. NICHOLAS AVENUE (West 117th","city":"Manhattan","zip":"10026","accessibility":"No Accessibility","longitude":"-73.95275","latitude":"40.80455","koshermealtype":"non-kosher"}
,{"district":"24","sfcode":"24746","schoolname":"QPL - Glendale Library","siteaddress":"78-60 73 PLACE","city":"Queens","zip":"11385","accessibility":"No Accessibility","longitude":"-73.875748","latitude":"40.703149","koshermealtype":"non-kosher"}
,{"district":"13","sfcode":"13256","bldgcode":"K256","schoolname":"P.S. 256 Benjamin Banneker","siteaddress":"114 KOSCIUSZKO STREET","city":"Brooklyn","zip":"11216","accessibility":"No Accessibility","longitude":"-73.94961","latitude":"40.690595","koshermealtype":"non-kosher"}
,{"district":"31","sfcode":"31771","schoolname":"NYCHA South Beach","siteaddress":"155 Norway avenue","city":"Staten Island","zip":"10305","accessibility":"No Accessibility","longitude":"-74.12299","latitude":"40.615413","koshermealtype":"non-kosher"}
,{"district":"11","sfcode":"11729","schoolname":"NYCHA Eastchester Gardens","siteaddress":"1216 BURKE AVE","city":"Bronx","zip":"10469","accessibility":"No Accessibility","longitude":"-73.855407","latitude":"40.832814","koshermealtype":"non-kosher"}
,{"district":"9","sfcode":"09740","schoolname":"NYCHA Clay Avenue (Claremont 2)  Resident Association.","siteaddress":"1195 Clay Avenue","city":"Bronx","zip":"10456","accessibility":"No Accessibility","longitude":"-73.910628","latitude":"40.832385","koshermealtype":"non-kosher"}
,{"district":"29","sfcode":"29706","schoolname":"Rosedale Library","siteaddress":"144-20 243RD ST","city":"Queens","zip":"11422","accessibility":"No Accessibility","longitude":"-73.739488","latitude":"40.660152","koshermealtype":"non-kosher"}
,{"district":"27","sfcode":"27749","schoolname":"NYCHA Beach 41st Resident Association","siteaddress":"433A Beach 40th Street","city":"Queens","zip":"11691","accessibility":"No Accessibility","longitude":"-73.77244","latitude":"40.596298","koshermealtype":"non-kosher"}
,{"district":"30","sfcode":"30729","schoolname":"Hunters Point Library","siteaddress":"47-40 CENTER BLVD.","city":"Queens","zip":"11109","accessibility":"No Accessibility","longitude":"-73.925767","latitude":"40.756072","koshermealtype":"non-kosher"}
,{"district":"29","sfcode":"29356","bldgcode":"Q231","schoolname":"Community Voices Middle School","siteaddress":"145-00 SPRINGFIELD BOULEVARD","city":"Queens","zip":"11413","accessibility":"No Accessibility","longitude":"-73.759396","latitude":"40.664809","koshermealtype":"non-kosher"}]
